{"type": "FeatureCollection", "features": [{"type": "Feature", "geometry": {"type": "Point", "coordinates": [11.975370661666666, 57.69029371166666]}, "properties": {"id": "Fysik origo", "kind": "building", "name": "Fysik origo", "owner": "Akademiska Hus", "capacity": 0.0, "pv_kw": 0.0, "has_pv": 0, "self_sufficiency": 69.0, "demand_hourly": [2.5, 2.5, 2.6, 2.4, 2.4, 5.4, 12.3, 12.9, 15.1, 13.8, 14.7, 14.8, 15.0, 15.2, 15.0, 14.9, 14.1, 14.2, 13.6, 13.5, 10.1, 3.4, 3.0, 2.9], "solar_hourly": [0.0, 0.0, 0.0, 0.0, 0.0, 0.0, 0.0, 0.0, 0.0, 0.0, 0.0, 0.0, 0.0, 0.0, 0.0, 0.0, 0.0, 0.0, 0.0, 0.0, 0.0, 0.0, 0.0, 0.0]}}, {"type": "Feature", "geometry": {"type": "Point", "coordinates": [11.979750416666667, 57.68743318333333]}, "properties": {"id": "Elkraftteknik", "kind": "building", "name": "Elkraftteknik", "owner": "Studentbost\u00e4der", "capacity": 0.0, "pv_kw": 0.0, "has_pv": 0, "self_sufficiency": 45.57, "demand_hourly": [42.7, 43.2, 42.6, 39.6, 41.1, 41.9, 59.9, 66.6, 74.0, 78.8, 77.9, 77.2, 78.6, 80.0, 81.4, 81.9, 75.0, 50.6, 46.8, 46.6, 47.8, 47.0, 45.1, 44.1], "solar_hourly": [0.0, 0.0, 0.0, 0.0, 0.0, 0.0, 0.0, 0.0, 0.0, 0.0, 0.0, 0.0, 0.0, 0.0, 0.0, 0.0, 0.0, 0.0, 0.0, 0.0, 0.0, 0.0, 0.0, 0.0]}}, {"type": "Feature", "geometry": {"type": "Point", "coordinates": [11.978782254545456, 57.68720221818182]}, "properties": {"id": "Id\u00e9l\u00e4ra", "kind": "building", "name": "Id\u00e9l\u00e4ra", "owner": "Studentbost\u00e4der", "capacity": 0.0, "pv_kw": 0.0, "has_pv": 0, "self_sufficiency": 27.17, "demand_hourly": [2.5, 2.5, 2.6, 2.4, 2.4, 5.4, 12.3, 12.9, 15.1, 13.8, 14.7, 14.8, 15.0, 15.2, 15.0, 14.9, 14.1, 14.2, 13.6, 13.5, 10.1, 3.4, 3.0, 2.9], "solar_hourly": [0.0, 0.0, 0.0, 0.0, 0.0, 0.0, 0.0, 0.0, 0.0, 0.0, 0.0, 0.0, 0.0, 0.0, 0.0, 0.0, 0.0, 0.0, 0.0, 0.0, 0.0, 0.0, 0.0, 0.0]}}, {"type": "Feature", "geometry": {"type": "Point", "coordinates": [11.979882724, 57.688115096000004]}, "properties": {"id": "HC", "kind": "building", "name": "HC", "owner": "Studentbost\u00e4der", "capacity": 0.0, "pv_kw": 0.0, "has_pv": 0, "self_sufficiency": 13.41, "demand_hourly": [3.7, 3.7, 3.6, 2.6, 3.5, 6.2, 13.7, 15.5, 15.6, 16.2, 15.7, 16.4, 25.7, 30.4, 31.8, 31.8, 28.8, 14.3, 5.6, 3.6, 3.3, 3.9, 4.1, 5.0], "solar_hourly": [0.0, 0.0, 0.0, 0.0, 0.0, 0.0, 0.0, 0.0, 0.0, 0.0, 0.0, 0.0, 0.0, 0.0, 0.0, 0.0, 0.0, 0.0, 0.0, 0.0, 0.0, 0.0, 0.0, 0.0]}}, {"type": "Feature", "geometry": {"type": "Point", "coordinates": [11.97872216060606, 57.68948417575758]}, "properties": {"id": "HA", "kind": "building", "name": "HA", "owner": "Studentbost\u00e4der", "capacity": 0.0, "pv_kw": 0.0, "has_pv": 0, "self_sufficiency": 1.67, "demand_hourly": [2.7, 2.6, 2.8, 2.4, 2.3, 2.3, 5.7, 10.3, 11.0, 11.1, 11.2, 11.7, 15.1, 19.7, 19.0, 19.0, 18.7, 11.6, 4.2, 2.7, 2.8, 2.6, 2.6, 7.9], "solar_hourly": [0.0, 0.0, 0.0, 0.0, 0.0, 0.0, 0.0, 0.0, 0.0, 0.0, 0.0, 0.0, 0.0, 0.0, 0.0, 0.0, 0.0, 0.0, 0.0, 0.0, 0.0, 0.0, 0.0, 0.0]}}, {"type": "Feature", "geometry": {"type": "Point", "coordinates": [11.976829569565217, 57.687400717391306]}, "properties": {"id": "SB2", "kind": "building", "name": "SB2", "owner": "Studentbost\u00e4der", "capacity": 225.2, "pv_kw": 225.2, "has_pv": 1, "self_sufficiency": 61.49, "demand_hourly": [44.8, 44.2, 42.4, 43.7, 34.6, 33.2, 44.2, 52.8, 49.4, 51.8, 48.1, 42.2, 44.3, 45.8, 43.9, 48.5, 53.6, 49.5, 48.4, 49.9, 40.3, 35.2, 31.9, 33.0], "solar_hourly": [0.0, 0.0, 0.0, 2.03, 27.59, 33.2, 44.2, 52.8, 49.4, 51.8, 48.1, 42.2, 44.3, 45.8, 43.9, 48.5, 53.6, 40.42, 18.44, 2.85, 0.0, 0.0, 0.0, 0.0]}}, {"type": "Feature", "geometry": {"type": "Point", "coordinates": [11.978901344186045, 57.68787402093024]}, "properties": {"id": "Edit", "kind": "building", "name": "Edit", "owner": "Studentbost\u00e4der", "capacity": 184.8, "pv_kw": 184.8, "has_pv": 1, "self_sufficiency": 31.51, "demand_hourly": [100.8, 99.5, 98.3, 94.8, 91.8, 119.1, 152.9, 179.3, 200.4, 220.4, 215.8, 206.3, 202.5, 195.5, 195.2, 182.9, 157.9, 159.9, 132.0, 135.1, 120.4, 124.7, 118.5, 119.2], "solar_hourly": [0.0, 0.0, 0.0, 1.68, 16.66, 37.8, 60.02, 80.47, 96.53, 108.39, 116.88, 117.68, 115.7, 107.94, 94.98, 77.48, 57.7, 35.23, 14.76, 1.65, 0.0, 0.0, 0.0, 0.0]}}, {"type": "Feature", "geometry": {"type": "Point", "coordinates": [11.979354260526316, 57.68876529473685]}, "properties": {"id": "HB", "kind": "building", "name": "HB", "owner": "Studentbost\u00e4der", "capacity": 0.0, "pv_kw": 0.0, "has_pv": 0, "self_sufficiency": 0.0, "demand_hourly": [7.6, 7.9, 7.7, 6.4, 6.5, 22.6, 33.9, 29.1, 31.4, 33.7, 31.6, 35.8, 34.2, 41.5, 41.7, 38.0, 36.5, 15.0, 14.6, 13.8, 13.3, 12.3, 10.2, 10.0], "solar_hourly": [0.0, 0.0, 0.0, 0.0, 0.0, 0.0, 0.0, 0.0, 0.0, 0.0, 0.0, 0.0, 0.0, 0.0, 0.0, 0.0, 0.0, 0.0, 0.0, 0.0, 0.0, 0.0, 0.0, 0.0]}}, {"type": "Feature", "geometry": {"type": "Point", "coordinates": [11.976448675, 57.6878234625]}, "properties": {"id": "SB1", "kind": "building", "name": "SB1", "owner": "Studentbost\u00e4der", "capacity": 120.8, "pv_kw": 120.8, "has_pv": 1, "self_sufficiency": 33.09, "demand_hourly": [63.4, 65.2, 63.6, 61.5, 60.4, 64.5, 100.4, 114.9, 122.0, 126.7, 139.0, 112.2, 124.9, 129.3, 119.2, 111.5, 97.0, 90.2, 83.3, 83.6, 75.5, 61.9, 62.9, 62.1], "solar_hourly": [0.0, 0.0, 0.0, 1.09, 14.8, 28.18, 41.36, 53.22, 62.3, 68.83, 73.31, 73.16, 71.33, 66.06, 57.78, 46.94, 34.9, 21.69, 9.9, 1.53, 0.0, 0.0, 0.0, 0.0]}}, {"type": "Feature", "geometry": {"type": "Point", "coordinates": [11.97733903030303, 57.68646995151515]}, "properties": {"id": "SB3", "kind": "building", "name": "SB3", "owner": "Studentbost\u00e4der", "capacity": 0.0, "pv_kw": 0.0, "has_pv": 0, "self_sufficiency": 0.0, "demand_hourly": [138.6, 134.8, 133.3, 130.2, 110.7, 131.5, 138.6, 143.6, 117.0, 143.1, 110.2, 91.3, 87.8, 97.7, 98.4, 126.2, 130.9, 131.4, 137.4, 135.2, 134.3, 136.4, 128.9, 149.5], "solar_hourly": [0.0, 0.0, 0.0, 0.0, 0.0, 0.0, 0.0, 0.0, 0.0, 0.0, 0.0, 0.0, 0.0, 0.0, 0.0, 0.0, 0.0, 0.0, 0.0, 0.0, 0.0, 0.0, 0.0, 0.0]}}, {"type": "Feature", "geometry": {"type": "Point", "coordinates": [11.978029897959184, 57.68878689183674]}, "properties": {"id": "Maskinteknik", "kind": "building", "name": "Maskinteknik", "owner": "Akademiska Hus", "capacity": 0.0, "pv_kw": 0.0, "has_pv": 0, "self_sufficiency": 0.0, "demand_hourly": [191.6, 177.1, 176.9, 172.7, 173.3, 212.3, 241.2, 292.0, 324.1, 360.8, 355.0, 378.9, 383.8, 366.5, 346.9, 341.2, 308.7, 288.3, 270.9, 253.9, 242.7, 224.7, 208.2, 200.5], "solar_hourly": [0.0, 0.0, 0.0, 0.0, 0.0, 0.0, 0.0, 0.0, 0.0, 0.0, 0.0, 0.0, 0.0, 0.0, 0.0, 0.0, 0.0, 0.0, 0.0, 0.0, 0.0, 0.0, 0.0, 0.0]}}, {"type": "Feature", "geometry": {"type": "Point", "coordinates": [11.982402210714286, 57.68549255357143]}, "properties": {"id": "Gamla matte", "kind": "building", "name": "Gamla matte", "owner": "Chalmersfastigheter", "capacity": 0.0, "pv_kw": 0.0, "has_pv": 0, "self_sufficiency": 0.0, "demand_hourly": [20.6, 21.1, 20.6, 21.9, 21.0, 26.0, 31.7, 31.3, 31.2, 28.8, 28.7, 32.4, 29.9, 27.7, 26.2, 24.8, 22.1, 19.4, 20.7, 19.4, 20.8, 20.3, 20.8, 21.1], "solar_hourly": [0.0, 0.0, 0.0, 0.0, 0.0, 0.0, 0.0, 0.0, 0.0, 0.0, 0.0, 0.0, 0.0, 0.0, 0.0, 0.0, 0.0, 0.0, 0.0, 0.0, 0.0, 0.0, 0.0, 0.0]}}, {"type": "Feature", "geometry": {"type": "Point", "coordinates": [11.97718355897436, 57.68915571538461]}, "properties": {"id": "Lokalkontor", "kind": "building", "name": "Lokalkontor", "owner": "Studentbost\u00e4der", "capacity": 0.0, "pv_kw": 0.0, "has_pv": 0, "self_sufficiency": 0.0, "demand_hourly": [8.9, 8.9, 8.9, 8.9, 8.9, 8.9, 8.9, 8.9, 8.9, 8.9, 8.9, 8.9, 8.9, 8.9, 8.9, 8.9, 8.9, 8.9, 8.9, 8.9, 8.9, 8.9, 8.9, 8.9], "solar_hourly": [0.0, 0.0, 0.0, 0.0, 0.0, 0.0, 0.0, 0.0, 0.0, 0.0, 0.0, 0.0, 0.0, 0.0, 0.0, 0.0, 0.0, 0.0, 0.0, 0.0, 0.0, 0.0, 0.0, 0.0]}}, {"type": "Feature", "geometry": {"type": "Point", "coordinates": [11.97417204347826, 57.68981119782608]}, "properties": {"id": "CA-Huset", "kind": "building", "name": "CA-Huset", "owner": "Studentbost\u00e4der", "capacity": 0.0, "pv_kw": 0.0, "has_pv": 0, "self_sufficiency": 0.0, "demand_hourly": [14.33, 15.01, 13.85, 13.28, 17.82, 19.34, 16.59, 17.55, 25.76, 24.46, 24.08, 23.04, 21.47, 22.93, 21.44, 19.03, 16.43, 12.72, 12.55, 11.6, 12.15, 13.67, 14.49, 15.56], "solar_hourly": [0.0, 0.0, 0.0, 0.0, 0.0, 0.0, 0.0, 0.0, 0.0, 0.0, 0.0, 0.0, 0.0, 0.0, 0.0, 0.0, 0.0, 0.0, 0.0, 0.0, 0.0, 0.0, 0.0, 0.0]}}, {"type": "Feature", "geometry": {"type": "Point", "coordinates": [11.976284355555556, 57.691696244444444]}, "properties": {"id": "CSB Chabo", "kind": "building", "name": "CSB Chabo", "owner": "Studentbost\u00e4der", "capacity": 0.0, "pv_kw": 0.0, "has_pv": 0, "self_sufficiency": 0.0, "demand_hourly": [104.9, 98.3, 98.7, 93.9, 92.9, 97.1, 114.5, 110.8, 117.2, 121.5, 138.3, 154.8, 133.7, 140.7, 140.1, 147.8, 158.3, 181.2, 184.2, 174.0, 160.1, 146.8, 127.7, 117.4], "solar_hourly": [0.0, 0.0, 0.0, 0.0, 0.0, 0.0, 0.0, 0.0, 0.0, 0.0, 0.0, 0.0, 0.0, 0.0, 0.0, 0.0, 0.0, 0.0, 0.0, 0.0, 0.0, 0.0, 0.0, 0.0]}}, {"type": "Feature", "geometry": {"type": "Point", "coordinates": [11.979635, 57.689601442857146]}, "properties": {"id": "CSB Gibraltarvallen guesthouse", "kind": "building", "name": "CSB Gibraltarvallen guesthouse", "owner": "Studentbost\u00e4der", "capacity": 0.0, "pv_kw": 0.0, "has_pv": 0, "self_sufficiency": 0.0, "demand_hourly": [15.4, 14.8, 12.6, 11.6, 12.5, 11.4, 18.1, 20.2, 18.4, 16.2, 20.1, 24.1, 22.7, 21.3, 19.6, 17.8, 23.1, 24.5, 20.4, 22.5, 25.9, 27.1, 21.3, 16.9], "solar_hourly": [0.0, 0.0, 0.0, 0.0, 0.0, 0.0, 0.0, 0.0, 0.0, 0.0, 0.0, 0.0, 0.0, 0.0, 0.0, 0.0, 0.0, 0.0, 0.0, 0.0, 0.0, 0.0, 0.0, 0.0]}}, {"type": "Feature", "geometry": {"type": "Point", "coordinates": [11.978388476923076, 57.68529001923077]}, "properties": {"id": "JSP", "kind": "building", "name": "JSP", "owner": "Studentbost\u00e4der", "capacity": 0.0, "pv_kw": 0.0, "has_pv": 0, "self_sufficiency": 0.0, "demand_hourly": [33.3, 35.9, 35.3, 38.7, 38.0, 56.3, 86.4, 111.0, 123.7, 121.9, 145.8, 132.0, 123.8, 123.7, 93.0, 75.1, 58.5, 43.8, 39.6, 28.6, 27.5, 29.3, 28.0, 25.1], "solar_hourly": [0.0, 0.0, 0.0, 0.0, 0.0, 0.0, 0.0, 0.0, 0.0, 0.0, 0.0, 0.0, 0.0, 0.0, 0.0, 0.0, 0.0, 0.0, 0.0, 0.0, 0.0, 0.0, 0.0, 0.0]}}, {"type": "Feature", "geometry": {"type": "Point", "coordinates": [11.974152357142858, 57.6889829]}, "properties": {"id": "K\u00e5rhus entr\u00e9", "kind": "building", "name": "K\u00e5rhus entr\u00e9", "owner": "Studentbost\u00e4der", "capacity": 139.3, "pv_kw": 139.3, "has_pv": 1, "self_sufficiency": 55.25, "demand_hourly": [42.94, 42.94, 42.94, 42.94, 42.94, 42.94, 42.94, 42.94, 42.94, 42.94, 42.94, 42.94, 42.94, 42.94, 42.94, 42.94, 42.94, 42.94, 42.94, 42.94, 42.94, 42.94, 42.94, 45.83], "solar_hourly": [0.0, 0.0, 0.0, 1.24, 18.19, 31.71, 42.94, 42.94, 42.94, 42.94, 42.94, 42.94, 42.94, 42.94, 42.94, 42.94, 42.63, 29.25, 15.67, 2.93, 0.0, 0.0, 0.0, 0.0]}}, {"type": "Feature", "geometry": {"type": "Point", "coordinates": [11.97494213076923, 57.688423776923074]}, "properties": {"id": "K\u00e5rresturangen", "kind": "building", "name": "K\u00e5rresturangen", "owner": "Studentbost\u00e4der", "capacity": 0.0, "pv_kw": 0.0, "has_pv": 0, "self_sufficiency": 0.0, "demand_hourly": [35.93, 35.7, 35.44, 34.56, 35.45, 38.97, 51.6, 51.2, 57.46, 61.23, 64.84, 72.44, 65.39, 66.45, 64.0, 63.95, 67.61, 71.3, 70.2, 60.2, 51.87, 47.45, 40.89, 37.59], "solar_hourly": [0.0, 0.0, 0.0, 0.0, 0.0, 0.0, 0.0, 0.0, 0.0, 0.0, 0.0, 0.0, 0.0, 0.0, 0.0, 0.0, 0.0, 0.0, 0.0, 0.0, 0.0, 0.0, 0.0, 0.0]}}, {"type": "Feature", "geometry": {"type": "Point", "coordinates": [11.974858663333332, 57.691205573333335]}, "properties": {"id": "MC2", "kind": "building", "name": "MC2", "owner": "Studentbost\u00e4der", "capacity": 585.9, "pv_kw": 585.9, "has_pv": 1, "self_sufficiency": 11.23, "demand_hourly": [1260.22, 1265.39, 1259.92, 1266.68, 1261.42, 1243.37, 1238.95, 1229.68, 1218.44, 1195.3, 1268.99, 1242.06, 1242.79, 1251.72, 1272.03, 1275.56, 1285.91, 1259.79, 1269.36, 1263.83, 1268.8, 1252.97, 1249.01, 1241.14], "solar_hourly": [0.0, 0.0, 0.0, 5.22, 76.51, 133.37, 188.26, 237.98, 276.79, 305.45, 325.77, 327.37, 321.94, 302.4, 270.43, 227.46, 179.31, 123.02, 65.93, 12.33, 0.0, 0.0, 0.0, 0.0]}}, {"type": "Feature", "geometry": {"type": "Point", "coordinates": [11.977405253846154, 57.69009272307692]}, "properties": {"id": "Nya Matte", "kind": "building", "name": "Nya Matte", "owner": "Studentbost\u00e4der", "capacity": 0.0, "pv_kw": 0.0, "has_pv": 0, "self_sufficiency": 0.0, "demand_hourly": [78.1, 83.3, 81.0, 78.8, 77.4, 84.4, 92.5, 106.0, 110.6, 114.6, 123.1, 112.6, 118.8, 121.7, 109.4, 103.9, 100.4, 86.2, 83.5, 87.1, 81.8, 81.8, 83.8, 87.6], "solar_hourly": [0.0, 0.0, 0.0, 0.0, 0.0, 0.0, 0.0, 0.0, 0.0, 0.0, 0.0, 0.0, 0.0, 0.0, 0.0, 0.0, 0.0, 0.0, 0.0, 0.0, 0.0, 0.0, 0.0, 0.0]}}, {"type": "Feature", "geometry": {"type": "Point", "coordinates": [11.978179077777778, 57.68447518333333]}, "properties": {"id": "Teknikparken", "kind": "building", "name": "Teknikparken", "owner": "Studentbost\u00e4der", "capacity": 0.0, "pv_kw": 0.0, "has_pv": 0, "self_sufficiency": 0.0, "demand_hourly": [43.19, 43.63, 42.49, 42.6, 39.46, 42.85, 55.26, 60.57, 65.5, 66.69, 66.52, 69.41, 69.88, 66.85, 64.48, 60.66, 51.86, 46.73, 45.8, 45.78, 45.82, 46.72, 43.59, 42.59], "solar_hourly": [0.0, 0.0, 0.0, 0.0, 0.0, 0.0, 0.0, 0.0, 0.0, 0.0, 0.0, 0.0, 0.0, 0.0, 0.0, 0.0, 0.0, 0.0, 0.0, 0.0, 0.0, 0.0, 0.0, 0.0]}}, {"type": "Feature", "geometry": {"type": "Point", "coordinates": [11.97423502173913, 57.69319463043479]}, "properties": {"id": "Vasa 1", "kind": "building", "name": "Vasa 1", "owner": "Studentbost\u00e4der", "capacity": 0.0, "pv_kw": 0.0, "has_pv": 0, "self_sufficiency": 0.0, "demand_hourly": [32.4, 32.1, 33.01, 31.13, 34.05, 40.5, 51.92, 57.71, 59.58, 63.6, 65.93, 62.27, 62.95, 62.89, 62.58, 53.16, 43.61, 39.22, 35.07, 31.56, 31.62, 32.48, 32.07, 32.1], "solar_hourly": [0.0, 0.0, 0.0, 0.0, 0.0, 0.0, 0.0, 0.0, 0.0, 0.0, 0.0, 0.0, 0.0, 0.0, 0.0, 0.0, 0.0, 0.0, 0.0, 0.0, 0.0, 0.0, 0.0, 0.0]}}, {"type": "Feature", "geometry": {"type": "Point", "coordinates": [11.974524323076924, 57.6919385]}, "properties": {"id": "Vasa 4", "kind": "building", "name": "Vasa 4", "owner": "Studentbost\u00e4der", "capacity": 0.0, "pv_kw": 0.0, "has_pv": 0, "self_sufficiency": 0.0, "demand_hourly": [2.6, 2.6, 2.6, 2.6, 2.6, 2.51, 3.06, 12.91, 13.87, 15.11, 13.98, 13.71, 13.79, 13.61, 13.13, 11.97, 4.17, 2.85, 3.08, 2.45, 2.49, 2.41, 2.68, 2.51], "solar_hourly": [0.0, 0.0, 0.0, 0.0, 0.0, 0.0, 0.0, 0.0, 0.0, 0.0, 0.0, 0.0, 0.0, 0.0, 0.0, 0.0, 0.0, 0.0, 0.0, 0.0, 0.0, 0.0, 0.0, 0.0]}}, {"type": "Feature", "geometry": {"type": "Point", "coordinates": [11.97436488, 57.69227626000001]}, "properties": {"id": "Vasa 7", "kind": "building", "name": "Vasa 7", "owner": "Studentbost\u00e4der", "capacity": 0.0, "pv_kw": 0.0, "has_pv": 0, "self_sufficiency": 0.0, "demand_hourly": [7.3, 7.11, 6.91, 7.08, 8.69, 14.7, 18.66, 15.99, 18.97, 19.1, 18.53, 18.77, 19.91, 21.2, 17.93, 16.47, 9.03, 7.38, 7.48, 7.29, 7.29, 7.48, 7.31, 7.58], "solar_hourly": [0.0, 0.0, 0.0, 0.0, 0.0, 0.0, 0.0, 0.0, 0.0, 0.0, 0.0, 0.0, 0.0, 0.0, 0.0, 0.0, 0.0, 0.0, 0.0, 0.0, 0.0, 0.0, 0.0, 0.0]}}, {"type": "Feature", "geometry": {"type": "Point", "coordinates": [11.975304940625, 57.692480059375]}, "properties": {"id": "Vasa 8", "kind": "building", "name": "Vasa 8", "owner": "Studentbost\u00e4der", "capacity": 0.0, "pv_kw": 0.0, "has_pv": 0, "self_sufficiency": 0.0, "demand_hourly": [15.41, 15.05, 14.82, 14.56, 15.11, 34.25, 63.15, 72.87, 84.49, 87.84, 79.96, 85.0, 79.41, 65.78, 65.97, 46.33, 29.14, 23.85, 17.21, 16.77, 16.3, 16.45, 17.34, 16.76], "solar_hourly": [0.0, 0.0, 0.0, 0.0, 0.0, 0.0, 0.0, 0.0, 0.0, 0.0, 0.0, 0.0, 0.0, 0.0, 0.0, 0.0, 0.0, 0.0, 0.0, 0.0, 0.0, 0.0, 0.0, 0.0]}}, {"type": "Feature", "geometry": {"type": "Point", "coordinates": [11.97581956, 57.69234159]}, "properties": {"id": "Vasa 9", "kind": "building", "name": "Vasa 9", "owner": "Studentbost\u00e4der", "capacity": 0.0, "pv_kw": 0.0, "has_pv": 0, "self_sufficiency": 0.0, "demand_hourly": [12.04, 11.89, 12.0, 14.1, 13.93, 13.92, 14.34, 9.6, 8.9, 6.93, 4.86, 5.0, 4.7, 4.99, 5.5, 9.47, 9.19, 8.33, 10.21, 10.33, 13.53, 14.63, 13.81, 15.29], "solar_hourly": [0.0, 0.0, 0.0, 0.0, 0.0, 0.0, 0.0, 0.0, 0.0, 0.0, 0.0, 0.0, 0.0, 0.0, 0.0, 0.0, 0.0, 0.0, 0.0, 0.0, 0.0, 0.0, 0.0, 0.0]}}, {"type": "Feature", "geometry": {"type": "Point", "coordinates": [11.976587971428572, 57.69285350714286]}, "properties": {"id": "Vasa 10", "kind": "building", "name": "Vasa 10", "owner": "Studentbost\u00e4der", "capacity": 0.0, "pv_kw": 0.0, "has_pv": 0, "self_sufficiency": 0.0, "demand_hourly": [2.5, 2.5, 2.41, 2.22, 2.29, 4.3, 6.68, 7.44, 8.58, 8.69, 8.88, 8.62, 9.41, 8.41, 8.28, 8.02, 7.46, 3.89, 3.5, 2.06, 1.99, 2.45, 2.5, 2.32], "solar_hourly": [0.0, 0.0, 0.0, 0.0, 0.0, 0.0, 0.0, 0.0, 0.0, 0.0, 0.0, 0.0, 0.0, 0.0, 0.0, 0.0, 0.0, 0.0, 0.0, 0.0, 0.0, 0.0, 0.0, 0.0]}}, {"type": "Feature", "geometry": {"type": "Point", "coordinates": [11.976697331818183, 57.69228780909091]}, "properties": {"id": "Vasa 11", "kind": "building", "name": "Vasa 11", "owner": "Studentbost\u00e4der", "capacity": 0.0, "pv_kw": 0.0, "has_pv": 0, "self_sufficiency": 0.0, "demand_hourly": [23.14, 23.14, 22.41, 21.83, 21.85, 24.73, 33.24, 42.7, 48.41, 49.42, 49.4, 52.43, 58.32, 58.73, 52.06, 46.42, 42.42, 42.11, 33.9, 27.63, 23.17, 25.58, 26.63, 26.63], "solar_hourly": [0.0, 0.0, 0.0, 0.0, 0.0, 0.0, 0.0, 0.0, 0.0, 0.0, 0.0, 0.0, 0.0, 0.0, 0.0, 0.0, 0.0, 0.0, 0.0, 0.0, 0.0, 0.0, 0.0, 0.0]}}, {"type": "Feature", "geometry": {"type": "Point", "coordinates": [11.97611818, 57.69313552]}, "properties": {"id": "Vasa 12", "kind": "building", "name": "Vasa 12", "owner": "Studentbost\u00e4der", "capacity": 0.0, "pv_kw": 0.0, "has_pv": 0, "self_sufficiency": 0.0, "demand_hourly": [0.56, 0.55, 0.61, 0.68, 0.63, 0.67, 0.62, 0.57, 0.51, 0.53, 0.51, 0.52, 0.51, 0.52, 0.54, 0.51, 0.53, 0.5, 0.51, 0.53, 0.51, 0.56, 0.58, 0.56], "solar_hourly": [0.0, 0.0, 0.0, 0.0, 0.0, 0.0, 0.0, 0.0, 0.0, 0.0, 0.0, 0.0, 0.0, 0.0, 0.0, 0.0, 0.0, 0.0, 0.0, 0.0, 0.0, 0.0, 0.0, 0.0]}}, {"type": "Feature", "geometry": {"type": "Point", "coordinates": [11.97407336, 57.692427280000004]}, "properties": {"id": "Vasa 13", "kind": "building", "name": "Vasa 13", "owner": "Studentbost\u00e4der", "capacity": 0.0, "pv_kw": 0.0, "has_pv": 0, "self_sufficiency": 0.0, "demand_hourly": [0.26, 0.26, 0.27, 0.11, 0.05, 0.05, 0.06, 0.07, 0.07, 0.06, 0.07, 0.08, 0.04, 0.05, 0.05, 0.05, 0.05, 0.06, 0.05, 0.05, 0.05, 0.17, 0.26, 0.26], "solar_hourly": [0.0, 0.0, 0.0, 0.0, 0.0, 0.0, 0.0, 0.0, 0.0, 0.0, 0.0, 0.0, 0.0, 0.0, 0.0, 0.0, 0.0, 0.0, 0.0, 0.0, 0.0, 0.0, 0.0, 0.0]}}, {"type": "Feature", "geometry": {"type": "Point", "coordinates": [11.977254733333332, 57.69183534444445]}, "properties": {"id": "Vasa 15", "kind": "building", "name": "Vasa 15", "owner": "Studentbost\u00e4der", "capacity": 0.0, "pv_kw": 0.0, "has_pv": 0, "self_sufficiency": 0.0, "demand_hourly": [12.91, 12.78, 13.54, 13.3, 15.13, 54.22, 64.66, 68.67, 70.01, 77.19, 76.27, 78.16, 78.87, 75.83, 70.15, 65.48, 51.68, 26.38, 16.14, 31.28, 39.1, 39.1, 39.1, 39.1], "solar_hourly": [0.0, 0.0, 0.0, 0.0, 0.0, 0.0, 0.0, 0.0, 0.0, 0.0, 0.0, 0.0, 0.0, 0.0, 0.0, 0.0, 0.0, 0.0, 0.0, 0.0, 0.0, 0.0, 0.0, 0.0]}}, {"type": "Feature", "geometry": {"type": "Point", "coordinates": [11.97803518, 57.68593524799999]}, "properties": {"id": "BAT_Battery-01", "kind": "battery", "name": "Battery-01", "owner": "", "capacity": 54.0, "placeholder": true}}, {"type": "Feature", "geometry": {"type": "Point", "coordinates": [11.97315, 57.6911]}, "properties": {"id": "GRID", "kind": "grid", "name": "GRID", "owner": "", "capacity": 0.0, "placeholder": true}}, {"type": "Feature", "geometry": {"type": "Point", "coordinates": [11.980541, 57.688039]}, "properties": {"id": "CP_CP", "kind": "charge_point", "name": "CP", "owner": "Akademiska Hus", "capacity": 61.0, "placeholder": true, "charger_type": "A", "connected_evs": 1, "ev_name": "CP-EV", "plugged_hourly": [1, 1, 1, 1, 1, 1, 1, 0, 0, 0, 0, 0, 0, 0, 0, 0, 0, 0, 1, 1, 1, 1, 1, 1]}}, {"type": "Feature", "geometry": {"type": "Point", "coordinates": [11.976829569565217, 57.687400717391306]}, "properties": {"id": "SB2_PV_SB2-PV_1", "kind": "pv", "name": "SB2-PV_1", "owner": "Studentbost\u00e4der", "capacity": 113.2, "host": "SB2"}}, {"type": "Feature", "geometry": {"type": "Point", "coordinates": [11.976829569565217, 57.687400717391306]}, "properties": {"id": "SB2_PV_SB2-PV_2", "kind": "pv", "name": "SB2-PV_2", "owner": "Studentbost\u00e4der", "capacity": 112.0, "host": "SB2"}}, {"type": "Feature", "geometry": {"type": "Point", "coordinates": [11.978901344186045, 57.68787402093024]}, "properties": {"id": "Edit_PV_Edit-PV_1", "kind": "pv", "name": "Edit-PV_1", "owner": "Studentbost\u00e4der", "capacity": 95.6, "host": "Edit"}}, {"type": "Feature", "geometry": {"type": "Point", "coordinates": [11.978901344186045, 57.68787402093024]}, "properties": {"id": "Edit_PV_Edit-PV_2", "kind": "pv", "name": "Edit-PV_2", "owner": "Studentbost\u00e4der", "capacity": 89.2, "host": "Edit"}}, {"type": "Feature", "geometry": {"type": "Point", "coordinates": [11.976448675, 57.6878234625]}, "properties": {"id": "SB1_PV_SB1-PV_1", "kind": "pv", "name": "SB1-PV_1", "owner": "Studentbost\u00e4der", "capacity": 60.0, "host": "SB1"}}, {"type": "Feature", "geometry": {"type": "Point", "coordinates": [11.976448675, 57.6878234625]}, "properties": {"id": "SB1_PV_SB1-PV_2", "kind": "pv", "name": "SB1-PV_2", "owner": "Studentbost\u00e4der", "capacity": 60.8, "host": "SB1"}}, {"type": "Feature", "geometry": {"type": "Point", "coordinates": [11.974152357142858, 57.6889829]}, "properties": {"id": "K\u00e5rhus entr\u00e9_PV_Karhus-PV", "kind": "pv", "name": "Karhus-PV", "owner": "Studentbost\u00e4der", "capacity": 139.3, "host": "K\u00e5rhus entr\u00e9"}}, {"type": "Feature", "geometry": {"type": "Point", "coordinates": [11.974858663333332, 57.691205573333335]}, "properties": {"id": "MC2_PV_MC2-PV", "kind": "pv", "name": "MC2-PV", "owner": "Studentbost\u00e4der", "capacity": 585.9, "host": "MC2"}}], "generated": "2026-09-11T09:05:12+02:00"}