{"type": "FeatureCollection", "name": "table_footprints", "note": "Lantm\u00e4teriet outlines from MR-Table/media/building-footprints.geojson under the ids of Dashboard/public/buildings.geojson. Built by scripts/build_table_footprints.py - do not edit.", "features": [{"type": "Feature", "properties": {"id": "awl", "rhino_layer": "AWL", "kind": "building", "footprint_m2": 1979.5, "height_m": 28.03, "estimated_floors": 8, "geometry_source": "Lantm\u00e4teriet", "lantmateriet_ids": ["54236eb7-6159-45f2-b8d9-ccf08ef2ebc8", "90bcb04f-fb33-4b23-b8d9-b5bf20f23987", "a47aa6a1-24af-46be-ab68-ab3af452ec73"], "ecom": {"name": "AWL", "owner": "Akademiska Hus", "demand_kwh": 985.1, "grid_kwh": 240.9, "local_kwh": 744.2, "solar_kwh": 744.2, "pv_kw": 129.2, "self_sufficiency": 75.55, "demand_hourly": [23.0, 19.3, 19.8, 20.3, 21.8, 26.1, 48.7, 68.1, 75.7, 72.5, 69.3, 72.0, 70.5, 73.3, 62.8, 46.3, 36.8, 29.7, 23.6, 22.5, 22.8, 20.9, 19.3, 20.0], "solar_hourly": [0.0, 0.0, 0.0, 1.17, 11.65, 26.1, 41.96, 56.26, 67.49, 72.5, 69.3, 72.0, 70.5, 73.3, 62.8, 46.3, 36.8, 24.63, 10.32, 1.15, 0.0, 0.0, 0.0, 0.0]}}, "geometry": {"type": "MultiPolygon", "coordinates": [[[[11.977589, 57.6858318], [11.9778173, 57.6858847], [11.9777711, 57.685942], [11.9778815, 57.6859671], [11.9778934, 57.6859532], [11.9779083, 57.6859568], [11.9779297, 57.6859304], [11.9779146, 57.685927], [11.9779279, 57.6859104], [11.9785835, 57.6860623], [11.9787874, 57.68581], [11.9777928, 57.6855794], [11.977589, 57.6858318]]], [[[11.977626, 57.685857], [11.9775684, 57.6858435], [11.9775455, 57.6858719], [11.9776032, 57.6858854], [11.977626, 57.685857]]], [[[11.9785214, 57.6860571], [11.9785021, 57.686052], [11.9784968, 57.6860492], [11.9784541, 57.686098], [11.9784971, 57.6861081], [11.978532, 57.686058], [11.9785214, 57.6860571]]]]}}, {"type": "Feature", "properties": {"id": "bibliotek", "rhino_layer": "Bibliotek", "kind": "building", "footprint_m2": 2519.0, "height_m": 32.26, "estimated_floors": 9, "geometry_source": "Lantm\u00e4teriet", "lantmateriet_ids": ["20eb842b-00c3-4493-97af-28e693d7ff31"], "ecom": null}, "geometry": {"type": "Polygon", "coordinates": [[[11.978101, 57.6903524], [11.9780629, 57.6903953], [11.9782466, 57.6904424], [11.9781753, 57.6905214], [11.9782949, 57.6905524], [11.9782616, 57.6905894], [11.9782977, 57.6905987], [11.9781196, 57.6907947], [11.978102, 57.6907905], [11.9780908, 57.6907919], [11.9780805, 57.6907949], [11.9780758, 57.6907988], [11.9780735, 57.690803], [11.9780769, 57.690812], [11.9780841, 57.6908162], [11.9782619, 57.6908631], [11.9782839, 57.6908391], [11.9784248, 57.6908755], [11.9786061, 57.6906751], [11.9785644, 57.6906655], [11.9787042, 57.6905102], [11.9786774, 57.6905033], [11.9786986, 57.690483], [11.9789876, 57.6905578], [11.9791375, 57.6903918], [11.9788424, 57.6903153], [11.9788306, 57.6903284], [11.9785846, 57.6902652], [11.9787784, 57.6900499], [11.9785626, 57.6899941], [11.9782141, 57.6903814], [11.978101, 57.6903524]]]}}, {"type": "Feature", "properties": {"id": "ca-huset", "rhino_layer": "CA-Huset", "kind": "building", "footprint_m2": 1025.2, "height_m": 14.99, "estimated_floors": 4, "geometry_source": "Lantm\u00e4teriet", "lantmateriet_ids": ["c5c4d711-e782-4f83-b72a-a2b327f7d4b7"], "ecom": {"name": "CA-Huset", "owner": "Studentbost\u00e4der", "demand_kwh": 419.1, "grid_kwh": 419.1, "local_kwh": 0.0, "solar_kwh": 0.0, "pv_kw": 0.0, "self_sufficiency": 0.0, "demand_hourly": [14.33, 15.01, 13.85, 13.28, 17.82, 19.34, 16.59, 17.55, 25.76, 24.46, 24.08, 23.04, 21.47, 22.93, 21.44, 19.03, 16.43, 12.72, 12.55, 11.6, 12.15, 13.67, 14.49, 15.56], "solar_hourly": [0.0, 0.0, 0.0, 0.0, 0.0, 0.0, 0.0, 0.0, 0.0, 0.0, 0.0, 0.0, 0.0, 0.0, 0.0, 0.0, 0.0, 0.0, 0.0, 0.0, 0.0, 0.0, 0.0, 0.0]}}, "geometry": {"type": "Polygon", "coordinates": [[[11.9739067, 57.6900921], [11.9739865, 57.6901177], [11.9740184, 57.6900893], [11.9740206, 57.6900874], [11.9740206, 57.6900874], [11.9740773, 57.6900359], [11.9740786, 57.6900364], [11.9743385, 57.6898105], [11.9742777, 57.6897917], [11.9742551, 57.689784], [11.9742586, 57.6897804], [11.9742627, 57.6897791], [11.9742682, 57.689778], [11.974273, 57.6897758], [11.9742782, 57.6897719], [11.9742824, 57.6897699], [11.9742859, 57.6897659], [11.9742886, 57.6897617], [11.9742891, 57.6897574], [11.9742887, 57.6897532], [11.9742874, 57.6897491], [11.9742827, 57.6897447], [11.9742782, 57.6897416], [11.9742747, 57.6897388], [11.9742692, 57.6897369], [11.9742609, 57.6897348], [11.9742512, 57.6897338], [11.9742423, 57.6897339], [11.9742259, 57.6897354], [11.9742189, 57.6897352], [11.9742117, 57.6897346], [11.9745091, 57.6894706], [11.9744427, 57.689448], [11.9744543, 57.6894383], [11.9743493, 57.6894033], [11.9740285, 57.6896863], [11.9740063, 57.6896792], [11.9739705, 57.6897107], [11.9740893, 57.6897496], [11.9739395, 57.6898821], [11.9740189, 57.6899077], [11.9739133, 57.6900004], [11.9739161, 57.6900013], [11.9738705, 57.6900393], [11.9739405, 57.6900617], [11.9739067, 57.6900921]]]}}, {"type": "Feature", "properties": {"id": "csb-gibraltarvallen-guesthouse", "rhino_layer": "CSB Gibraltarvallen guesthouse", "kind": "building", "footprint_m2": 804.1, "height_m": 21.03, "estimated_floors": 6, "geometry_source": "Lantm\u00e4teriet", "lantmateriet_ids": ["b6eb8bee-7acc-4d68-8e06-6cfe7f8af463"], "ecom": {"name": "CSB Gibraltarvallen guesthouse", "owner": "Studentbost\u00e4der", "demand_kwh": 458.5, "grid_kwh": 458.5, "local_kwh": 0.0, "solar_kwh": 0.0, "pv_kw": 0.0, "self_sufficiency": 0.0, "demand_hourly": [15.4, 14.8, 12.6, 11.6, 12.5, 11.4, 18.1, 20.2, 18.4, 16.2, 20.1, 24.1, 22.7, 21.3, 19.6, 17.8, 23.1, 24.5, 20.4, 22.5, 25.9, 27.1, 21.3, 16.9], "solar_hourly": [0.0, 0.0, 0.0, 0.0, 0.0, 0.0, 0.0, 0.0, 0.0, 0.0, 0.0, 0.0, 0.0, 0.0, 0.0, 0.0, 0.0, 0.0, 0.0, 0.0, 0.0, 0.0, 0.0, 0.0]}}, "geometry": {"type": "Polygon", "coordinates": [[[11.9792113, 57.6896102], [11.9798332, 57.6897736], [11.9800033, 57.689586], [11.979933, 57.6895676], [11.9799011, 57.689602], [11.9793518, 57.6894605], [11.9792113, 57.6896102]]]}}, {"type": "Feature", "properties": {"id": "csb-chabo", "rhino_layer": "CSB chabo", "kind": "building", "footprint_m2": 2274.1, "height_m": 37.3, "estimated_floors": 11, "geometry_source": "Lantm\u00e4teriet", "lantmateriet_ids": ["e6207885-d382-4150-b880-d29618afbf29"], "ecom": {"name": "CSB Chabo", "owner": "Studentbost\u00e4der", "demand_kwh": 3154.9, "grid_kwh": 3154.9, "local_kwh": 0.0, "solar_kwh": 0.0, "pv_kw": 0.0, "self_sufficiency": 0.0, "demand_hourly": [104.9, 98.3, 98.7, 93.9, 92.9, 97.1, 114.5, 110.8, 117.2, 121.5, 138.3, 154.8, 133.7, 140.7, 140.1, 147.8, 158.3, 181.2, 184.2, 174.0, 160.1, 146.8, 127.7, 117.4], "solar_hourly": [0.0, 0.0, 0.0, 0.0, 0.0, 0.0, 0.0, 0.0, 0.0, 0.0, 0.0, 0.0, 0.0, 0.0, 0.0, 0.0, 0.0, 0.0, 0.0, 0.0, 0.0, 0.0, 0.0, 0.0]}}, "geometry": {"type": "Polygon", "coordinates": [[[11.9762965, 57.6915078], [11.9765917, 57.6915829], [11.9762797, 57.6919345], [11.9757073, 57.6917888], [11.9755856, 57.691926], [11.9764141, 57.6921368], [11.9769696, 57.691511], [11.9764182, 57.6913706], [11.9762965, 57.6915078]]]}}, {"type": "Feature", "properties": {"id": "edit", "rhino_layer": "Edit", "kind": "building", "footprint_m2": 4623.4, "height_m": 30.51, "estimated_floors": 9, "geometry_source": "Lantm\u00e4teriet", "lantmateriet_ids": ["a0d217fe-7940-42af-81d7-8a4cb01bf130", "bdece730-2e8d-4979-884c-f837c2a88d08"], "ecom": {"name": "Edit", "owner": "Studentbost\u00e4der", "demand_kwh": 3623.2, "grid_kwh": 2479.7, "local_kwh": 1143.5, "solar_kwh": 1141.5, "pv_kw": 184.8, "self_sufficiency": 31.56, "demand_hourly": [100.8, 99.5, 98.3, 94.8, 91.8, 119.1, 152.9, 179.3, 200.4, 220.4, 215.8, 206.3, 202.5, 195.5, 195.2, 182.9, 157.9, 159.9, 132.0, 135.1, 120.4, 124.7, 118.5, 119.2], "solar_hourly": [0.0, 0.0, 0.0, 1.68, 16.66, 37.8, 60.02, 80.47, 96.53, 108.39, 116.88, 117.68, 115.7, 107.94, 94.98, 77.48, 57.7, 35.23, 14.76, 1.65, 0.0, 0.0, 0.0, 0.0]}}, "geometry": {"type": "Polygon", "coordinates": [[[11.9784177, 57.6874941], [11.9779812, 57.6879739], [11.9780667, 57.6879942], [11.9780103, 57.6880559], [11.9792823, 57.6883884], [11.9793517, 57.6883052], [11.9793994, 57.6883172], [11.9797939, 57.6878782], [11.9797682, 57.6878728], [11.979828, 57.6878065], [11.9797417, 57.687784], [11.9797513, 57.6877735], [11.9791427, 57.687615], [11.9791331, 57.6876255], [11.9785901, 57.687484], [11.9786028, 57.6874698], [11.9784455, 57.6874294], [11.9783931, 57.6874879], [11.9784177, 57.6874941]], [[11.9788785, 57.6880433], [11.9789231, 57.6880017], [11.9789644, 57.6879592], [11.9790024, 57.6879157], [11.9790369, 57.6878715], [11.9790679, 57.6878265], [11.9790954, 57.6877809], [11.9795371, 57.6878948], [11.9792252, 57.6882346], [11.978783, 57.6881207], [11.9788306, 57.6880838], [11.9788785, 57.6880433]], [[11.9788297, 57.6878146], [11.9787851, 57.6878561], [11.9787416, 57.687901], [11.9787058, 57.6879421], [11.9786713, 57.6879863], [11.9786403, 57.6880313], [11.9786129, 57.6880769], [11.9782451, 57.6879822], [11.978553, 57.6876411], [11.9789253, 57.6877371], [11.9788776, 57.687774], [11.9788297, 57.6878146]]]}}, {"type": "Feature", "properties": {"id": "elkrafteknik", "rhino_layer": "Elkrafteknik", "kind": "building", "footprint_m2": 1900.8, "height_m": 13.16, "estimated_floors": 4, "geometry_source": "Lantm\u00e4teriet", "lantmateriet_ids": ["a0d217fe-7940-42af-81d7-8a4cb01bf130"], "ecom": {"name": "Elkraftteknik", "owner": "Studentbost\u00e4der", "demand_kwh": 1410.4, "grid_kwh": 755.8, "local_kwh": 654.6, "solar_kwh": 0.0, "pv_kw": 0.0, "self_sufficiency": 46.41, "demand_hourly": [42.7, 43.2, 42.6, 39.6, 41.1, 41.9, 59.9, 66.6, 74.0, 78.8, 77.9, 77.2, 78.6, 80.0, 81.4, 81.9, 75.0, 50.6, 46.8, 46.6, 47.8, 47.0, 45.1, 44.1], "solar_hourly": [0.0, 0.0, 0.0, 0.0, 0.0, 0.0, 0.0, 0.0, 0.0, 0.0, 0.0, 0.0, 0.0, 0.0, 0.0, 0.0, 0.0, 0.0, 0.0, 0.0, 0.0, 0.0, 0.0, 0.0]}}, "geometry": {"type": "Polygon", "coordinates": [[[11.980076, 57.6873813], [11.9800809, 57.6873759], [11.9794065, 57.6871997], [11.9790943, 57.6875423], [11.9797688, 57.6877186], [11.980076, 57.6873813]]]}}, {"type": "Feature", "properties": {"id": "fysik-origo", "rhino_layer": "Fysik Origo", "kind": "building", "footprint_m2": 6651.7, "height_m": 34.44, "estimated_floors": 10, "geometry_source": "Lantm\u00e4teriet", "lantmateriet_ids": ["c41eb873-58fe-4b65-b495-f90a084b8bc1", "de05bc77-71c7-4360-8b9b-20838fcee3fa", "f9e5bf58-6344-4bf5-b4e2-f30a9771f5fe"], "ecom": {"name": "Fysik origo", "owner": "Akademiska Hus", "demand_kwh": 236.3, "grid_kwh": 70.6, "local_kwh": 165.7, "solar_kwh": 0.0, "pv_kw": 0.0, "self_sufficiency": 70.12, "demand_hourly": [2.5, 2.5, 2.6, 2.4, 2.4, 5.4, 12.3, 12.9, 15.1, 13.8, 14.7, 14.8, 15.0, 15.2, 15.0, 14.9, 14.1, 14.2, 13.6, 13.5, 10.1, 3.4, 3.0, 2.9], "solar_hourly": [0.0, 0.0, 0.0, 0.0, 0.0, 0.0, 0.0, 0.0, 0.0, 0.0, 0.0, 0.0, 0.0, 0.0, 0.0, 0.0, 0.0, 0.0, 0.0, 0.0, 0.0, 0.0, 0.0, 0.0]}}, "geometry": {"type": "MultiPolygon", "coordinates": [[[[11.9746401, 57.6903995], [11.974416, 57.690355], [11.9742794, 57.6905567], [11.9745051, 57.6906004], [11.974519, 57.6905786], [11.974867, 57.6906337], [11.9750228, 57.6906595], [11.9750755, 57.6905616], [11.9755094, 57.6906303], [11.9757103, 57.6906627], [11.9756816, 57.6907038], [11.9758326, 57.6907339], [11.9758171, 57.690757], [11.9762256, 57.6908676], [11.9762974, 57.6907902], [11.9760235, 57.6907178], [11.976087, 57.6906272], [11.9765288, 57.6900007], [11.9764913, 57.6899931], [11.9765261, 57.6899446], [11.9764602, 57.6899306], [11.9764609, 57.6899297], [11.9762724, 57.689892], [11.9763803, 57.6897408], [11.9761626, 57.6896706], [11.976134, 57.6896973], [11.9760161, 57.6896587], [11.9759802, 57.6896938], [11.9759503, 57.6897271], [11.9759267, 57.6897605], [11.975909, 57.6897956], [11.975899, 57.6898152], [11.9758698, 57.6898114], [11.9757924, 57.6899269], [11.9754877, 57.6898618], [11.9753902, 57.6899929], [11.9759348, 57.6901089], [11.9756519, 57.6905141], [11.9750976, 57.6904259], [11.9752817, 57.6901676], [11.9750407, 57.6901176], [11.9750585, 57.690093], [11.9749317, 57.6900667], [11.974914, 57.6900913], [11.9748919, 57.6900868], [11.9746694, 57.6903988], [11.9749766, 57.6904615], [11.9749655, 57.6904778], [11.9750381, 57.6904912], [11.9750282, 57.6905091], [11.9747966, 57.6904711], [11.9748126, 57.6904443], [11.9746293, 57.6904147], [11.9746401, 57.6903995]]], [[[11.9742781, 57.6906368], [11.9742415, 57.6906298], [11.9741319, 57.690794], [11.9743465, 57.6908347], [11.974457, 57.6906719], [11.9742781, 57.6906368]]]]}}, {"type": "Feature", "properties": {"id": "gamla-matte", "rhino_layer": "Gamla Matte", "kind": "building", "footprint_m2": 2346.7, "height_m": 18.41, "estimated_floors": 5, "geometry_source": "Lantm\u00e4teriet", "lantmateriet_ids": ["6afbd993-c9b3-41b1-8156-d291cb1dca69", "fb97a822-ac46-4fb2-bc22-f4b41734998b"], "ecom": {"name": "Gamla matte", "owner": "Chalmersfastigheter", "demand_kwh": 588.5, "grid_kwh": 588.5, "local_kwh": 0.0, "solar_kwh": 0.0, "pv_kw": 0.0, "self_sufficiency": 0.0, "demand_hourly": [20.6, 21.1, 20.6, 21.9, 21.0, 26.0, 31.7, 31.3, 31.2, 28.8, 28.7, 32.4, 29.9, 27.7, 26.2, 24.8, 22.1, 19.4, 20.7, 19.4, 20.8, 20.3, 20.8, 21.1], "solar_hourly": [0.0, 0.0, 0.0, 0.0, 0.0, 0.0, 0.0, 0.0, 0.0, 0.0, 0.0, 0.0, 0.0, 0.0, 0.0, 0.0, 0.0, 0.0, 0.0, 0.0, 0.0, 0.0, 0.0, 0.0]}}, "geometry": {"type": "Polygon", "coordinates": [[[11.9823323, 57.6855231], [11.9824058, 57.6855304], [11.9824257, 57.6854728], [11.982496, 57.6854795], [11.9824319, 57.6856719], [11.9829623, 57.6857227], [11.98304, 57.6854898], [11.9830703, 57.6853988], [11.9824527, 57.6853397], [11.9824598, 57.6853185], [11.9824268, 57.6853154], [11.9824197, 57.6853366], [11.9818021, 57.6852775], [11.9816942, 57.6856014], [11.9822246, 57.6856521], [11.9822888, 57.6854597], [11.982352, 57.6854657], [11.9823323, 57.6855231]], [[11.9826762, 57.6855992], [11.982715, 57.6854827], [11.982819, 57.6854926], [11.9827801, 57.6856091], [11.9826762, 57.6855992]], [[11.9819385, 57.6855286], [11.9819773, 57.6854121], [11.9820813, 57.6854221], [11.9820425, 57.6855386], [11.9819385, 57.6855286]]]}}, {"type": "Feature", "properties": {"id": "ha", "rhino_layer": "HA", "kind": "building", "footprint_m2": 1179.0, "height_m": 9.0, "estimated_floors": 3, "geometry_source": "Lantm\u00e4teriet", "lantmateriet_ids": ["7b693f9b-37c7-453f-8153-9b76e5870c9b", "a3b8af61-6623-41e9-936d-2f0b471b4f80", "b5dafad4-cff7-4eb3-9e5d-c8d7f3bc3eb9", "c35568fc-228b-4a40-9395-9b45598d7a07"], "ecom": {"name": "HA", "owner": "Studentbost\u00e4der", "demand_kwh": 202.0, "grid_kwh": 180.3, "local_kwh": 21.7, "solar_kwh": 0.0, "pv_kw": 0.0, "self_sufficiency": 10.74, "demand_hourly": [2.7, 2.6, 2.8, 2.4, 2.3, 2.3, 5.7, 10.3, 11.0, 11.1, 11.2, 11.7, 15.1, 19.7, 19.0, 19.0, 18.7, 11.6, 4.2, 2.7, 2.8, 2.6, 2.6, 7.9], "solar_hourly": [0.0, 0.0, 0.0, 0.0, 0.0, 0.0, 0.0, 0.0, 0.0, 0.0, 0.0, 0.0, 0.0, 0.0, 0.0, 0.0, 0.0, 0.0, 0.0, 0.0, 0.0, 0.0, 0.0, 0.0]}}, "geometry": {"type": "Polygon", "coordinates": [[[11.9785966, 57.6895178], [11.9785373, 57.6895836], [11.9784631, 57.6895644], [11.9783353, 57.689706], [11.9785813, 57.6897696], [11.9785878, 57.6897625], [11.9786493, 57.6897784], [11.9787629, 57.6896525], [11.9787905, 57.6896596], [11.9788677, 57.689574], [11.9788401, 57.6895669], [11.9789234, 57.6894745], [11.9789513, 57.6894818], [11.979029, 57.6893957], [11.979001, 57.6893885], [11.9791009, 57.6892778], [11.9790397, 57.689262], [11.979045, 57.689256], [11.9788278, 57.6891998], [11.9787123, 57.6893278], [11.9787564, 57.6893392], [11.9786976, 57.6894045], [11.9786807, 57.6894002], [11.9786572, 57.6894262], [11.9786284, 57.6894187], [11.9786221, 57.689428], [11.9786183, 57.6894279], [11.9785829, 57.6894671], [11.978589, 57.6894687], [11.9785785, 57.6894804], [11.9786026, 57.6894867], [11.9785787, 57.6895132], [11.9785966, 57.6895178]]]}}, {"type": "Feature", "properties": {"id": "hb", "rhino_layer": "HB", "kind": "building", "footprint_m2": 1466.5, "height_m": 9.0, "estimated_floors": 3, "geometry_source": "Lantm\u00e4teriet", "lantmateriet_ids": ["e85cbb48-7d10-41b6-9f16-af78ef9bb397", "eb0dcc2c-5143-4d61-9d7f-e11212c13715"], "ecom": {"name": "HB", "owner": "Studentbost\u00e4der", "demand_kwh": 535.3, "grid_kwh": 535.3, "local_kwh": 0.0, "solar_kwh": 0.0, "pv_kw": 0.0, "self_sufficiency": 0.0, "demand_hourly": [7.6, 7.9, 7.7, 6.4, 6.5, 22.6, 33.9, 29.1, 31.4, 33.7, 31.6, 35.8, 34.2, 41.5, 41.7, 38.0, 36.5, 15.0, 14.6, 13.8, 13.3, 12.3, 10.2, 10.0], "solar_hourly": [0.0, 0.0, 0.0, 0.0, 0.0, 0.0, 0.0, 0.0, 0.0, 0.0, 0.0, 0.0, 0.0, 0.0, 0.0, 0.0, 0.0, 0.0, 0.0, 0.0, 0.0, 0.0, 0.0, 0.0]}}, "geometry": {"type": "Polygon", "coordinates": [[[11.9790636, 57.6891605], [11.9791247, 57.6891764], [11.9792215, 57.6890691], [11.9792521, 57.689077], [11.9793331, 57.6889872], [11.9793017, 57.6889791], [11.9793934, 57.6888774], [11.9794246, 57.6888855], [11.9795058, 57.6887955], [11.9794764, 57.6887879], [11.9795674, 57.688687], [11.9795984, 57.688695], [11.9796793, 57.6886053], [11.9796508, 57.6885979], [11.9797518, 57.688486], [11.9797495, 57.6884854], [11.9796888, 57.688472], [11.9796892, 57.6884708], [11.9795454, 57.6884336], [11.9795613, 57.688416], [11.9794872, 57.6883968], [11.9794713, 57.6884144], [11.9794575, 57.6884108], [11.9793523, 57.6885273], [11.9795104, 57.6885683], [11.9794389, 57.6886475], [11.9792922, 57.6886095], [11.9791907, 57.688722], [11.9792177, 57.688729], [11.9791477, 57.6888065], [11.9791205, 57.6887995], [11.9790189, 57.688912], [11.9791646, 57.6889497], [11.9790936, 57.6890284], [11.9789467, 57.6889904], [11.9788446, 57.6891035], [11.9790647, 57.6891605], [11.9790636, 57.6891605]]]}}, {"type": "Feature", "properties": {"id": "hc", "rhino_layer": "HC", "kind": "building", "footprint_m2": 1005.0, "height_m": 12.0, "estimated_floors": 3, "geometry_source": "Lantm\u00e4teriet", "lantmateriet_ids": ["85208445-1f94-4e19-b727-d96eb97fa070"], "ecom": {"name": "HC", "owner": "Studentbost\u00e4der", "demand_kwh": 304.7, "grid_kwh": 250.5, "local_kwh": 54.2, "solar_kwh": 0.0, "pv_kw": 0.0, "self_sufficiency": 17.8, "demand_hourly": [3.7, 3.7, 3.6, 2.6, 3.5, 6.2, 13.7, 15.5, 15.6, 16.2, 15.7, 16.4, 25.7, 30.4, 31.8, 31.8, 28.8, 14.3, 5.6, 3.6, 3.3, 3.9, 4.1, 5.0], "solar_hourly": [0.0, 0.0, 0.0, 0.0, 0.0, 0.0, 0.0, 0.0, 0.0, 0.0, 0.0, 0.0, 0.0, 0.0, 0.0, 0.0, 0.0, 0.0, 0.0, 0.0, 0.0, 0.0, 0.0, 0.0]}}, "geometry": {"type": "Polygon", "coordinates": [[[11.979829, 57.6880382], [11.9797849, 57.6880268], [11.9796842, 57.6881384], [11.979728, 57.6881497], [11.9796677, 57.6882164], [11.9796266, 57.6882058], [11.9795244, 57.6883191], [11.9797143, 57.6883682], [11.9797212, 57.6883605], [11.97978, 57.6883757], [11.9798683, 57.6882777], [11.9798968, 57.6882851], [11.9799724, 57.6882014], [11.9799442, 57.6881941], [11.9800294, 57.6880998], [11.9800599, 57.6881077], [11.9801346, 57.6880249], [11.980105, 57.6880172], [11.9802065, 57.6879047], [11.9801495, 57.68789], [11.9801559, 57.687883], [11.9799414, 57.6878275], [11.9798259, 57.6879555], [11.979889, 57.6879718], [11.979829, 57.6880382]]]}}, {"type": "Feature", "properties": {"id": "idelara", "rhino_layer": "Idelara", "kind": "building", "footprint_m2": 488.2, "height_m": 9.96, "estimated_floors": 3, "geometry_source": "Lantm\u00e4teriet", "lantmateriet_ids": ["f11873c0-a713-4b2d-b745-0637797da18d"], "ecom": {"name": "Id\u00e9l\u00e4ra", "owner": "Studentbost\u00e4der", "demand_kwh": 236.3, "grid_kwh": 167.2, "local_kwh": 69.1, "solar_kwh": 0.0, "pv_kw": 0.0, "self_sufficiency": 29.23, "demand_hourly": [2.5, 2.5, 2.6, 2.4, 2.4, 5.4, 12.3, 12.9, 15.1, 13.8, 14.7, 14.8, 15.0, 15.2, 15.0, 14.9, 14.1, 14.2, 13.6, 13.5, 10.1, 3.4, 3.0, 2.9], "solar_hourly": [0.0, 0.0, 0.0, 0.0, 0.0, 0.0, 0.0, 0.0, 0.0, 0.0, 0.0, 0.0, 0.0, 0.0, 0.0, 0.0, 0.0, 0.0, 0.0, 0.0, 0.0, 0.0, 0.0, 0.0]}}, "geometry": {"type": "Polygon", "coordinates": [[[11.9788913, 57.6871682], [11.9788585, 57.6871414], [11.9788074, 57.6871298], [11.9787525, 57.6871314], [11.9787367, 57.6871489], [11.9786927, 57.6871374], [11.9784732, 57.687378], [11.9787029, 57.6874382], [11.9789226, 57.6871976], [11.9788757, 57.6871853], [11.9788913, 57.6871682]]]}}, {"type": "Feature", "properties": {"id": "jsp", "rhino_layer": "JSP", "kind": "building", "footprint_m2": 2259.1, "height_m": 28.2, "estimated_floors": 8, "geometry_source": "Lantm\u00e4teriet", "lantmateriet_ids": ["3062ed5d-5e95-400a-85e0-7ac55102dc3e", "ca60c413-0816-42be-94dc-7557872dbc44"], "ecom": {"name": "JSP", "owner": "Studentbost\u00e4der", "demand_kwh": 1654.3, "grid_kwh": 1654.3, "local_kwh": 0.0, "solar_kwh": 0.0, "pv_kw": 0.0, "self_sufficiency": 0.0, "demand_hourly": [33.3, 35.9, 35.3, 38.7, 38.0, 56.3, 86.4, 111.0, 123.7, 121.9, 145.8, 132.0, 123.8, 123.7, 93.0, 75.1, 58.5, 43.8, 39.6, 28.6, 27.5, 29.3, 28.0, 25.1], "solar_hourly": [0.0, 0.0, 0.0, 0.0, 0.0, 0.0, 0.0, 0.0, 0.0, 0.0, 0.0, 0.0, 0.0, 0.0, 0.0, 0.0, 0.0, 0.0, 0.0, 0.0, 0.0, 0.0, 0.0, 0.0]}}, "geometry": {"type": "Polygon", "coordinates": [[[11.9782731, 57.6853681], [11.9782775, 57.6853656], [11.9784641, 57.6853923], [11.9784438, 57.6854337], [11.9784713, 57.6854586], [11.9789487, 57.6855259], [11.9789926, 57.6855151], [11.9791597, 57.685324], [11.9791419, 57.6852976], [11.9786204, 57.6851667], [11.9785683, 57.68518], [11.9784917, 57.685336], [11.9784066, 57.6852926], [11.9784567, 57.6852643], [11.9784555, 57.6852358], [11.9784285, 57.685222], [11.9783602, 57.6851875], [11.9780453, 57.6850275], [11.9779851, 57.6850337], [11.9779698, 57.6850506], [11.9779356, 57.6850901], [11.9777661, 57.685284], [11.9777848, 57.6853109], [11.9781683, 57.6854071], [11.9782117, 57.6854027], [11.9782731, 57.6853681]]]}}, {"type": "Feature", "properties": {"id": "kemi", "rhino_layer": "Kemi", "kind": "building", "footprint_m2": 5986.6, "height_m": 44.41, "estimated_floors": 13, "geometry_source": "Lantm\u00e4teriet", "lantmateriet_ids": ["9c82082a-e75e-4085-b528-61314322b9c3"], "ecom": null}, "geometry": {"type": "Polygon", "coordinates": [[[11.976536, 57.6910807], [11.9766106, 57.6910999], [11.9765698, 57.6911441], [11.9768421, 57.6912162], [11.9768829, 57.6911719], [11.9769232, 57.6911826], [11.9768812, 57.6912282], [11.9770657, 57.691277], [11.977066, 57.691277], [11.9771073, 57.6912322], [11.9776068, 57.6913643], [11.977607, 57.6913644], [11.9776137, 57.6913572], [11.9776578, 57.6913685], [11.9777015, 57.6913603], [11.9777356, 57.6913259], [11.9777205, 57.6912987], [11.9776777, 57.6912878], [11.9777041, 57.6912592], [11.9777039, 57.6912592], [11.9778898, 57.6910483], [11.9779, 57.691051], [11.9779225, 57.6910266], [11.977911, 57.6910234], [11.9779934, 57.6909266], [11.977996, 57.6909238], [11.9774854, 57.6907882], [11.9769135, 57.6906358], [11.9768201, 57.6907389], [11.9767651, 57.6907246], [11.9767486, 57.6907203], [11.9767702, 57.690696], [11.9767704, 57.6906958], [11.9766089, 57.690653], [11.9766089, 57.690653], [11.9765447, 57.6907242], [11.9765405, 57.6907232], [11.9763945, 57.6906854], [11.9763944, 57.6906854], [11.9763748, 57.6907066], [11.9759105, 57.6912077], [11.9760476, 57.6912418], [11.9760602, 57.691245], [11.9760151, 57.6912937], [11.9761778, 57.6913391], [11.9762005, 57.6913132], [11.9762209, 57.6913192], [11.9762722, 57.691334], [11.9762941, 57.6913404], [11.9764753, 57.6911439], [11.9765077, 57.6911102], [11.976536, 57.6910807]]]}}, {"type": "Feature", "properties": {"id": "kopparbunken", "rhino_layer": "Kopparbunken", "kind": "building", "footprint_m2": 789.6, "height_m": 21.73, "estimated_floors": 6, "geometry_source": "Lantm\u00e4teriet", "lantmateriet_ids": ["a0d217fe-7940-42af-81d7-8a4cb01bf130", "fa8b4cc1-8be9-4ed4-bb3f-0bf41cc3e5b1"], "ecom": null}, "geometry": {"type": "Polygon", "coordinates": [[[11.9801623, 57.6875041], [11.9802342, 57.6875623], [11.9802105, 57.6875689], [11.9802171, 57.6875755], [11.9802455, 57.6875728], [11.9803108, 57.6876236], [11.9804388, 57.6876193], [11.9804418, 57.6876339], [11.9804506, 57.6876331], [11.9804483, 57.6876181], [11.9805796, 57.6876145], [11.9806347, 57.6875565], [11.9806601, 57.6875586], [11.9806645, 57.6875529], [11.9806405, 57.6875481], [11.9806958, 57.6874849], [11.9806262, 57.6874274], [11.9806483, 57.6874195], [11.980641, 57.6874156], [11.98062, 57.6874217], [11.9805458, 57.687365], [11.9804544, 57.6873688], [11.9804508, 57.6873446], [11.9803715, 57.687348], [11.980375, 57.6873721], [11.9802792, 57.6873762], [11.9802358, 57.6874231], [11.980076, 57.6873813], [11.9800023, 57.6874622], [11.9801623, 57.6875041]]]}}, {"type": "Feature", "properties": {"id": "karhus-entre", "rhino_layer": "K\u00e5rhus entre", "kind": "building", "footprint_m2": 2541.7, "height_m": 16.16, "estimated_floors": 5, "geometry_source": "Lantm\u00e4teriet", "lantmateriet_ids": ["09f80810-17f8-498a-9d65-7463a02ded77", "7471d29b-89e8-47ac-9ca6-7a6f633253eb"], "ecom": {"name": "K\u00e5rhus entr\u00e9", "owner": "Studentbost\u00e4der", "demand_kwh": 1033.5, "grid_kwh": 462.5, "local_kwh": 571.1, "solar_kwh": 571.1, "pv_kw": 139.3, "self_sufficiency": 55.25, "demand_hourly": [42.94, 42.94, 42.94, 42.94, 42.94, 42.94, 42.94, 42.94, 42.94, 42.94, 42.94, 42.94, 42.94, 42.94, 42.94, 42.94, 42.94, 42.94, 42.94, 42.94, 42.94, 42.94, 42.94, 45.83], "solar_hourly": [0.0, 0.0, 0.0, 1.24, 18.19, 31.71, 42.94, 42.94, 42.94, 42.94, 42.94, 42.94, 42.94, 42.94, 42.94, 42.94, 42.63, 29.25, 15.67, 2.93, 0.0, 0.0, 0.0, 0.0]}}, "geometry": {"type": "Polygon", "coordinates": [[[11.9740296, 57.6891647], [11.9740783, 57.6891806], [11.9742887, 57.6892486], [11.9747915, 57.6888036], [11.9742526, 57.6886301], [11.9741767, 57.6886971], [11.9740995, 57.6887657], [11.9743722, 57.6888547], [11.9743232, 57.6889022], [11.9743078, 57.6888972], [11.9740475, 57.6888141], [11.9735304, 57.689274], [11.9738054, 57.6893633], [11.9740296, 57.6891647]]]}}, {"type": "Feature", "properties": {"id": "karresturangen", "rhino_layer": "K\u00e5rresturangen", "kind": "building", "footprint_m2": 1172.6, "height_m": 12.55, "estimated_floors": 4, "geometry_source": "Lantm\u00e4teriet", "lantmateriet_ids": ["09f80810-17f8-498a-9d65-7463a02ded77"], "ecom": {"name": "K\u00e5rresturangen", "owner": "Studentbost\u00e4der", "demand_kwh": 1281.7, "grid_kwh": 1281.7, "local_kwh": 0.0, "solar_kwh": 0.0, "pv_kw": 0.0, "self_sufficiency": 0.0, "demand_hourly": [35.93, 35.7, 35.44, 34.56, 35.45, 38.97, 51.6, 51.2, 57.46, 61.23, 64.84, 72.44, 65.39, 66.45, 64.0, 63.95, 67.61, 71.3, 70.2, 60.2, 51.87, 47.45, 40.89, 37.59], "solar_hourly": [0.0, 0.0, 0.0, 0.0, 0.0, 0.0, 0.0, 0.0, 0.0, 0.0, 0.0, 0.0, 0.0, 0.0, 0.0, 0.0, 0.0, 0.0, 0.0, 0.0, 0.0, 0.0, 0.0, 0.0]}}, "geometry": {"type": "Polygon", "coordinates": [[[11.9752212, 57.6886167], [11.9754052, 57.6884565], [11.9749292, 57.6882997], [11.9749538, 57.6882783], [11.9748202, 57.6882343], [11.9748111, 57.6882422], [11.9747548, 57.688224], [11.974548, 57.6884058], [11.9746022, 57.6884235], [11.9745731, 57.6884469], [11.9751864, 57.6886477], [11.9752213, 57.6886168], [11.9752212, 57.6886167]]]}}, {"type": "Feature", "properties": {"id": "layer-03", "rhino_layer": "Layer 03", "kind": "building", "footprint_m2": 2270.2, "height_m": 32.14, "estimated_floors": 9, "geometry_source": "Lantm\u00e4teriet", "lantmateriet_ids": ["3ebc1784-cc24-46ba-a508-96425fdf3e80", "4a776232-3c9b-4de6-84e0-ef0522c63cc7", "942bd9f0-1233-4d59-b516-f4d4a7c44048", "b75985fd-0fef-4b20-a1e8-70599a877a9a", "c142a50f-3bf1-4b46-b197-a1e2512f7617"], "ecom": null}, "geometry": {"type": "MultiPolygon", "coordinates": [[[[11.9802997, 57.6857367], [11.9800634, 57.6861375], [11.9802284, 57.6861654], [11.9804647, 57.6857646], [11.9802997, 57.6857367]]], [[[11.9806471, 57.6862316], [11.9808219, 57.6862653], [11.9811148, 57.6858288], [11.98094, 57.6857952], [11.9806471, 57.6862316]]], [[[11.979729, 57.6867021], [11.9798955, 57.6867303], [11.9801316, 57.6863293], [11.9799651, 57.6863012], [11.979729, 57.6867021]]], [[[11.980534, 57.6863981], [11.9802409, 57.6868357], [11.9804158, 57.6868693], [11.9807089, 57.6864317], [11.980534, 57.6863981]]], [[[11.9799031, 57.6870511], [11.9798005, 57.6871639], [11.9800354, 57.6872251], [11.980138, 57.6871123], [11.9799031, 57.6870511]]]]}}, {"type": "Feature", "properties": {"id": "mc2", "rhino_layer": "MC2", "kind": "building", "footprint_m2": 5982.1, "height_m": 42.63, "estimated_floors": 12, "geometry_source": "Lantm\u00e4teriet", "lantmateriet_ids": ["8f3dca7d-3182-4a95-83c6-f58ea993f0a9", "c178b9a7-42a3-4553-af60-79b318fa22ad"], "ecom": {"name": "MC2", "owner": "Studentbost\u00e4der", "demand_kwh": 30083.3, "grid_kwh": 26703.8, "local_kwh": 3379.5, "solar_kwh": 3379.5, "pv_kw": 585.9, "self_sufficiency": 11.23, "demand_hourly": [1260.22, 1265.39, 1259.92, 1266.68, 1261.42, 1243.37, 1238.95, 1229.68, 1218.44, 1195.3, 1268.99, 1242.06, 1242.79, 1251.72, 1272.03, 1275.56, 1285.91, 1259.79, 1269.36, 1263.83, 1268.8, 1252.97, 1249.01, 1241.14], "solar_hourly": [0.0, 0.0, 0.0, 5.22, 76.51, 133.37, 188.26, 237.98, 276.79, 305.45, 325.77, 327.37, 321.94, 302.4, 270.43, 227.46, 179.31, 123.02, 65.93, 12.33, 0.0, 0.0, 0.0, 0.0]}}, "geometry": {"type": "Polygon", "coordinates": [[[11.974855, 57.6908233], [11.9746485, 57.6907815], [11.974558, 57.6909098], [11.9743886, 57.6908756], [11.9739983, 57.6914292], [11.9738631, 57.6914359], [11.9739098, 57.6917034], [11.9740444, 57.6916968], [11.9740395, 57.6916691], [11.9741128, 57.6916654], [11.9740775, 57.6914585], [11.9744592, 57.6915372], [11.9745103, 57.6914669], [11.9749812, 57.6915621], [11.9750281, 57.6914952], [11.975492, 57.6915891], [11.9755293, 57.691386], [11.9756277, 57.6912461], [11.9754207, 57.6912043], [11.9753941, 57.6912416], [11.9753524, 57.6912333], [11.9755675, 57.6909293], [11.9755675, 57.6909293], [11.975584, 57.6909058], [11.9753532, 57.690859], [11.9753541, 57.6908577], [11.9751634, 57.6908191], [11.9751459, 57.6908438], [11.9748788, 57.6907896], [11.974855, 57.6908233]]]}}, {"type": "Feature", "properties": {"id": "maskinteknik", "rhino_layer": "Maskinteknik", "kind": "building", "footprint_m2": 8325.6, "height_m": 23.3, "estimated_floors": 7, "geometry_source": "Lantm\u00e4teriet", "lantmateriet_ids": ["21fc1826-ac32-42fd-9a49-fde0a56b6796"], "ecom": {"name": "Maskinteknik", "owner": "Akademiska Hus", "demand_kwh": 6492.2, "grid_kwh": 6492.2, "local_kwh": 0.0, "solar_kwh": 0.0, "pv_kw": 0.0, "self_sufficiency": 0.0, "demand_hourly": [191.6, 177.1, 176.9, 172.7, 173.3, 212.3, 241.2, 292.0, 324.1, 360.8, 355.0, 378.9, 383.8, 366.5, 346.9, 341.2, 308.7, 288.3, 270.9, 253.9, 242.7, 224.7, 208.2, 200.5], "solar_hourly": [0.0, 0.0, 0.0, 0.0, 0.0, 0.0, 0.0, 0.0, 0.0, 0.0, 0.0, 0.0, 0.0, 0.0, 0.0, 0.0, 0.0, 0.0, 0.0, 0.0, 0.0, 0.0, 0.0, 0.0]}}, "geometry": {"type": "Polygon", "coordinates": [[[11.9774186, 57.688602], [11.9777007, 57.6886787], [11.9773357, 57.6890591], [11.977352, 57.6890636], [11.9775568, 57.6891199], [11.9775564, 57.6891204], [11.9778086, 57.6891891], [11.9778053, 57.6891936], [11.9780629, 57.6892584], [11.978063, 57.6892585], [11.9781399, 57.6891731], [11.9782496, 57.6892022], [11.9781892, 57.6892701], [11.9781712, 57.6892654], [11.9778801, 57.6895902], [11.9781836, 57.6896682], [11.9784746, 57.6893434], [11.9784052, 57.6893256], [11.9784687, 57.6892553], [11.9785251, 57.6892699], [11.9791195, 57.6886104], [11.9788465, 57.6885398], [11.9787488, 57.6886482], [11.9786376, 57.6886206], [11.9788154, 57.688423], [11.9780978, 57.6882381], [11.978138, 57.688193], [11.9779615, 57.6881454], [11.9779258, 57.6881855], [11.9778248, 57.6881594], [11.9778247, 57.6881593], [11.9776916, 57.6883052], [11.9776314, 57.6883712], [11.9776304, 57.6883724], [11.9776303, 57.6883724], [11.9777087, 57.6883927], [11.9779029, 57.6884429], [11.9777801, 57.6885784], [11.9775179, 57.6885117], [11.9774711, 57.6885644], [11.9774341, 57.6886053], [11.9774186, 57.688602], [11.9774186, 57.688602]], [[11.9785747, 57.6886906], [11.9786855, 57.6887185], [11.9784133, 57.6890204], [11.9783033, 57.688992], [11.9783902, 57.6888956], [11.9785747, 57.6886906]]]}}, {"type": "Feature", "properties": {"id": "nya-matte", "rhino_layer": "Nya Matte", "kind": "building", "footprint_m2": 2540.6, "height_m": 25.37, "estimated_floors": 7, "geometry_source": "Lantm\u00e4teriet", "lantmateriet_ids": ["d4d610a2-a954-4680-bff3-20f40855de03", "f0832348-c542-469e-a33f-5618e9c2524c"], "ecom": {"name": "Nya Matte", "owner": "Studentbost\u00e4der", "demand_kwh": 2288.4, "grid_kwh": 2288.4, "local_kwh": 0.0, "solar_kwh": 0.0, "pv_kw": 0.0, "self_sufficiency": 0.0, "demand_hourly": [78.1, 83.3, 81.0, 78.8, 77.4, 84.4, 92.5, 106.0, 110.6, 114.6, 123.1, 112.6, 118.8, 121.7, 109.4, 103.9, 100.4, 86.2, 83.5, 87.1, 81.8, 81.8, 83.8, 87.6], "solar_hourly": [0.0, 0.0, 0.0, 0.0, 0.0, 0.0, 0.0, 0.0, 0.0, 0.0, 0.0, 0.0, 0.0, 0.0, 0.0, 0.0, 0.0, 0.0, 0.0, 0.0, 0.0, 0.0, 0.0, 0.0]}}, "geometry": {"type": "Polygon", "coordinates": [[[11.9776182, 57.6898797], [11.97695, 57.6897067], [11.9766065, 57.6900848], [11.9772807, 57.6902587], [11.9773932, 57.6901337], [11.9774718, 57.6901595], [11.9773189, 57.690329], [11.9776158, 57.6904058], [11.9778488, 57.6901475], [11.977552, 57.6900707], [11.9775384, 57.6900857], [11.9774558, 57.6900639], [11.9776182, 57.6898797]]]}}, {"type": "Feature", "properties": {"id": "p-hus", "rhino_layer": "P-hus", "kind": "building", "footprint_m2": 2472.5, "height_m": 13.0, "estimated_floors": 4, "geometry_source": "Lantm\u00e4teriet", "lantmateriet_ids": ["8dd7f9cf-2dfc-4c03-ab43-97f923b35a89"], "ecom": null}, "geometry": {"type": "Polygon", "coordinates": [[[11.9784307, 57.6864876], [11.9786734, 57.6865411], [11.9789693, 57.68661], [11.9792493, 57.686265], [11.9792715, 57.6861287], [11.9792757, 57.6861289], [11.9793058, 57.6859443], [11.9792212, 57.6859246], [11.9792238, 57.6859213], [11.9789432, 57.685856], [11.9788976, 57.6859122], [11.9789011, 57.6859131], [11.9788649, 57.6859577], [11.9788614, 57.6859569], [11.9784307, 57.6864876]]]}}, {"type": "Feature", "properties": {"id": "sb1", "rhino_layer": "SB1", "kind": "building", "footprint_m2": 3055.4, "height_m": 32.34, "estimated_floors": 9, "geometry_source": "Lantm\u00e4teriet", "lantmateriet_ids": ["54236eb7-6159-45f2-b8d9-ccf08ef2ebc8"], "ecom": {"name": "SB1", "owner": "Studentbost\u00e4der", "demand_kwh": 2195.2, "grid_kwh": 1468.8, "local_kwh": 726.4, "solar_kwh": 726.4, "pv_kw": 120.8, "self_sufficiency": 33.09, "demand_hourly": [63.4, 65.2, 63.6, 61.5, 60.4, 64.5, 100.4, 114.9, 122.0, 126.7, 139.0, 112.2, 124.9, 129.3, 119.2, 111.5, 97.0, 90.2, 83.3, 83.6, 75.5, 61.9, 62.9, 62.1], "solar_hourly": [0.0, 0.0, 0.0, 1.09, 14.8, 28.18, 41.36, 53.22, 62.3, 68.83, 73.31, 73.16, 71.33, 66.06, 57.78, 46.94, 34.9, 21.69, 9.9, 1.53, 0.0, 0.0, 0.0, 0.0]}}, "geometry": {"type": "Polygon", "coordinates": [[[11.9764031, 57.6880832], [11.9767607, 57.6881672], [11.9771312, 57.6877114], [11.976393, 57.6875394], [11.9763113, 57.6875205], [11.9762747, 57.6875134], [11.9759123, 57.6879694], [11.9764031, 57.6880832]]]}}, {"type": "Feature", "properties": {"id": "sb2", "rhino_layer": "SB2", "kind": "building", "footprint_m2": 2642.1, "height_m": 24.2, "estimated_floors": 7, "geometry_source": "Lantm\u00e4teriet", "lantmateriet_ids": ["54236eb7-6159-45f2-b8d9-ccf08ef2ebc8"], "ecom": {"name": "SB2", "owner": "Studentbost\u00e4der", "demand_kwh": 1055.7, "grid_kwh": 406.6, "local_kwh": 649.1, "solar_kwh": 649.1, "pv_kw": 225.2, "self_sufficiency": 61.49, "demand_hourly": [44.8, 44.2, 42.4, 43.7, 34.6, 33.2, 44.2, 52.8, 49.4, 51.8, 48.1, 42.2, 44.3, 45.8, 43.9, 48.5, 53.6, 49.5, 48.4, 49.9, 40.3, 35.2, 31.9, 33.0], "solar_hourly": [0.0, 0.0, 0.0, 2.03, 27.59, 33.2, 44.2, 52.8, 49.4, 51.8, 48.1, 42.2, 44.3, 45.8, 43.9, 48.5, 53.6, 40.42, 18.44, 2.85, 0.0, 0.0, 0.0, 0.0]}}, "geometry": {"type": "Polygon", "coordinates": [[[11.9774903, 57.6872779], [11.9766199, 57.6870764], [11.9765024, 57.6872219], [11.9764978, 57.6872208], [11.9764324, 57.6872064], [11.9763879, 57.6872653], [11.9763463, 57.6873187], [11.9762834, 57.6873034], [11.9761976, 57.6874081], [11.9763675, 57.6874482], [11.9763074, 57.6875195], [11.9771011, 57.6877044], [11.9771961, 57.6877256], [11.9772533, 57.6876519], [11.9772634, 57.6876545], [11.9774345, 57.6874384], [11.9773726, 57.6874238], [11.9774903, 57.6872779]], [[11.9771275, 57.6873669], [11.9769578, 57.6875749], [11.9765798, 57.6874869], [11.9767433, 57.6872778], [11.9771275, 57.6873669]]]}}, {"type": "Feature", "properties": {"id": "sb3", "rhino_layer": "SB3", "kind": "building", "footprint_m2": 7393.5, "height_m": 15.7, "estimated_floors": 4, "geometry_source": "Lantm\u00e4teriet", "lantmateriet_ids": ["54236eb7-6159-45f2-b8d9-ccf08ef2ebc8"], "ecom": {"name": "SB3", "owner": "Studentbost\u00e4der", "demand_kwh": 3017.0, "grid_kwh": 3017.0, "local_kwh": 0.0, "solar_kwh": 0.0, "pv_kw": 0.0, "self_sufficiency": 0.0, "demand_hourly": [138.6, 134.8, 133.3, 130.2, 110.7, 131.5, 138.6, 143.6, 117.0, 143.1, 110.2, 91.3, 87.8, 97.7, 98.4, 126.2, 130.9, 131.4, 137.4, 135.2, 134.3, 136.4, 128.9, 149.5], "solar_hourly": [0.0, 0.0, 0.0, 0.0, 0.0, 0.0, 0.0, 0.0, 0.0, 0.0, 0.0, 0.0, 0.0, 0.0, 0.0, 0.0, 0.0, 0.0, 0.0, 0.0, 0.0, 0.0, 0.0, 0.0]}}, "geometry": {"type": "Polygon", "coordinates": [[[11.9770854, 57.6868049], [11.9771219, 57.6868133], [11.9771702, 57.6868245], [11.9773074, 57.6868573], [11.977719, 57.686952], [11.9778456, 57.6869815], [11.9781516, 57.6866013], [11.9785417, 57.6861184], [11.9784152, 57.6860889], [11.9780035, 57.6859936], [11.9778626, 57.685963], [11.9775985, 57.6859024], [11.9774698, 57.6860631], [11.9774072, 57.6860478], [11.9774037, 57.6860509], [11.9774085, 57.6860522], [11.9772564, 57.6862368], [11.9772542, 57.6862357], [11.9772503, 57.6862397], [11.9772943, 57.6862497], [11.9771682, 57.6864071], [11.9771249, 57.6863957], [11.9771198, 57.6863997], [11.9771263, 57.6864016], [11.9769781, 57.686585], [11.9769739, 57.6865839], [11.9769711, 57.6865875], [11.9770342, 57.6866028], [11.9769104, 57.6867577], [11.9767819, 57.6867279], [11.9765193, 57.6870531], [11.9768275, 57.6871245], [11.9770854, 57.6868049]]]}}, {"type": "Feature", "properties": {"id": "sspa", "rhino_layer": "SSPA", "kind": "building", "footprint_m2": 12360.8, "height_m": 23.48, "estimated_floors": 7, "geometry_source": "Lantm\u00e4teriet", "lantmateriet_ids": ["00fb2973-fd04-4019-aeed-29cdbad5aa0b", "0138652f-4038-4bd2-9352-ff06d1c76e3c", "02b91d2d-fc85-43b2-af90-57ad43919620", "5609f975-439c-4f0b-b359-4ec7563792eb", "71ad75b5-3c93-4af1-900a-aa44f44ed8a0", "73e42fca-c1c7-41e0-a2a6-ca99b14c1322", "93257ba8-d0ce-446d-a9fa-9b5e5b95d4aa", "b861483a-ebe1-4a7b-aa44-1594dd31eb84", "d3ef4fdc-7612-43fe-b5e9-4538fc2ddc4c"], "ecom": null}, "geometry": {"type": "MultiPolygon", "coordinates": [[[[11.9782902, 57.6871143], [11.978406, 57.6871412], [11.9785724, 57.6869353], [11.9784566, 57.6869085], [11.9782902, 57.6871143]]], [[[11.9780412, 57.6874225], [11.978157, 57.6874493], [11.9783781, 57.6871757], [11.9782624, 57.6871488], [11.9780412, 57.6874225]]], [[[11.9776162, 57.6879482], [11.977732, 57.6879751], [11.9780901, 57.687532], [11.9779743, 57.6875052], [11.9776162, 57.6879482]]], [[[11.9766196, 57.6885263], [11.9766178, 57.6885285], [11.9766939, 57.6885461], [11.976418, 57.6888879], [11.9762746, 57.689066], [11.9763891, 57.689093], [11.9763135, 57.6891839], [11.9765507, 57.6892389], [11.9766834, 57.6892653], [11.9769683, 57.6889104], [11.9772375, 57.6885745], [11.9771002, 57.6885422], [11.9771364, 57.6884974], [11.9772976, 57.688535], [11.977443, 57.6883562], [11.977281, 57.6883184], [11.9773179, 57.6882728], [11.9774784, 57.6883101], [11.9776505, 57.6880975], [11.9777066, 57.6880298], [11.9776505, 57.6880176], [11.9775441, 57.6879929], [11.9775847, 57.6879426], [11.9775757, 57.6879402], [11.9779397, 57.6874915], [11.9779479, 57.6874931], [11.9780075, 57.6874194], [11.9779984, 57.687417], [11.9782284, 57.6871352], [11.9782357, 57.687137], [11.9782583, 57.6871089], [11.9782491, 57.6871059], [11.9784215, 57.6868953], [11.9784292, 57.6868974], [11.9785999, 57.6866861], [11.9783762, 57.686637], [11.9771455, 57.6881565], [11.9769522, 57.6881141], [11.9768226, 57.6882751], [11.9767562, 57.6882597], [11.9767667, 57.6882466], [11.9761103, 57.6880918], [11.975551, 57.6887936], [11.9762075, 57.6889435], [11.9765544, 57.6885112], [11.9766196, 57.6885263]]], [[[11.9761651, 57.6890631], [11.9762161, 57.6890012], [11.9755178, 57.6888353], [11.9754726, 57.6888921], [11.9754262, 57.6889502], [11.9759761, 57.6890754], [11.9758121, 57.6892789], [11.9760753, 57.6893399], [11.9762489, 57.6891257], [11.9761355, 57.6890994], [11.9761651, 57.6890631]]]]}}, {"type": "Feature", "properties": {"id": "teknikparken", "rhino_layer": "Teknikparken", "kind": "building", "footprint_m2": 4170.2, "height_m": 18.6, "estimated_floors": 5, "geometry_source": "Lantm\u00e4teriet", "lantmateriet_ids": ["0885435c-71f3-44b9-a227-687216c812e2", "540f9ead-41d6-4881-b276-9547141cf4b4", "58c92892-53af-46d2-9760-40e99088bda0", "86da9a1a-822e-4e8f-b75f-7a46aaf2dd33", "891a61c8-7add-46cc-b90d-a877669220d0", "8c0e3b27-4464-487b-85f1-138ced3ec223", "ac6ec785-3e7b-48b5-8a71-ecf154672eb1", "b4959e62-da47-4cae-9fa5-451f747b99f3", "b634bb25-2c28-46c3-8578-59bc166b74c8"], "ecom": {"name": "Teknikparken", "owner": "Studentbost\u00e4der", "demand_kwh": 1268.9, "grid_kwh": 1268.9, "local_kwh": 0.0, "solar_kwh": 0.0, "pv_kw": 0.0, "self_sufficiency": 0.0, "demand_hourly": [43.19, 43.63, 42.49, 42.6, 39.46, 42.85, 55.26, 60.57, 65.5, 66.69, 66.52, 69.41, 69.88, 66.85, 64.48, 60.66, 51.86, 46.73, 45.8, 45.78, 45.82, 46.72, 43.59, 42.59], "solar_hourly": [0.0, 0.0, 0.0, 0.0, 0.0, 0.0, 0.0, 0.0, 0.0, 0.0, 0.0, 0.0, 0.0, 0.0, 0.0, 0.0, 0.0, 0.0, 0.0, 0.0, 0.0, 0.0, 0.0, 0.0]}}, "geometry": {"type": "Polygon", "coordinates": [[[11.9773743, 57.685401], [11.9774066, 57.6854094], [11.9778545, 57.68492], [11.9778396, 57.6849161], [11.9778714, 57.6848812], [11.9778841, 57.6848845], [11.9780829, 57.6846669], [11.9780892, 57.6846664], [11.978104, 57.6846612], [11.9781111, 57.6846531], [11.9781075, 57.6846441], [11.9781044, 57.6846411], [11.9784777, 57.6842324], [11.9784874, 57.6842319], [11.9785022, 57.6842256], [11.9785087, 57.6842192], [11.9785064, 57.6842092], [11.9785031, 57.6842063], [11.9788773, 57.6837968], [11.9788848, 57.6837967], [11.9788995, 57.6837907], [11.9789067, 57.6837828], [11.9789049, 57.6837725], [11.9789021, 57.6837702], [11.9790828, 57.6835724], [11.979049, 57.6835635], [11.9788738, 57.6835176], [11.9781222, 57.6843401], [11.9779654, 57.684299], [11.977518, 57.6847886], [11.977697, 57.6848355], [11.9776652, 57.6848703], [11.977491, 57.6848246], [11.9770433, 57.6853139], [11.9773744, 57.6854008], [11.9773743, 57.685401]]]}}, {"type": "Feature", "properties": {"id": "vasa-1", "rhino_layer": "Vasa 1", "kind": "building", "footprint_m2": 1828.9, "height_m": 18.6, "estimated_floors": 5, "geometry_source": "Lantm\u00e4teriet", "lantmateriet_ids": ["e622b683-4da2-4a78-b000-916e11909f85"], "ecom": {"name": "Vasa 1", "owner": "Studentbost\u00e4der", "demand_kwh": 1083.5, "grid_kwh": 1083.5, "local_kwh": 0.0, "solar_kwh": 0.0, "pv_kw": 0.0, "self_sufficiency": 0.0, "demand_hourly": [32.4, 32.1, 33.01, 31.13, 34.05, 40.5, 51.92, 57.71, 59.58, 63.6, 65.93, 62.27, 62.95, 62.89, 62.58, 53.16, 43.61, 39.22, 35.07, 31.56, 31.62, 32.48, 32.07, 32.1], "solar_hourly": [0.0, 0.0, 0.0, 0.0, 0.0, 0.0, 0.0, 0.0, 0.0, 0.0, 0.0, 0.0, 0.0, 0.0, 0.0, 0.0, 0.0, 0.0, 0.0, 0.0, 0.0, 0.0, 0.0, 0.0]}}, "geometry": {"type": "Polygon", "coordinates": [[[11.9742031, 57.6932477], [11.9742058, 57.6932484], [11.9742343, 57.6932191], [11.9742316, 57.6932184], [11.9743077, 57.6931324], [11.9746237, 57.6932159], [11.9746272, 57.6932118], [11.974309, 57.6931324], [11.9743339, 57.6931038], [11.9743294, 57.6931013], [11.9746773, 57.6927056], [11.9746754, 57.6927051], [11.9744582, 57.6926483], [11.9744368, 57.6926427], [11.9744366, 57.6926429], [11.973617, 57.6935829], [11.9738544, 57.6936438], [11.9738552, 57.693644], [11.9739222, 57.69357], [11.9739271, 57.6935709], [11.9739703, 57.6935212], [11.9739662, 57.6935202], [11.9742031, 57.6932477]]]}}, {"type": "Feature", "properties": {"id": "vasa-10", "rhino_layer": "Vasa 10", "kind": "building", "footprint_m2": 706.0, "height_m": 15.6, "estimated_floors": 4, "geometry_source": "Lantm\u00e4teriet", "lantmateriet_ids": ["b293e609-eb9e-4ee0-afad-37d6d598525f"], "ecom": {"name": "Vasa 10", "owner": "Studentbost\u00e4der", "demand_kwh": 125.4, "grid_kwh": 125.4, "local_kwh": 0.0, "solar_kwh": 0.0, "pv_kw": 0.0, "self_sufficiency": 0.0, "demand_hourly": [2.5, 2.5, 2.41, 2.22, 2.29, 4.3, 6.68, 7.44, 8.58, 8.69, 8.88, 8.62, 9.41, 8.41, 8.28, 8.02, 7.46, 3.89, 3.5, 2.06, 1.99, 2.45, 2.5, 2.32], "solar_hourly": [0.0, 0.0, 0.0, 0.0, 0.0, 0.0, 0.0, 0.0, 0.0, 0.0, 0.0, 0.0, 0.0, 0.0, 0.0, 0.0, 0.0, 0.0, 0.0, 0.0, 0.0, 0.0, 0.0, 0.0]}}, "geometry": {"type": "Polygon", "coordinates": [[[11.9765231, 57.692731], [11.9763774, 57.692896], [11.9763475, 57.6928883], [11.9763019, 57.692939], [11.976494, 57.6929888], [11.9766644, 57.6930328], [11.9767105, 57.6929817], [11.97668, 57.6929738], [11.9768259, 57.6928085], [11.9768545, 57.6928159], [11.9768992, 57.692766], [11.9765375, 57.6926731], [11.9764926, 57.6927232], [11.9765231, 57.692731]]]}}, {"type": "Feature", "properties": {"id": "vasa-11", "rhino_layer": "Vasa 11", "kind": "building", "footprint_m2": 1193.8, "height_m": 23.2, "estimated_floors": 7, "geometry_source": "Lantm\u00e4teriet", "lantmateriet_ids": ["11c33829-f9ef-462a-8cfa-1515ef68be40", "bc967a9f-752e-48f6-8566-0dfc4a532f3b"], "ecom": {"name": "Vasa 11", "owner": "Studentbost\u00e4der", "demand_kwh": 876.3, "grid_kwh": 876.3, "local_kwh": 0.0, "solar_kwh": 0.0, "pv_kw": 0.0, "self_sufficiency": 0.0, "demand_hourly": [23.14, 23.14, 22.41, 21.83, 21.85, 24.73, 33.24, 42.7, 48.41, 49.42, 49.4, 52.43, 58.32, 58.73, 52.06, 46.42, 42.42, 42.11, 33.9, 27.63, 23.17, 25.58, 26.63, 26.63], "solar_hourly": [0.0, 0.0, 0.0, 0.0, 0.0, 0.0, 0.0, 0.0, 0.0, 0.0, 0.0, 0.0, 0.0, 0.0, 0.0, 0.0, 0.0, 0.0, 0.0, 0.0, 0.0, 0.0, 0.0, 0.0]}}, "geometry": {"type": "MultiPolygon", "coordinates": [[[[11.9770152, 57.6919544], [11.9769548, 57.6920231], [11.9769466, 57.692021], [11.9769085, 57.6920644], [11.9769152, 57.6920661], [11.9767826, 57.692217], [11.9767754, 57.6922152], [11.9767364, 57.6922597], [11.9767428, 57.6922612], [11.9766095, 57.6924131], [11.9766032, 57.6924115], [11.9765658, 57.6924542], [11.9765718, 57.6924557], [11.9765102, 57.6925258], [11.9767321, 57.6925817], [11.9772346, 57.6920096], [11.9770152, 57.6919544]]], [[[11.9764444, 57.69247], [11.9762746, 57.6924265], [11.9761941, 57.6925166], [11.9763639, 57.6925606], [11.9764444, 57.69247]]]]}}, {"type": "Feature", "properties": {"id": "vasa-12", "rhino_layer": "Vasa 12", "kind": "building", "footprint_m2": 294.7, "height_m": 7.0, "estimated_floors": 2, "geometry_source": "Lantm\u00e4teriet", "lantmateriet_ids": ["e1583ccb-5113-4bd4-9335-47e391c51877"], "ecom": {"name": "Vasa 12", "owner": "Studentbost\u00e4der", "demand_kwh": 13.3, "grid_kwh": 13.3, "local_kwh": 0.0, "solar_kwh": 0.0, "pv_kw": 0.0, "self_sufficiency": 0.0, "demand_hourly": [0.56, 0.55, 0.61, 0.68, 0.63, 0.67, 0.62, 0.57, 0.51, 0.53, 0.51, 0.52, 0.51, 0.52, 0.54, 0.51, 0.53, 0.5, 0.51, 0.53, 0.51, 0.56, 0.58, 0.56], "solar_hourly": [0.0, 0.0, 0.0, 0.0, 0.0, 0.0, 0.0, 0.0, 0.0, 0.0, 0.0, 0.0, 0.0, 0.0, 0.0, 0.0, 0.0, 0.0, 0.0, 0.0, 0.0, 0.0, 0.0, 0.0]}}, "geometry": {"type": "Polygon", "coordinates": [[[11.9760302, 57.6930581], [11.9759311, 57.6931725], [11.9762474, 57.693251], [11.976352, 57.6931379], [11.9760302, 57.6930581]]]}}, {"type": "Feature", "properties": {"id": "vasa-13", "rhino_layer": "Vasa 13", "kind": "building", "footprint_m2": 99.0, "height_m": 10.69, "estimated_floors": 3, "geometry_source": "Lantm\u00e4teriet", "lantmateriet_ids": ["725fe4ea-9425-4ede-80bd-c7f78e156af4"], "ecom": {"name": "Vasa 13", "owner": "Studentbost\u00e4der", "demand_kwh": 2.6, "grid_kwh": 2.6, "local_kwh": 0.0, "solar_kwh": 0.0, "pv_kw": 0.0, "self_sufficiency": 0.0, "demand_hourly": [0.26, 0.26, 0.27, 0.11, 0.05, 0.05, 0.06, 0.07, 0.07, 0.06, 0.07, 0.08, 0.04, 0.05, 0.05, 0.05, 0.05, 0.06, 0.05, 0.05, 0.05, 0.17, 0.26, 0.26], "solar_hourly": [0.0, 0.0, 0.0, 0.0, 0.0, 0.0, 0.0, 0.0, 0.0, 0.0, 0.0, 0.0, 0.0, 0.0, 0.0, 0.0, 0.0, 0.0, 0.0, 0.0, 0.0, 0.0, 0.0, 0.0]}}, "geometry": {"type": "Polygon", "coordinates": [[[11.9740837, 57.6924766], [11.974168, 57.6923818], [11.9740583, 57.6923533], [11.9739731, 57.6924481], [11.9740837, 57.6924766]]]}}, {"type": "Feature", "properties": {"id": "vasa-15", "rhino_layer": "Vasa 15", "kind": "building", "footprint_m2": 1467.1, "height_m": 23.2, "estimated_floors": 7, "geometry_source": "Lantm\u00e4teriet", "lantmateriet_ids": ["e94038b6-6cd7-436c-95cf-23944024568f"], "ecom": {"name": "Vasa 15", "owner": "Studentbost\u00e4der", "demand_kwh": 1129.0, "grid_kwh": 1129.0, "local_kwh": 0.0, "solar_kwh": 0.0, "pv_kw": 0.0, "self_sufficiency": 0.0, "demand_hourly": [12.91, 12.78, 13.54, 13.3, 15.13, 54.22, 64.66, 68.67, 70.01, 77.19, 76.27, 78.16, 78.87, 75.83, 70.15, 65.48, 51.68, 26.38, 16.14, 31.28, 39.1, 39.1, 39.1, 39.1], "solar_hourly": [0.0, 0.0, 0.0, 0.0, 0.0, 0.0, 0.0, 0.0, 0.0, 0.0, 0.0, 0.0, 0.0, 0.0, 0.0, 0.0, 0.0, 0.0, 0.0, 0.0, 0.0, 0.0, 0.0, 0.0]}}, "geometry": {"type": "Polygon", "coordinates": [[[11.9770279, 57.6916583], [11.9768442, 57.691865], [11.9768675, 57.6918709], [11.9768569, 57.6918829], [11.9775389, 57.6920568], [11.9777226, 57.6918501], [11.977698, 57.6918439], [11.9777087, 57.6918319], [11.9770279, 57.6916583]]]}}, {"type": "Feature", "properties": {"id": "vasa-2-3", "rhino_layer": "Vasa 2-3", "kind": "building", "footprint_m2": 3734.4, "height_m": 18.6, "estimated_floors": 5, "geometry_source": "Lantm\u00e4teriet", "lantmateriet_ids": ["e622b683-4da2-4a78-b000-916e11909f85"], "ecom": null}, "geometry": {"type": "Polygon", "coordinates": [[[11.9742343, 57.6932191], [11.9742345, 57.6932188], [11.9745534, 57.6932995], [11.9741806, 57.693725], [11.9741789, 57.693727], [11.974353, 57.6937705], [11.9744173, 57.6937866], [11.9744212, 57.6937876], [11.9745503, 57.6936392], [11.9748776, 57.6937238], [11.9751271, 57.6934456], [11.9751144, 57.6934424], [11.975189, 57.6933567], [11.9751954, 57.6933583], [11.9754382, 57.6930793], [11.9751129, 57.6929981], [11.975242, 57.6928498], [11.9752378, 57.6928487], [11.9750896, 57.6928111], [11.9750007, 57.6927886], [11.9750005, 57.6927889], [11.974631, 57.6932127], [11.9746272, 57.6932118], [11.9746237, 57.6932159], [11.9743077, 57.6931324], [11.9742316, 57.6932184], [11.9742343, 57.6932191]]]}}, {"type": "Feature", "properties": {"id": "vasa-3", "rhino_layer": "Vasa 3", "kind": "building", "footprint_m2": 1825.7, "height_m": 16.8, "estimated_floors": 5, "geometry_source": "Lantm\u00e4teriet", "lantmateriet_ids": ["e622b683-4da2-4a78-b000-916e11909f85"], "ecom": null}, "geometry": {"type": "Polygon", "coordinates": [[[11.9751144, 57.6934424], [11.9751149, 57.6934426], [11.9751271, 57.6934456], [11.974745, 57.6938717], [11.9749802, 57.6939312], [11.974988, 57.6939331], [11.9758085, 57.6929966], [11.9757996, 57.6929944], [11.9756266, 57.6929503], [11.9755642, 57.6929343], [11.975564, 57.6929346], [11.9751956, 57.6933583], [11.9751897, 57.6933568], [11.975189, 57.6933566], [11.9751144, 57.6934424]]]}}, {"type": "Feature", "properties": {"id": "vasa-4", "rhino_layer": "Vasa 4", "kind": "building", "footprint_m2": 455.2, "height_m": 19.6, "estimated_floors": 6, "geometry_source": "Lantm\u00e4teriet", "lantmateriet_ids": ["6af27809-34c5-4e12-a4b4-901bbda515b4"], "ecom": {"name": "Vasa 4", "owner": "Studentbost\u00e4der", "demand_kwh": 163.3, "grid_kwh": 163.3, "local_kwh": 0.0, "solar_kwh": 0.0, "pv_kw": 0.0, "self_sufficiency": 0.0, "demand_hourly": [2.6, 2.6, 2.6, 2.6, 2.6, 2.51, 3.06, 12.91, 13.87, 15.11, 13.98, 13.71, 13.79, 13.61, 13.13, 11.97, 4.17, 2.85, 3.08, 2.45, 2.49, 2.41, 2.68, 2.51], "solar_hourly": [0.0, 0.0, 0.0, 0.0, 0.0, 0.0, 0.0, 0.0, 0.0, 0.0, 0.0, 0.0, 0.0, 0.0, 0.0, 0.0, 0.0, 0.0, 0.0, 0.0, 0.0, 0.0, 0.0, 0.0]}}, "geometry": {"type": "Polygon", "coordinates": [[[11.9748215, 57.6919016], [11.9745382, 57.6918302], [11.974532, 57.6918373], [11.9745373, 57.6918387], [11.9744957, 57.6918861], [11.97449, 57.6918847], [11.9744119, 57.6919738], [11.9744171, 57.6919751], [11.9743763, 57.6920216], [11.9743684, 57.6920196], [11.97436, 57.6920291], [11.9746463, 57.6921011], [11.9748215, 57.6919016]]]}}, {"type": "Feature", "properties": {"id": "vasa-5", "rhino_layer": "Vasa 5", "kind": "building", "footprint_m2": 485.5, "height_m": 25.17, "estimated_floors": 7, "geometry_source": "Lantm\u00e4teriet", "lantmateriet_ids": ["20058f7e-66e1-4bfe-a16e-2a16c447b4bf", "d3456538-d3d7-4d4e-9de4-6759df5f054d"], "ecom": null}, "geometry": {"type": "Polygon", "coordinates": [[[11.9752433, 57.6920081], [11.9751497, 57.6919844], [11.974973, 57.6921843], [11.975253, 57.6922553], [11.9754297, 57.6920554], [11.9754151, 57.6920517], [11.9754231, 57.6920446], [11.9753537, 57.692004], [11.9752664, 57.6919819], [11.9752433, 57.6920081]]]}}, {"type": "Feature", "properties": {"id": "vasa-7", "rhino_layer": "Vasa 7", "kind": "building", "footprint_m2": 698.6, "height_m": 33.18, "estimated_floors": 9, "geometry_source": "Lantm\u00e4teriet", "lantmateriet_ids": ["e5c56176-66b7-4ee3-a29f-076e0cb32fb7"], "ecom": {"name": "Vasa 7", "owner": "Studentbost\u00e4der", "demand_kwh": 298.2, "grid_kwh": 298.2, "local_kwh": 0.0, "solar_kwh": 0.0, "pv_kw": 0.0, "self_sufficiency": 0.0, "demand_hourly": [7.3, 7.11, 6.91, 7.08, 8.69, 14.7, 18.66, 15.99, 18.97, 19.1, 18.53, 18.77, 19.91, 21.2, 17.93, 16.47, 9.03, 7.38, 7.48, 7.29, 7.29, 7.48, 7.31, 7.58], "solar_hourly": [0.0, 0.0, 0.0, 0.0, 0.0, 0.0, 0.0, 0.0, 0.0, 0.0, 0.0, 0.0, 0.0, 0.0, 0.0, 0.0, 0.0, 0.0, 0.0, 0.0, 0.0, 0.0, 0.0, 0.0]}}, "geometry": {"type": "Polygon", "coordinates": [[[11.9745312, 57.6923952], [11.97467, 57.692241], [11.9741154, 57.6920979], [11.9739766, 57.692252], [11.9745312, 57.6923952]]]}}, {"type": "Feature", "properties": {"id": "vasa-8", "rhino_layer": "Vasa 8", "kind": "building", "footprint_m2": 1703.1, "height_m": 16.8, "estimated_floors": 5, "geometry_source": "Lantm\u00e4teriet", "lantmateriet_ids": ["1e8159a4-c77a-4fab-9346-460ba7a05557"], "ecom": {"name": "Vasa 8", "owner": "Studentbost\u00e4der", "demand_kwh": 993.8, "grid_kwh": 993.8, "local_kwh": 0.0, "solar_kwh": 0.0, "pv_kw": 0.0, "self_sufficiency": 0.0, "demand_hourly": [15.41, 15.05, 14.82, 14.56, 15.11, 34.25, 63.15, 72.87, 84.49, 87.84, 79.96, 85.0, 79.41, 65.78, 65.97, 46.33, 29.14, 23.85, 17.21, 16.77, 16.3, 16.45, 17.34, 16.76], "solar_hourly": [0.0, 0.0, 0.0, 0.0, 0.0, 0.0, 0.0, 0.0, 0.0, 0.0, 0.0, 0.0, 0.0, 0.0, 0.0, 0.0, 0.0, 0.0, 0.0, 0.0, 0.0, 0.0, 0.0, 0.0]}}, "geometry": {"type": "Polygon", "coordinates": [[[11.9749989, 57.6922676], [11.9749949, 57.6922739], [11.9749753, 57.6922689], [11.9749495, 57.6922978], [11.9749757, 57.6923045], [11.9749396, 57.6923449], [11.974848, 57.6923212], [11.9747357, 57.6924458], [11.9749955, 57.692513], [11.9749926, 57.6925163], [11.9750638, 57.6925347], [11.9750664, 57.6925318], [11.975266, 57.6925833], [11.9752633, 57.6925862], [11.9753638, 57.6926121], [11.9753669, 57.6926086], [11.9755635, 57.6926594], [11.975561, 57.6926621], [11.9756356, 57.6926813], [11.9756381, 57.6926786], [11.9758931, 57.6927445], [11.9759189, 57.6927159], [11.9760063, 57.6926188], [11.9757478, 57.6925521], [11.9757497, 57.69255], [11.9756889, 57.6925343], [11.9757572, 57.6924577], [11.9753436, 57.6923519], [11.9753567, 57.6923371], [11.9750595, 57.692261], [11.9750434, 57.692279], [11.9749989, 57.6922676]]]}}, {"type": "Feature", "properties": {"id": "vasa-9", "rhino_layer": "Vasa 9", "kind": "building", "footprint_m2": 599.4, "height_m": 16.05, "estimated_floors": 5, "geometry_source": "Lantm\u00e4teriet", "lantmateriet_ids": ["d330cab6-7880-4572-b8a2-db77f4059f8a", "e6554603-9bc6-4b8c-9b85-7888940457d1"], "ecom": {"name": "Vasa 9", "owner": "Studentbost\u00e4der", "demand_kwh": 247.5, "grid_kwh": 247.5, "local_kwh": 0.0, "solar_kwh": 0.0, "pv_kw": 0.0, "self_sufficiency": 0.0, "demand_hourly": [12.04, 11.89, 12.0, 14.1, 13.93, 13.92, 14.34, 9.6, 8.9, 6.93, 4.86, 5.0, 4.7, 4.99, 5.5, 9.47, 9.19, 8.33, 10.21, 10.33, 13.53, 14.63, 13.81, 15.29], "solar_hourly": [0.0, 0.0, 0.0, 0.0, 0.0, 0.0, 0.0, 0.0, 0.0, 0.0, 0.0, 0.0, 0.0, 0.0, 0.0, 0.0, 0.0, 0.0, 0.0, 0.0, 0.0, 0.0, 0.0, 0.0]}}, "geometry": {"type": "Polygon", "coordinates": [[[11.975568, 57.6923314], [11.9755469, 57.6923561], [11.9757513, 57.6924072], [11.976106, 57.692502], [11.9762753, 57.6923094], [11.9759101, 57.6922174], [11.9758474, 57.6922887], [11.9758519, 57.6922899], [11.9757707, 57.6923824], [11.975568, 57.6923314]]]}}, {"type": "Feature", "properties": {"id": "karhus", "rhino_layer": "k\u00c5rhus", "kind": "building", "footprint_m2": 3016.7, "height_m": 25.58, "estimated_floors": 7, "geometry_source": "Lantm\u00e4teriet", "lantmateriet_ids": ["09f80810-17f8-498a-9d65-7463a02ded77", "9c82082a-e75e-4085-b528-61314322b9c3", "c5c4d711-e782-4f83-b72a-a2b327f7d4b7"], "ecom": null}, "geometry": {"type": "MultiPolygon", "coordinates": [[[[11.9750395, 57.6887131], [11.975109, 57.6887358], [11.9752041, 57.68865], [11.9752376, 57.6886601], [11.9752598, 57.6886272], [11.9752229, 57.6886153], [11.9751868, 57.6886472], [11.9751339, 57.6886307], [11.9750395, 57.6887131]]], [[[11.9745481, 57.6884056], [11.9745233, 57.6883989], [11.9745014, 57.68842], [11.9744973, 57.6884183], [11.9742526, 57.6886301], [11.974414, 57.6886821], [11.9745305, 57.6887193], [11.9747923, 57.688804], [11.9746344, 57.6889443], [11.974709, 57.6889688], [11.9746856, 57.6889896], [11.9749101, 57.6890627], [11.9750257, 57.688959], [11.9750429, 57.6889652], [11.9752427, 57.6887887], [11.9751013, 57.6887418], [11.9750215, 57.6887154], [11.9749827, 57.6887494], [11.9749711, 57.6887456], [11.9751132, 57.688623], [11.9750373, 57.6885987], [11.9748324, 57.688784], [11.9745584, 57.6886932], [11.9746978, 57.6885705], [11.9745829, 57.6885338], [11.9746524, 57.6884728], [11.9745731, 57.6884469], [11.9746023, 57.6884235], [11.9745481, 57.6884056]]], [[[11.9740068, 57.6892305], [11.9739379, 57.6892584], [11.9738716, 57.6893171], [11.9738706, 57.6893532], [11.9742624, 57.6894799], [11.9743463, 57.689406], [11.9741722, 57.6893499], [11.9742627, 57.689271], [11.9740425, 57.6892], [11.9740068, 57.6892305]]], [[[11.9781564, 57.6913787], [11.9781566, 57.6913787], [11.9784509, 57.6910599], [11.9781366, 57.6909768], [11.9781724, 57.6909379], [11.9781006, 57.6909189], [11.9780987, 57.690921], [11.9780968, 57.690923], [11.978023, 57.6909035], [11.9780163, 57.6909017], [11.9780162, 57.6909019], [11.9780115, 57.690907], [11.9780115, 57.690907], [11.9779935, 57.6909264], [11.9779568, 57.6909695], [11.97791, 57.6910231], [11.9779225, 57.6910266], [11.9779, 57.691051], [11.9778883, 57.6910479], [11.9777039, 57.6912592], [11.9777041, 57.6912592], [11.9777042, 57.691259], [11.9781564, 57.6913787]]]]}}, {"type": "Feature", "properties": {"id": "lokal-kontor", "rhino_layer": "lokal kontor", "kind": "building", "footprint_m2": 2456.8, "height_m": 23.23, "estimated_floors": 7, "geometry_source": "Lantm\u00e4teriet", "lantmateriet_ids": ["21fc1826-ac32-42fd-9a49-fde0a56b6796"], "ecom": {"name": "Lokalkontor", "owner": "Studentbost\u00e4der", "demand_kwh": 213.6, "grid_kwh": 213.6, "local_kwh": 0.0, "solar_kwh": 0.0, "pv_kw": 0.0, "self_sufficiency": 0.0, "demand_hourly": [8.9, 8.9, 8.9, 8.9, 8.9, 8.9, 8.9, 8.9, 8.9, 8.9, 8.9, 8.9, 8.9, 8.9, 8.9, 8.9, 8.9, 8.9, 8.9, 8.9, 8.9, 8.9, 8.9, 8.9], "solar_hourly": [0.0, 0.0, 0.0, 0.0, 0.0, 0.0, 0.0, 0.0, 0.0, 0.0, 0.0, 0.0, 0.0, 0.0, 0.0, 0.0, 0.0, 0.0, 0.0, 0.0, 0.0, 0.0, 0.0, 0.0]}}, "geometry": {"type": "Polygon", "coordinates": [[[11.9769758, 57.6891705], [11.9769912, 57.6891747], [11.9768623, 57.6893132], [11.9768623, 57.6893132], [11.9768647, 57.6893138], [11.9770102, 57.6893507], [11.9769951, 57.6893665], [11.9770525, 57.689382], [11.977066, 57.6893661], [11.9770722, 57.6893676], [11.9770892, 57.6893717], [11.9773034, 57.6894275], [11.9775441, 57.6894901], [11.9777498, 57.6892621], [11.977723, 57.6892552], [11.9774862, 57.6891937], [11.9774889, 57.6891908], [11.9775539, 57.6891197], [11.9775564, 57.6891204], [11.9775569, 57.6891199], [11.9773357, 57.6890591], [11.9777007, 57.6886787], [11.9774186, 57.688602], [11.9774181, 57.6886019], [11.9770605, 57.6890001], [11.9771678, 57.6890273], [11.9771083, 57.6890949], [11.9770699, 57.6890859], [11.9770699, 57.6890859], [11.9770687, 57.6890871], [11.9770605, 57.6890954], [11.9770454, 57.6890919], [11.9770532, 57.6890846], [11.9770538, 57.6890841], [11.9769799, 57.6890653], [11.9768976, 57.6891563], [11.9768976, 57.6891563], [11.9769727, 57.6891762], [11.9769758, 57.6891705]]]}}], "ecom_meta": {"period": "June 1 00:00 - June 1 23:00 (24 h)", "hours": 24, "community": "Chalmers Campus 2022", "source": "ECOM dashboard /api/dispatch", "kpis": {"total_demand": 69811.34542875002, "total_grid_import": 61603.66892875, "total_grid_export": 0.0, "total_pv_used": 7211.870115, "total_pv_gen": 8203.176140000001, "self_sufficiency": 11.756937858154936, "self_consumption": 87.91558284155042, "avg_grid_carbon_intensity": 41.0, "total_grid_carbon_import": 2525750.42607875, "avg_grid_price_import": 1.3500000000000003, "avg_building_self_consumption": 13.84487341109616, "building_self_consumption": {"Fysik origo": 0.0, "IT": 0.0, "Elkraftteknik": 0.0, "Id\u00e9l\u00e4ra": 0.0, "HC": 0.0, "HA": 0.0, "SB2": 47.936863855709205, "Edit": 100.0, "HB": 0.0, "SB1": 100.0, "SB3": 0.0, "Maskinteknik": 0.0, "Gamla matte": 0.0, "Lokalkontor": 0.0, "CA-Huset": 0.0, "CSB Chabo": 0.0, "CSB Gibraltarvallen guesthouse": 0.0, "CSB Holtermansgatan": 0.0, "Emils k\u00e5rhus": 0.0, "JSP": 0.0, "K\u00e5rhus entr\u00e9": 71.07183053724705, "K\u00e5rresturangen": 0.0, "MC2": 100.0, "Nya Matte": 0.0, "Reaktorfysik": 0.0, "Teknikparken": 0.0, "Vasa 1": 0.0, "Vasa 4": 0.0, "Vasa 7": 0.0, "Vasa 8": 0.0, "Vasa 9": 0.0, "Vasa 10": 0.0, "Vasa 11": 0.0, "Vasa 12": 0.0, "Vasa 13": 0.0, "Vasa 15": 0.0, "AWL": 93.25162181760159}}}, "generated": "2026-09-23T10:31:33+02:00"}