{"type": "FeatureCollection", "features": [{"type": "Feature", "geometry": {"type": "LineString", "coordinates": [[11.976864433333333, 57.68740009166667], [11.975987278634204, 57.688774293850074], [11.976409294059179, 57.68885125612496], [11.975550745882353, 57.69019630823529]]}, "properties": {"source": "SB2", "target": "Fysik origo", "kind": "building", "target_kind": "building", "source_owner": "Studentbost\u00e4der", "target_owner": "Akademiska Hus", "peak": 15.2, "flow_hourly": [0.0, 0.0, 0.0, 0.0, 0.0, 5.4, 12.3, 12.9, 15.1, 13.8, 14.7, 14.8, 15.0, 15.2, 15.0, 14.9, 11.46, 0.0, 0.0, 0.0, 0.0, 0.0, 0.0, 0.0]}}, {"type": "Feature", "geometry": {"type": "LineString", "coordinates": [[11.976864433333333, 57.68740009166667], [11.978061523724561, 57.68761841146618], [11.978341676011823, 57.68717949161812], [11.979686785106383, 57.687424806382985]]}, "properties": {"source": "SB2", "target": "Elkraftteknik", "kind": "building", "target_kind": "building", "source_owner": "Studentbost\u00e4der", "target_owner": "Studentbost\u00e4der", "peak": 76.88, "flow_hourly": [0.0, 0.0, 0.0, 0.0, 0.0, 12.24, 18.71, 31.03, 49.16, 60.23, 71.37, 76.88, 71.17, 59.65, 46.31, 21.59, 0.0, 0.0, 0.0, 0.0, 0.0, 0.0, 0.0, 0.0]}}, {"type": "Feature", "geometry": {"type": "LineString", "coordinates": [[11.974168981818183, 57.68897472727272], [11.974879786547435, 57.68786112035352], [11.97893610991635, 57.68860087774449], [11.979686785106383, 57.687424806382985]]}, "properties": {"source": "K\u00e5rhus entr\u00e9", "target": "Elkraftteknik", "kind": "building", "target_kind": "building", "source_owner": "Studentbost\u00e4der", "target_owner": "Studentbost\u00e4der", "peak": 22.86, "flow_hourly": [0.0, 0.0, 0.0, 0.0, 0.0, 0.0, 1.82, 13.64, 22.86, 18.57, 6.53, 0.32, 7.43, 20.35, 21.35, 11.14, 0.0, 0.0, 0.0, 0.0, 0.0, 0.0, 0.0, 0.0]}}, {"type": "Feature", "geometry": {"type": "LineString", "coordinates": [[11.974168981818183, 57.68897472727272], [11.974907568187485, 57.68781759166921], [11.978017762019217, 57.6883848038584], [11.978774954545456, 57.687198518181816]]}, "properties": {"source": "K\u00e5rhus entr\u00e9", "target": "Id\u00e9l\u00e4ra", "kind": "building", "target_kind": "building", "source_owner": "Studentbost\u00e4der", "target_owner": "Studentbost\u00e4der", "peak": 15.0, "flow_hourly": [0.0, 0.0, 0.0, 0.0, 0.0, 0.0, 0.0, 0.0, 0.0, 11.11, 14.7, 14.8, 15.0, 8.6, 0.0, 0.0, 0.0, 0.0, 0.0, 0.0, 0.0, 0.0, 0.0, 0.0]}}, {"type": "Feature", "geometry": {"type": "LineString", "coordinates": [[11.974168981818183, 57.68897472727272], [11.976508636990893, 57.689401409428385], [11.977597763735575, 57.68769510735789], [11.979882884, 57.688111844]]}, "properties": {"source": "K\u00e5rhus entr\u00e9", "target": "HC", "kind": "building", "target_kind": "building", "source_owner": "Studentbost\u00e4der", "target_owner": "Studentbost\u00e4der", "peak": 16.4, "flow_hourly": [0.0, 0.0, 0.0, 0.0, 0.0, 0.0, 0.0, 0.0, 0.0, 0.0, 13.28, 16.4, 11.17, 0.0, 0.0, 0.0, 0.0, 0.0, 0.0, 0.0, 0.0, 0.0, 0.0, 0.0]}}, {"type": "Feature", "geometry": {"type": "LineString", "coordinates": [[11.974168981818183, 57.68897472727272], [11.976416191728406, 57.689384542469135], [11.976602110881045, 57.689093274037695], [11.978732458064517, 57.68948177741935]]}, "properties": {"source": "K\u00e5rhus entr\u00e9", "target": "HA", "kind": "building", "target_kind": "building", "source_owner": "Studentbost\u00e4der", "target_owner": "Studentbost\u00e4der", "peak": 3.38, "flow_hourly": [0.0, 0.0, 0.0, 0.0, 0.0, 0.0, 0.0, 0.0, 0.0, 0.0, 0.0, 3.38, 0.0, 0.0, 0.0, 0.0, 0.0, 0.0, 0.0, 0.0, 0.0, 0.0, 0.0, 0.0]}}, {"type": "Feature", "geometry": {"type": "LineString", "coordinates": [[11.97822308, 57.685924420000006], [11.978274693573875, 57.68593383287619], [11.975553666489999, 57.69019684087266], [11.975550745882353, 57.69019630823529]]}, "properties": {"source": "BAT_Battery-01", "target": "Fysik origo", "kind": "battery", "target_kind": "building", "source_owner": "", "target_owner": "Akademiska Hus", "peak": 2.5, "flow_hourly": [2.5, 0.0, 0.0, 0.0, 0.0, 0.0, 0.0, 0.0, 0.0, 0.0, 0.0, 0.0, 0.0, 0.0, 0.0, 0.0, 0.0, 0.0, 0.0, 0.0, 0.0, 0.0, 0.0, 0.0]}}, {"type": "Feature", "geometry": {"type": "LineString", "coordinates": [[11.97822308, 57.685924420000006], [11.979233510669836, 57.686108701416295], [11.978528338746882, 57.687213530001344], [11.979686785106383, 57.687424806382985]]}, "properties": {"source": "BAT_Battery-01", "target": "Elkraftteknik", "kind": "battery", "target_kind": "building", "source_owner": "", "target_owner": "Studentbost\u00e4der", "peak": 0.4, "flow_hourly": [0.4, 0.0, 0.0, 0.0, 0.0, 0.0, 0.0, 0.0, 0.0, 0.0, 0.0, 0.0, 0.0, 0.0, 0.0, 0.0, 0.0, 0.0, 0.0, 0.0, 0.0, 0.0, 0.0, 0.0]}}, {"type": "Feature", "geometry": {"type": "LineString", "coordinates": [[11.97315, 57.6911], [11.973548135641494, 57.6904762891124], [11.97518185055442, 57.69077421186521], [11.975550745882353, 57.69019630823529]]}, "properties": {"source": "GRID", "target": "Fysik origo", "kind": "grid", "target_kind": "building", "source_owner": "", "target_owner": "Akademiska Hus", "peak": 14.2, "flow_hourly": [0.0, 2.5, 2.6, 2.4, 2.4, 0.0, 0.0, 0.0, 0.0, 0.0, 0.0, 0.0, 0.0, 0.0, 0.0, 0.0, 2.64, 14.2, 13.6, 13.5, 10.1, 3.4, 3.0, 2.9]}}, {"type": "Feature", "geometry": {"type": "LineString", "coordinates": [[11.97315, 57.6911], [11.975054217482732, 57.69144726463366], [11.977837103614199, 57.68708748726288], [11.979686785106383, 57.687424806382985]]}, "properties": {"source": "GRID", "target": "Elkraftteknik", "kind": "grid", "target_kind": "building", "source_owner": "", "target_owner": "Studentbost\u00e4der", "peak": 75.0, "flow_hourly": [42.3, 43.2, 42.6, 39.6, 41.1, 29.66, 39.37, 21.93, 1.97, 0.0, 0.0, 0.0, 0.0, 0.0, 13.73, 49.17, 75.0, 50.6, 46.8, 46.6, 47.8, 47.0, 45.1, 44.1]}}, {"type": "Feature", "geometry": {"type": "LineString", "coordinates": [[11.97315, 57.6911], [11.974612315955035, 57.69136667762722], [11.977429501062415, 57.68695315236934], [11.978774954545456, 57.687198518181816]]}, "properties": {"source": "GRID", "target": "Id\u00e9l\u00e4ra", "kind": "grid", "target_kind": "building", "source_owner": "", "target_owner": "Studentbost\u00e4der", "peak": 15.1, "flow_hourly": [2.5, 2.5, 2.6, 2.4, 2.4, 5.4, 12.3, 12.9, 15.1, 2.69, 0.0, 0.0, 0.0, 6.6, 15.0, 14.9, 14.1, 14.2, 13.6, 13.5, 10.1, 3.4, 3.0, 2.9]}}, {"type": "Feature", "geometry": {"type": "LineString", "coordinates": [[11.97315, 57.6911], [11.974335330474874, 57.6892430328996], [11.978657681517143, 57.6900312755427], [11.979882884, 57.688111844]]}, "properties": {"source": "GRID", "target": "HC", "kind": "grid", "target_kind": "building", "source_owner": "", "target_owner": "Studentbost\u00e4der", "peak": 31.8, "flow_hourly": [3.7, 3.7, 3.6, 2.6, 3.5, 6.2, 13.7, 15.5, 15.6, 16.2, 2.42, 0.0, 14.53, 30.4, 31.8, 31.8, 28.8, 14.3, 5.6, 3.6, 3.3, 3.9, 4.1, 5.0]}}, {"type": "Feature", "geometry": {"type": "LineString", "coordinates": [[11.97315, 57.6911], [11.975214835118193, 57.69147654515063], [11.976722160484822, 57.68911517778227], [11.978732458064517, 57.68948177741935]]}, "properties": {"source": "GRID", "target": "HA", "kind": "grid", "target_kind": "building", "source_owner": "", "target_owner": "Studentbost\u00e4der", "peak": 19.7, "flow_hourly": [2.7, 2.6, 2.8, 2.4, 2.3, 2.3, 5.7, 10.3, 11.0, 11.1, 11.2, 8.32, 15.1, 19.7, 19.0, 19.0, 18.7, 11.6, 4.2, 2.7, 2.8, 2.6, 2.6, 7.9]}}, {"type": "Feature", "geometry": {"type": "LineString", "coordinates": [[11.97315, 57.6911], [11.97439206354492, 57.689154134403246], [11.975603763034092, 57.689375107336495], [11.976864433333333, 57.68740009166667]]}, "properties": {"source": "GRID", "target": "SB2", "kind": "grid", "target_kind": "building", "source_owner": "", "target_owner": "Studentbost\u00e4der", "peak": 47.05, "flow_hourly": [44.8, 44.2, 42.4, 41.67, 7.01, 0.0, 0.0, 0.0, 0.0, 0.0, 0.0, 0.0, 0.0, 0.0, 0.0, 0.0, 0.0, 9.08, 29.96, 47.05, 40.3, 35.2, 31.9, 33.0]}}, {"type": "Feature", "geometry": {"type": "LineString", "coordinates": [[11.97315, 57.6911], [11.974388165219208, 57.689160254136695], [11.977675048228091, 57.68975966638339], [11.978883974074074, 57.687865727777776]]}, "properties": {"source": "GRID", "target": "Edit", "kind": "grid", "target_kind": "building", "source_owner": "", "target_owner": "Studentbost\u00e4der", "peak": 133.45, "flow_hourly": [100.8, 99.5, 98.3, 93.12, 75.14, 81.3, 92.88, 98.83, 103.87, 112.01, 98.92, 88.62, 86.8, 87.56, 100.22, 105.42, 100.2, 124.67, 117.24, 133.45, 120.4, 124.7, 118.5, 119.2]}}, {"type": "Feature", "geometry": {"type": "LineString", "coordinates": [[11.97315, 57.6911], [11.974159910355452, 57.6895178641854], [11.978372580889605, 57.690286098253885], [11.979353251515152, 57.688749769696976]]}, "properties": {"source": "GRID", "target": "HB", "kind": "grid", "target_kind": "building", "source_owner": "", "target_owner": "Studentbost\u00e4der", "peak": 41.7, "flow_hourly": [7.6, 7.9, 7.7, 6.4, 6.5, 22.6, 33.9, 29.1, 31.4, 33.7, 31.6, 35.8, 34.2, 41.5, 41.7, 38.0, 36.5, 15.0, 14.6, 13.8, 13.3, 12.3, 10.2, 10.0]}}, {"type": "Feature", "geometry": {"type": "LineString", "coordinates": [[11.97315, 57.6911], [11.973646531747105, 57.69119055000874], [11.975855513351808, 57.6877298939148], [11.976500072222223, 57.687847438888895]]}, "properties": {"source": "GRID", "target": "SB1", "kind": "grid", "target_kind": "building", "source_owner": "", "target_owner": "Studentbost\u00e4der", "peak": 82.07, "flow_hourly": [63.4, 65.2, 63.6, 60.41, 45.6, 36.32, 59.04, 61.68, 59.7, 57.87, 65.69, 39.04, 53.57, 63.24, 61.42, 64.56, 62.1, 68.51, 73.4, 82.07, 75.5, 61.9, 62.9, 62.1]}}, {"type": "Feature", "geometry": {"type": "LineString", "coordinates": [[11.97315, 57.6911], [11.97470171436547, 57.688668993091916], [11.975892869355118, 57.68888622209938], [11.977415344897958, 57.68650102244898]]}, "properties": {"source": "GRID", "target": "SB3", "kind": "grid", "target_kind": "building", "source_owner": "", "target_owner": "Studentbost\u00e4der", "peak": 149.5, "flow_hourly": [138.6, 134.8, 133.3, 130.2, 110.7, 131.5, 138.6, 143.6, 117.0, 143.1, 110.2, 91.3, 87.8, 97.7, 98.4, 126.2, 130.9, 131.4, 137.4, 135.2, 134.3, 136.4, 128.9, 149.5]}}, {"type": "Feature", "geometry": {"type": "LineString", "coordinates": [[11.97315, 57.6911], [11.974082252917725, 57.689639521558085], [11.977130587265838, 57.690195424702395], [11.978102712500002, 57.68867248181818]]}, "properties": {"source": "GRID", "target": "Maskinteknik", "kind": "grid", "target_kind": "building", "source_owner": "", "target_owner": "Akademiska Hus", "peak": 383.8, "flow_hourly": [191.6, 177.1, 176.9, 172.7, 173.3, 212.3, 241.2, 292.0, 324.1, 360.8, 355.0, 378.9, 383.8, 366.5, 346.9, 341.2, 308.7, 288.3, 270.9, 253.9, 242.7, 224.7, 208.2, 200.5]}}, {"type": "Feature", "geometry": {"type": "LineString", "coordinates": [[11.97315, 57.6911], [11.975672767762095, 57.691560079691065], [11.979847371904293, 57.685019805457024], [11.98225328, 57.685458573333335]]}, "properties": {"source": "GRID", "target": "Gamla matte", "kind": "grid", "target_kind": "building", "source_owner": "", "target_owner": "Chalmersfastigheter", "peak": 32.4, "flow_hourly": [20.6, 21.1, 20.6, 21.9, 21.0, 26.0, 31.7, 31.3, 31.2, 28.8, 28.7, 32.4, 29.9, 27.7, 26.2, 24.8, 22.1, 19.4, 20.7, 19.4, 20.8, 20.3, 20.8, 21.1]}}, {"type": "Feature", "geometry": {"type": "LineString", "coordinates": [[11.97315, 57.6911], [11.974380409936279, 57.691324379790046], [11.975946973505414, 57.688870197606406], [11.977263084848486, 57.689110206060604]]}, "properties": {"source": "GRID", "target": "Lokalkontor", "kind": "grid", "target_kind": "building", "source_owner": "", "target_owner": "Studentbost\u00e4der", "peak": 8.9, "flow_hourly": [8.9, 8.9, 8.9, 8.9, 8.9, 8.9, 8.9, 8.9, 8.9, 8.9, 8.9, 8.9, 8.9, 8.9, 8.9, 8.9, 8.9, 8.9, 8.9, 8.9, 8.9, 8.9, 8.9, 8.9]}}, {"type": "Feature", "geometry": {"type": "LineString", "coordinates": [[11.97315, 57.6911], [11.973554358743897, 57.690466537566316], [11.97368573063158, 57.690490494520255], [11.974060849180328, 57.68990283934426]]}, "properties": {"source": "GRID", "target": "CA-Huset", "kind": "grid", "target_kind": "building", "source_owner": "", "target_owner": "Studentbost\u00e4der", "peak": 25.76, "flow_hourly": [14.33, 15.01, 13.85, 13.28, 17.82, 19.34, 16.59, 17.55, 25.76, 24.46, 24.08, 23.04, 21.47, 22.93, 21.44, 19.03, 16.43, 12.72, 12.55, 11.6, 12.15, 13.67, 14.49, 15.56]}}, {"type": "Feature", "geometry": {"type": "LineString", "coordinates": [[11.97315, 57.6911], [11.9747513037429, 57.69139200623702], [11.974737068795612, 57.6914143059432], [11.976283833333333, 57.69169636666667]]}, "properties": {"source": "GRID", "target": "CSB Chabo", "kind": "grid", "target_kind": "building", "source_owner": "", "target_owner": "Studentbost\u00e4der", "peak": 184.2, "flow_hourly": [104.9, 98.3, 98.7, 93.9, 92.9, 97.1, 114.5, 110.8, 117.2, 121.5, 138.3, 154.8, 133.7, 140.7, 140.1, 147.8, 158.3, 181.2, 184.2, 174.0, 160.1, 146.8, 127.7, 117.4]}}, {"type": "Feature", "geometry": {"type": "LineString", "coordinates": [[11.97315, 57.6911], [11.975615829727532, 57.691549670099214], [11.977152439705877, 57.689142429808065], [11.979703971428572, 57.68960772857143]]}, "properties": {"source": "GRID", "target": "CSB Gibraltarvallen guesthouse", "kind": "grid", "target_kind": "building", "source_owner": "", "target_owner": "Studentbost\u00e4der", "peak": 27.1, "flow_hourly": [15.4, 14.8, 12.6, 11.6, 12.5, 11.4, 18.1, 20.2, 18.4, 16.2, 20.1, 24.1, 22.7, 21.3, 19.6, 17.8, 23.1, 24.5, 20.4, 22.5, 25.9, 27.1, 21.3, 16.9]}}, {"type": "Feature", "geometry": {"type": "LineString", "coordinates": [[11.97315, 57.6911], [11.973854550768738, 57.691228489948166], [11.977727119814723, 57.685161393496415], [11.978377136206896, 57.68527993793103]]}, "properties": {"source": "GRID", "target": "JSP", "kind": "grid", "target_kind": "building", "source_owner": "", "target_owner": "Studentbost\u00e4der", "peak": 145.8, "flow_hourly": [33.3, 35.9, 35.3, 38.7, 38.0, 56.3, 86.4, 111.0, 123.7, 121.9, 145.8, 132.0, 123.8, 123.7, 93.0, 75.1, 58.5, 43.8, 39.6, 28.6, 27.5, 29.3, 28.0, 25.1]}}, {"type": "Feature", "geometry": {"type": "LineString", "coordinates": [[11.97315, 57.6911], [11.973835955679279, 57.6900253782054], [11.973533531283698, 57.689970227440405], [11.974168981818183, 57.68897472727272]]}, "properties": {"source": "GRID", "target": "K\u00e5rhus entr\u00e9", "kind": "grid", "target_kind": "building", "source_owner": "", "target_owner": "Studentbost\u00e4der", "peak": 45.83, "flow_hourly": [42.94, 42.94, 42.94, 41.7, 24.75, 11.23, 0.0, 0.0, 0.0, 0.0, 0.0, 0.0, 0.0, 0.0, 0.0, 0.0, 0.31, 13.7, 27.27, 40.01, 42.94, 42.94, 42.94, 45.83]}}, {"type": "Feature", "geometry": {"type": "LineString", "coordinates": [[11.97315, 57.6911], [11.973074044863502, 57.69108614853594], [11.97482891464205, 57.68833693613325], [11.97483866, 57.68833871333334]]}, "properties": {"source": "GRID", "target": "K\u00e5rresturangen", "kind": "grid", "target_kind": "building", "source_owner": "", "target_owner": "Studentbost\u00e4der", "peak": 72.44, "flow_hourly": [35.93, 35.7, 35.44, 34.56, 35.45, 38.97, 51.6, 51.2, 57.46, 61.23, 64.84, 72.44, 65.39, 66.45, 64.0, 63.95, 67.61, 71.3, 70.2, 60.2, 51.87, 47.45, 40.89, 37.59]}}, {"type": "Feature", "geometry": {"type": "LineString", "coordinates": [[11.97315, 57.6911], [11.97386865883975, 57.691231052242706], [11.974014261665895, 57.69100295693098], [11.974818624324325, 57.69114963783784]]}, "properties": {"source": "GRID", "target": "MC2", "kind": "grid", "target_kind": "building", "source_owner": "", "target_owner": "Studentbost\u00e4der", "peak": 1268.8, "flow_hourly": [1260.22, 1265.39, 1259.92, 1261.46, 1184.91, 1110.0, 1050.69, 991.71, 941.66, 889.85, 943.21, 914.68, 920.85, 949.32, 1001.6, 1048.11, 1106.6, 1136.78, 1203.43, 1251.49, 1268.8, 1252.97, 1249.01, 1241.14]}}, {"type": "Feature", "geometry": {"type": "LineString", "coordinates": [[11.97315, 57.6911], [11.974798469928734, 57.691400613813926], [11.975806613736184, 57.689821275177884], [11.977400545652173, 57.690111943478264]]}, "properties": {"source": "GRID", "target": "Nya Matte", "kind": "grid", "target_kind": "building", "source_owner": "", "target_owner": "Studentbost\u00e4der", "peak": 123.1, "flow_hourly": [78.1, 83.3, 81.0, 78.8, 77.4, 84.4, 92.5, 106.0, 110.6, 114.6, 123.1, 112.6, 118.8, 121.7, 109.4, 103.9, 100.4, 86.2, 83.5, 87.1, 81.8, 81.8, 83.8, 87.6]}}, {"type": "Feature", "geometry": {"type": "LineString", "coordinates": [[11.97315, 57.6911], [11.97353626776194, 57.69117044511963], [11.977929792000035, 57.68428708735044], [11.978261526086955, 57.68434758695652]]}, "properties": {"source": "GRID", "target": "Teknikparken", "kind": "grid", "target_kind": "building", "source_owner": "", "target_owner": "Studentbost\u00e4der", "peak": 69.88, "flow_hourly": [43.19, 43.63, 42.49, 42.6, 39.46, 42.85, 55.26, 60.57, 65.5, 66.69, 66.52, 69.41, 69.88, 66.85, 64.48, 60.66, 51.86, 46.73, 45.8, 45.78, 45.82, 46.72, 43.59, 42.59]}}, {"type": "Feature", "geometry": {"type": "LineString", "coordinates": [[11.97315, 57.6911], [11.972569599288697, 57.6920092040991], [11.974610192291902, 57.692381308643206], [11.97400055, 57.69333632]]}, "properties": {"source": "GRID", "target": "Vasa 1", "kind": "grid", "target_kind": "building", "source_owner": "", "target_owner": "Studentbost\u00e4der", "peak": 65.93, "flow_hourly": [32.4, 32.1, 33.01, 31.13, 34.05, 40.5, 51.92, 57.71, 59.58, 63.6, 65.93, 62.27, 62.95, 62.89, 62.58, 53.16, 43.61, 39.22, 35.07, 31.56, 31.62, 32.48, 32.07, 32.1]}}, {"type": "Feature", "geometry": {"type": "LineString", "coordinates": [[11.97315, 57.6911], [11.974048628389085, 57.691263869134495], [11.973723432042478, 57.69177330269484], [11.974567521052633, 57.691927226315784]]}, "properties": {"source": "GRID", "target": "Vasa 4", "kind": "grid", "target_kind": "building", "source_owner": "", "target_owner": "Studentbost\u00e4der", "peak": 15.11, "flow_hourly": [2.6, 2.6, 2.6, 2.6, 2.6, 2.51, 3.06, 12.91, 13.87, 15.11, 13.98, 13.71, 13.79, 13.61, 13.13, 11.97, 4.17, 2.85, 3.08, 2.45, 2.49, 2.41, 2.68, 2.51]}}, {"type": "Feature", "geometry": {"type": "LineString", "coordinates": [[11.97315, 57.6911], [11.973992235070865, 57.69125358481152], [11.973456165127399, 57.69209335658676], [11.974446436363637, 57.692273936363634]]}, "properties": {"source": "GRID", "target": "Vasa 7", "kind": "grid", "target_kind": "building", "source_owner": "", "target_owner": "Studentbost\u00e4der", "peak": 21.2, "flow_hourly": [7.3, 7.11, 6.91, 7.08, 8.69, 14.7, 18.66, 15.99, 18.97, 19.1, 18.53, 18.77, 19.91, 21.2, 17.93, 16.47, 9.03, 7.38, 7.48, 7.29, 7.29, 7.48, 7.31, 7.58]}}, {"type": "Feature", "geometry": {"type": "LineString", "coordinates": [[11.97315, 57.6911], [11.974493902838956, 57.6913450654651], [11.973975997758966, 57.69215638004845], [11.975265360869566, 57.69239150000001]]}, "properties": {"source": "GRID", "target": "Vasa 8", "kind": "grid", "target_kind": "building", "source_owner": "", "target_owner": "Studentbost\u00e4der", "peak": 87.84, "flow_hourly": [15.41, 15.05, 14.82, 14.56, 15.11, 34.25, 63.15, 72.87, 84.49, 87.84, 79.96, 85.0, 79.41, 65.78, 65.97, 46.33, 29.14, 23.85, 17.21, 16.77, 16.3, 16.45, 17.34, 16.76]}}, {"type": "Feature", "geometry": {"type": "LineString", "coordinates": [[11.97315, 57.6911], [11.974683894655795, 57.69137971144719], [11.974275860862438, 57.69201890988865], [11.975895460714286, 57.692314249999995]]}, "properties": {"source": "GRID", "target": "Vasa 9", "kind": "grid", "target_kind": "building", "source_owner": "", "target_owner": "Studentbost\u00e4der", "peak": 15.29, "flow_hourly": [12.04, 11.89, 12.0, 14.1, 13.93, 13.92, 14.34, 9.6, 8.9, 6.93, 4.86, 5.0, 4.7, 4.99, 5.5, 9.47, 9.19, 8.33, 10.21, 10.33, 13.53, 14.63, 13.81, 15.29]}}, {"type": "Feature", "geometry": {"type": "LineString", "coordinates": [[11.97315, 57.6911], [11.975117064499095, 57.691458698974884], [11.974479390480036, 57.69245762913668], [11.976594492307694, 57.69284332307692]]}, "properties": {"source": "GRID", "target": "Vasa 10", "kind": "grid", "target_kind": "building", "source_owner": "", "target_owner": "Studentbost\u00e4der", "peak": 9.41, "flow_hourly": [2.5, 2.5, 2.41, 2.22, 2.29, 4.3, 6.68, 7.44, 8.58, 8.69, 8.88, 8.62, 9.41, 8.41, 8.28, 8.02, 7.46, 3.89, 3.5, 2.06, 1.99, 2.45, 2.5, 2.32]}}, {"type": "Feature", "geometry": {"type": "LineString", "coordinates": [[11.97315, 57.6911], [11.975099616217065, 57.69145551993818], [11.974785585937182, 57.69194745890871], [11.9766806625, 57.692293033333335]]}, "properties": {"source": "GRID", "target": "Vasa 11", "kind": "grid", "target_kind": "building", "source_owner": "", "target_owner": "Studentbost\u00e4der", "peak": 58.73, "flow_hourly": [23.14, 23.14, 22.41, 21.83, 21.85, 24.73, 33.24, 42.7, 48.41, 49.42, 49.4, 52.43, 58.32, 58.73, 52.06, 46.42, 42.42, 42.11, 33.9, 27.63, 23.17, 25.58, 26.63, 26.63]}}, {"type": "Feature", "geometry": {"type": "LineString", "coordinates": [[11.97315, 57.6911], [11.975018157357312, 57.691440661643284], [11.974163516475013, 57.69277946969256], [11.97611738, 57.69313576]]}, "properties": {"source": "GRID", "target": "Vasa 12", "kind": "grid", "target_kind": "building", "source_owner": "", "target_owner": "Studentbost\u00e4der", "peak": 0.68, "flow_hourly": [0.56, 0.55, 0.61, 0.68, 0.63, 0.67, 0.62, 0.57, 0.51, 0.53, 0.51, 0.52, 0.51, 0.52, 0.54, 0.51, 0.53, 0.5, 0.51, 0.53, 0.51, 0.56, 0.58, 0.56]}}, {"type": "Feature", "geometry": {"type": "LineString", "coordinates": [[11.97315, 57.6911], [11.973988017276744, 57.69125281540516], [11.973336776667638, 57.69227300410191], [11.974057923076924, 57.69240450769231]]}, "properties": {"source": "GRID", "target": "Vasa 13", "kind": "grid", "target_kind": "building", "source_owner": "", "target_owner": "Studentbost\u00e4der", "peak": 0.27, "flow_hourly": [0.26, 0.26, 0.27, 0.11, 0.05, 0.05, 0.06, 0.07, 0.07, 0.06, 0.07, 0.08, 0.04, 0.05, 0.05, 0.05, 0.05, 0.06, 0.05, 0.05, 0.05, 0.17, 0.26, 0.26]}}, {"type": "Feature", "geometry": {"type": "LineString", "coordinates": [[11.97315, 57.6911], [11.975297485238357, 57.69149160437454], [11.975297334100137, 57.691491841139005], [11.97739028, 57.6918735]]}, "properties": {"source": "GRID", "target": "Vasa 15", "kind": "grid", "target_kind": "building", "source_owner": "", "target_owner": "Studentbost\u00e4der", "peak": 78.87, "flow_hourly": [12.91, 12.78, 13.54, 13.3, 15.13, 54.22, 64.66, 68.67, 70.01, 77.19, 76.27, 78.16, 78.87, 75.83, 70.15, 65.48, 51.68, 26.38, 16.14, 31.28, 39.1, 39.1, 39.1, 39.1]}}, {"type": "Feature", "geometry": {"type": "LineString", "coordinates": [[11.97315, 57.6911], [11.974401097124554, 57.68913999932157], [11.97927129595709, 57.6900281507515], [11.980541, 57.688039]]}, "properties": {"source": "GRID", "target": "CP_CP", "kind": "grid", "target_kind": "charge_point", "source_owner": "", "target_owner": "Akademiska Hus", "peak": 0.59, "flow_hourly": [0.59, 0.59, 0.59, 0.59, 0.59, 0.59, 0.59, 0.0, 0.0, 0.0, 0.0, 0.0, 0.0, 0.0, 0.0, 0.0, 0.0, 0.0, 0.59, 0.59, 0.59, 0.59, 0.59, 0.59]}}], "generated": "2026-09-04T09:57:03+02:00"}