{"type":"FeatureCollection","crs":{"type":"name","properties":{"name":"urn:ogc:def:crs:OGC:1.3:CRS84"}},"source":"C:\\Users\\saraabo\\Desktop\\ECOM\\Model\\background image.3dm","note":"Footprints are the XY union of upward-facing render mesh triangles, reprojected from EPSG:3006. Close estimates, not survey data.","features":[{"type":"Feature","id":"awl","properties":{"id":"awl","rhino_layer":"AWL","kind":"building","footprint_m2":1979.5,"height_m":28.03,"estimated_floors":8},"geometry":{"type":"Polygon","coordinates":[[[11.9785393,57.6861176],[11.9787433,57.6858653],[11.9777487,57.6856346],[11.9775448,57.685887],[11.9785393,57.6861176]]]}},{"type":"Feature","id":"bibliotek","properties":{"id":"bibliotek","rhino_layer":"Bibliotek","kind":"building","footprint_m2":2519.0,"height_m":32.26,"estimated_floors":9},"geometry":{"type":"MultiPolygon","coordinates":[[[[11.9788422,57.6903155],[11.9786922,57.6904815],[11.9789874,57.690558],[11.9791373,57.690392],[11.9788422,57.6903155]]],[[[11.9785625,57.6899943],[11.9782139,57.6903815],[11.9781009,57.6903526],[11.9780626,57.6903954],[11.9782464,57.6904426],[11.9781751,57.6905215],[11.9782863,57.6905503],[11.9782442,57.6905971],[11.9782907,57.6906091],[11.9781193,57.6907949],[11.9784245,57.6908756],[11.9786047,57.6906804],[11.9785677,57.6906706],[11.9787225,57.6904986],[11.9786851,57.6904889],[11.9788304,57.6903286],[11.9785845,57.6902654],[11.9784402,57.6904258],[11.9787783,57.69005],[11.9785625,57.6899943]],[[11.9785845,57.6902654],[11.9786048,57.6903196],[11.9786048,57.6903196],[11.9785845,57.6902654]],[[11.9782835,57.6904015],[11.978255,57.690433],[11.9782834,57.6904015],[11.9782835,57.6904015]],[[11.9782125,57.6903831],[11.9782125,57.6903831],[11.9782125,57.6903831],[11.9782125,57.6903831]]]]}},{"type":"Feature","id":"ca-huset","properties":{"id":"ca-huset","rhino_layer":"CA-Huset","kind":"building","footprint_m2":1025.1,"height_m":14.99,"estimated_floors":4},"geometry":{"type":"MultiPolygon","coordinates":[[[[11.974125,57.6897174],[11.9740059,57.689679],[11.9739701,57.6897106],[11.974089,57.6897495],[11.9739392,57.6898819],[11.9739734,57.6898934],[11.9739513,57.6899052],[11.9739475,57.6899185],[11.9739592,57.6899318],[11.9739827,57.6899391],[11.9738701,57.6900392],[11.9740202,57.6900873],[11.9743382,57.6898104],[11.9742436,57.68978],[11.9742691,57.6897673],[11.9742707,57.6897492],[11.9742467,57.689735],[11.97421,57.6897349],[11.9745089,57.6894705],[11.9744425,57.6894479],[11.974454,57.6894382],[11.974349,57.6894032],[11.9740282,57.6896862],[11.974125,57.6897174]],[[11.9741052,57.6897351],[11.9740899,57.6897486],[11.974125,57.6897174],[11.9741052,57.6897351]],[[11.9739825,57.6900752],[11.9739836,57.6900756],[11.9739836,57.6900756],[11.9739825,57.6900752]],[[11.9740496,57.6900266],[11.9740681,57.6900328],[11.9740681,57.6900328],[11.9740496,57.6900266]],[[11.9739951,57.6900793],[11.9739936,57.6900788],[11.9739936,57.6900788],[11.9739951,57.6900793]],[[11.9740069,57.6900302],[11.9740069,57.6900302],[11.9739704,57.6900363],[11.9740069,57.6900302]],[[11.9741825,57.6897592],[11.9741826,57.6897602],[11.9741817,57.6897599],[11.9741825,57.6897592]],[[11.9739434,57.6900627],[11.9739451,57.6900632],[11.9739434,57.6900627],[11.9739434,57.6900627]],[[11.9739447,57.6900631],[11.9739447,57.6900631],[11.973945,57.6900632],[11.9739447,57.6900631]],[[11.973945,57.6900632],[11.9739448,57.6900631],[11.9739448,57.6900631],[11.973945,57.6900632]],[[11.9739392,57.6900613],[11.9739392,57.6900613],[11.9739392,57.6900613],[11.9739392,57.6900613]],[[11.9739201,57.6900552],[11.9739201,57.6900552],[11.9739075,57.6900335],[11.9739201,57.6900552]],[[11.9739075,57.6900512],[11.9739075,57.6900512],[11.9739075,57.6900512],[11.9739075,57.6900512]]],[[[11.9739861,57.6901176],[11.9740202,57.6900873],[11.9739401,57.6900616],[11.9739063,57.690092],[11.9739861,57.6901176]]]]}},{"type":"Feature","id":"csb-chabo","properties":{"id":"csb-chabo","rhino_layer":"CSB chabo","kind":"building","footprint_m2":2274.1,"height_m":37.3,"estimated_floors":11},"geometry":{"type":"Polygon","coordinates":[[[11.976296,57.6915079],[11.9765913,57.6915831],[11.9762792,57.6919346],[11.9757067,57.6917889],[11.975585,57.6919261],[11.9764135,57.692137],[11.9769691,57.6915111],[11.9764177,57.6913707],[11.976296,57.6915079]]]}},{"type":"Feature","id":"edit","properties":{"id":"edit","rhino_layer":"Edit","kind":"building","footprint_m2":4623.4,"height_m":30.51,"estimated_floors":9},"geometry":{"type":"Polygon","coordinates":[[[11.9779377,57.6880097],[11.9780235,57.6880322],[11.9780173,57.688039],[11.9785914,57.6881897],[11.9786117,57.6882033],[11.9786428,57.6882032],[11.9792997,57.6883757],[11.979372,57.6882967],[11.9794157,57.6883081],[11.9798229,57.6878632],[11.9797852,57.6878533],[11.9798379,57.6877957],[11.9784338,57.6874252],[11.9783783,57.6874858],[11.9784096,57.687494],[11.9779377,57.6880097]],[[11.9790131,57.6879057],[11.9791063,57.6877548],[11.9794718,57.6878507],[11.9795147,57.6878038],[11.9791217,57.6876972],[11.9795912,57.6878204],[11.9792255,57.68822],[11.9788098,57.6881108],[11.9789252,57.6880063],[11.9790131,57.6879057]],[[11.9790576,57.6876522],[11.9790634,57.687651],[11.9790576,57.6876522],[11.9790576,57.6876522]],[[11.9790076,57.6876707],[11.9786586,57.6875756],[11.9790123,57.6876684],[11.9790076,57.6876707]],[[11.9790076,57.6876707],[11.9790027,57.6876734],[11.9790027,57.6876734],[11.9790076,57.6876707]],[[11.9789751,57.6876884],[11.978942,57.6877097],[11.978942,57.6877097],[11.9789751,57.6876884]],[[11.9786131,57.6876253],[11.9789398,57.6877111],[11.9788324,57.6877977],[11.9787352,57.6878974],[11.9786546,57.6880012],[11.9786184,57.6880606],[11.9782929,57.6879752],[11.9786131,57.6876253]],[[11.9785868,57.6881785],[11.9785874,57.6881806],[11.9785874,57.6881806],[11.9785868,57.6881785]]]}},{"type":"Feature","id":"elkrafteknik","properties":{"id":"elkrafteknik","rhino_layer":"Elkrafteknik","kind":"building","footprint_m2":1900.8,"height_m":13.16,"estimated_floors":4},"geometry":{"type":"Polygon","coordinates":[[[11.9793407,57.6872723],[11.9790946,57.6875423],[11.9797691,57.6877186],[11.9797774,57.6877095],[11.9797692,57.6877186],[11.9800813,57.6873759],[11.9794069,57.6871996],[11.9794069,57.6871996],[11.9793738,57.687236],[11.9793549,57.6872567],[11.979351,57.687261],[11.9793407,57.6872723]],[[11.9793407,57.6872723],[11.9793503,57.6872617],[11.9793501,57.6872619],[11.9793407,57.6872723]],[[11.9800204,57.6874428],[11.9799987,57.6874667],[11.9800152,57.6874486],[11.9800204,57.6874428]],[[11.9799056,57.6875688],[11.9799015,57.6875733],[11.9798909,57.6875849],[11.9799015,57.6875733],[11.9799056,57.6875688]],[[11.9798468,57.6876333],[11.9798353,57.687646],[11.9797229,57.6876166],[11.9798353,57.687646],[11.9798468,57.6876333]],[[11.980007,57.6873565],[11.980007,57.6873565],[11.9797441,57.6872878],[11.980007,57.6873565]],[[11.9798036,57.6874862],[11.9798477,57.6875014],[11.9798036,57.6874862],[11.9798036,57.6874862]],[[11.9798036,57.6874862],[11.9798036,57.6874862],[11.9797513,57.6874763],[11.9798036,57.6874862]],[[11.9793928,57.687215],[11.9794069,57.6871996],[11.9794069,57.6871996],[11.9793986,57.6872087],[11.9793928,57.687215]]]}},{"type":"Feature","id":"fysik-origo","properties":{"id":"fysik-origo","rhino_layer":"Fysik Origo","kind":"building","footprint_m2":6652.6,"height_m":34.44,"estimated_floors":10},"geometry":{"type":"MultiPolygon","coordinates":[[[[11.9748997,57.6900846],[11.9746746,57.6903962],[11.9750507,57.6904742],[11.9750087,57.6905487],[11.9757135,57.6906633],[11.9756833,57.6907041],[11.975834,57.6907347],[11.9758183,57.6907577],[11.9762256,57.6908696],[11.9762982,57.6907924],[11.9760249,57.6907193],[11.9765378,57.6900036],[11.9765005,57.6899958],[11.9765357,57.6899474],[11.9764701,57.6899332],[11.9764342,57.6899821],[11.9764707,57.6899323],[11.9762829,57.689894],[11.9763921,57.6897432],[11.9761752,57.6896723],[11.9761463,57.6896988],[11.9760288,57.68966],[11.9759623,57.6897282],[11.9759383,57.6897615],[11.97591,57.6898161],[11.9758809,57.6898123],[11.9758022,57.6899276],[11.9754982,57.6898615],[11.9753993,57.6899923],[11.9759427,57.6901099],[11.9756556,57.6905143],[11.9751021,57.6904245],[11.975289,57.6901667],[11.9750455,57.6901154],[11.9750665,57.6900914],[11.9749401,57.6900648],[11.9749221,57.6900893],[11.9748997,57.6900846]],[[11.9746746,57.6903962],[11.9746746,57.6903962],[11.9746746,57.6903962],[11.9746746,57.6903962]],[[11.9764342,57.6899821],[11.9764381,57.6899829],[11.9763822,57.6899713],[11.9763822,57.6899712],[11.9764342,57.6899821]],[[11.9759383,57.6897615],[11.9760546,57.6898186],[11.9760546,57.6898186],[11.9759383,57.6897615]],[[11.9763592,57.6900006],[11.9763602,57.6900008],[11.9764158,57.6900126],[11.9763592,57.6900006]],[[11.9761988,57.6900088],[11.9761956,57.690013],[11.9758194,57.6899313],[11.9761988,57.6900088]],[[11.9749407,57.6902968],[11.9749407,57.6902968],[11.9749407,57.6902968],[11.9749407,57.6902968]]],[[[11.9742825,57.6905528],[11.9743388,57.6905639],[11.9745078,57.6905972],[11.9745236,57.6905727],[11.9744726,57.690564],[11.9750249,57.6906578],[11.9750727,57.6905733],[11.9746616,57.6904923],[11.9748744,57.6905343],[11.9749075,57.6904805],[11.9746199,57.6904332],[11.974589,57.690478],[11.9746449,57.6903967],[11.974424,57.690352],[11.9742825,57.6905528]]],[[[11.9742825,57.6905528],[11.9743107,57.6905583],[11.9745078,57.6905972],[11.9744628,57.6905883],[11.9744796,57.6905917],[11.9742825,57.6905528]]],[[[11.9742727,57.6906315],[11.9742439,57.6906258],[11.9741325,57.6907897],[11.9743467,57.690831],[11.974459,57.6906686],[11.9744058,57.690658],[11.9742727,57.6906315]],[[11.9742727,57.6906315],[11.9742727,57.6906315],[11.9742727,57.6906315],[11.9742727,57.6906315]],[[11.9743793,57.6906527],[11.974365,57.6906499],[11.974365,57.6906499],[11.9743793,57.6906527]]]]}},{"type":"Feature","id":"gamla-matte","properties":{"id":"gamla-matte","rhino_layer":"Gamla Matte","kind":"building","footprint_m2":2346.7,"height_m":18.41,"estimated_floors":5},"geometry":{"type":"Polygon","coordinates":[[[11.981803,57.6852775],[11.981695,57.6856014],[11.9829632,57.6857227],[11.9830712,57.6853988],[11.981803,57.6852775]],[[11.9828628,57.6854819],[11.982824,57.6855985],[11.9826291,57.6855798],[11.9826679,57.6854633],[11.9828628,57.6854819]],[[11.982241,57.6856056],[11.9822779,57.6854949],[11.9824852,57.6855148],[11.9825316,57.6853753],[11.9824334,57.6856699],[11.9824483,57.6856254],[11.982241,57.6856056]],[[11.9821251,57.6854114],[11.9820862,57.6855279],[11.9818913,57.6855092],[11.9819301,57.6853927],[11.9821251,57.6854114]],[[11.9820184,57.6853717],[11.9819334,57.6853524],[11.9819334,57.6853524],[11.9820184,57.6853717]],[[11.9819208,57.6853305],[11.9819208,57.6853305],[11.9819339,57.6852909],[11.9819208,57.6853305]]]}},{"type":"Feature","id":"ha","properties":{"id":"ha","rhino_layer":"HA","kind":"building","footprint_m2":1179.0,"height_m":9.0,"estimated_floors":3},"geometry":{"type":"Polygon","coordinates":[[[11.9787124,57.6893279],[11.9787564,57.6893393],[11.9786975,57.6894046],[11.9786807,57.6894003],[11.9786572,57.6894263],[11.9786284,57.6894188],[11.9785829,57.6894672],[11.978589,57.6894688],[11.9785784,57.6894805],[11.9786026,57.6894868],[11.9785787,57.6895133],[11.9785965,57.689518],[11.9785373,57.6895837],[11.978463,57.6895645],[11.9783353,57.6897061],[11.9785812,57.6897697],[11.9785877,57.6897626],[11.9786493,57.6897785],[11.9787628,57.6896526],[11.9787904,57.6896597],[11.9788677,57.6895741],[11.9788401,57.689567],[11.9789234,57.6894746],[11.9789513,57.6894819],[11.979029,57.6893958],[11.9790011,57.6893886],[11.9791009,57.6892779],[11.9790397,57.6892621],[11.9790451,57.6892561],[11.9788278,57.6891999],[11.9787124,57.6893279]]]}},{"type":"Feature","id":"hb","properties":{"id":"hb","rhino_layer":"HB","kind":"building","footprint_m2":1466.5,"height_m":9.0,"estimated_floors":3},"geometry":{"type":"Polygon","coordinates":[[[11.9795106,57.6885683],[11.9794391,57.6886476],[11.9792923,57.6886096],[11.9791908,57.6887221],[11.9792178,57.688729],[11.9791478,57.6888066],[11.9791206,57.6887995],[11.979019,57.6889121],[11.9791647,57.6889498],[11.9790936,57.6890285],[11.9789468,57.6889904],[11.9788446,57.6891035],[11.9791247,57.6891765],[11.9792215,57.6890692],[11.9792522,57.6890771],[11.9793332,57.6889873],[11.9793018,57.6889792],[11.9793936,57.6888775],[11.9794247,57.6888855],[11.9795059,57.6887956],[11.9794765,57.688788],[11.9795676,57.6886871],[11.9795986,57.6886951],[11.9796795,57.6886054],[11.979651,57.688598],[11.979752,57.6884861],[11.9795456,57.6884337],[11.9795615,57.6884161],[11.9794874,57.6883969],[11.9794715,57.6884145],[11.9794577,57.6884109],[11.9793525,57.6885274],[11.9795106,57.6885683]]]}},{"type":"Feature","id":"hc","properties":{"id":"hc","rhino_layer":"HC","kind":"building","footprint_m2":1005.0,"height_m":12.0,"estimated_floors":3},"geometry":{"type":"Polygon","coordinates":[[[11.9798262,57.6879555],[11.9798893,57.6879718],[11.9798293,57.6880383],[11.9797852,57.6880269],[11.9796845,57.6881384],[11.9797282,57.6881497],[11.979668,57.6882165],[11.9796269,57.6882059],[11.9795246,57.6883191],[11.9797145,57.6883683],[11.9797215,57.6883605],[11.9797802,57.6883757],[11.9798685,57.6882778],[11.9798971,57.6882852],[11.9799727,57.6882015],[11.9799445,57.6881942],[11.9800297,57.6880999],[11.9800602,57.6881078],[11.9801349,57.6880249],[11.9801053,57.6880173],[11.9802068,57.6879048],[11.9801499,57.6878901],[11.9801562,57.687883],[11.9799417,57.6878275],[11.9798262,57.6879555]]]}},{"type":"Feature","id":"idelara","properties":{"id":"idelara","rhino_layer":"Idelara","kind":"building","footprint_m2":488.2,"height_m":9.96,"estimated_floors":3},"geometry":{"type":"Polygon","coordinates":[[[11.978808,57.6871282],[11.9787526,57.6871314],[11.978737,57.687149],[11.9786927,57.6871389],[11.9784736,57.6873764],[11.9787032,57.6874403],[11.9789227,57.6871984],[11.9788762,57.6871838],[11.9788918,57.6871662],[11.9788587,57.6871429],[11.978808,57.6871282]]]}},{"type":"Feature","id":"jsp","properties":{"id":"jsp","rhino_layer":"JSP","kind":"building","footprint_m2":2258.8,"height_m":28.2,"estimated_floors":8},"geometry":{"type":"Polygon","coordinates":[[[11.9779927,57.6850325],[11.9777655,57.6852842],[11.9777603,57.6852932],[11.9777714,57.6853106],[11.9780844,57.6853953],[11.9781043,57.6853973],[11.9781457,57.6854079],[11.9781641,57.6854109],[11.9781986,57.685403],[11.9783337,57.6853277],[11.9783337,57.6853277],[11.9782685,57.685364],[11.9784546,57.6853906],[11.9784269,57.6854474],[11.9784447,57.6854647],[11.9789449,57.6855293],[11.9789836,57.6855243],[11.9791691,57.6853206],[11.9791725,57.6853026],[11.9791527,57.6852893],[11.9786113,57.6851588],[11.9785749,57.6851693],[11.9785663,57.68518],[11.9784839,57.6853353],[11.9783986,57.6852916],[11.9784539,57.6852572],[11.978446,57.6852363],[11.9780471,57.685031],[11.9780292,57.6850268],[11.9779927,57.6850325]],[[11.9780844,57.6853953],[11.9780485,57.6853831],[11.9780485,57.6853831],[11.9780844,57.6853953]],[[11.9781457,57.6854079],[11.9781611,57.6853987],[11.9781611,57.6853987],[11.9781457,57.6854079]],[[11.9791527,57.6852893],[11.979144,57.6852993],[11.979144,57.6852993],[11.9791527,57.6852893]],[[11.9783421,57.685323],[11.978358,57.6853312],[11.9783337,57.6853277],[11.9783421,57.685323]]]}},{"type":"Feature","id":"kemi","properties":{"id":"kemi","rhino_layer":"Kemi","kind":"building","footprint_m2":5986.6,"height_m":44.41,"estimated_floors":13},"geometry":{"type":"Polygon","coordinates":[[[11.9760596,57.691245],[11.9760146,57.6912938],[11.9761977,57.6913449],[11.9762212,57.691319],[11.9762949,57.6913408],[11.9765347,57.6910811],[11.9766095,57.6911008],[11.9765694,57.6911442],[11.9768417,57.6912163],[11.9768818,57.6911728],[11.976922,57.6911835],[11.9768808,57.6912283],[11.9770656,57.6912772],[11.9771068,57.6912324],[11.9776067,57.6913646],[11.9776134,57.6913573],[11.9776574,57.6913687],[11.9777011,57.6913605],[11.9777352,57.6913261],[11.9777201,57.6912988],[11.9776774,57.6912879],[11.9777039,57.6912592],[11.9778895,57.6910487],[11.9779957,57.690924],[11.9769132,57.6906359],[11.9768197,57.690739],[11.9767651,57.6907248],[11.9767241,57.6907693],[11.9767872,57.6907006],[11.9766057,57.6906522],[11.97654,57.6907238],[11.9763941,57.6906854],[11.9759205,57.6912089],[11.9760596,57.691245]],[[11.9777039,57.6912592],[11.977157,57.6911146],[11.9771574,57.6911141],[11.9777039,57.6912592]],[[11.9767651,57.6907248],[11.976724,57.6907694],[11.976724,57.6907694],[11.9767651,57.6907248]],[[11.976863,57.6907812],[11.9777547,57.6910213],[11.9778358,57.6909345],[11.9777555,57.6910215],[11.976863,57.6907812]],[[11.976863,57.6907812],[11.9768661,57.6907778],[11.9769402,57.6906975],[11.976863,57.6907812]],[[11.9770618,57.6912205],[11.9770595,57.6912199],[11.9770595,57.6912199],[11.9770618,57.6912205]],[[11.9766327,57.6909749],[11.9770668,57.6910907],[11.9766319,57.6909757],[11.9766327,57.6909749]],[[11.9766311,57.6908093],[11.9766311,57.6908093],[11.9767035,57.6907914],[11.9766311,57.6908093]],[[11.976676,57.6908214],[11.9763055,57.6912232],[11.9762879,57.6912183],[11.9766583,57.6908167],[11.976676,57.6908214]],[[11.97656,57.6909472],[11.97656,57.6909472],[11.97656,57.6909472],[11.97656,57.6909472]],[[11.9766309,57.6908092],[11.9766585,57.6907792],[11.9766309,57.6908092],[11.9766309,57.6908092]],[[11.9765016,57.690775],[11.9764952,57.6907732],[11.9764952,57.6907732],[11.9765016,57.690775]]]}},{"type":"Feature","id":"kopparbunken","properties":{"id":"kopparbunken","rhino_layer":"Kopparbunken","kind":"building","footprint_m2":789.6,"height_m":21.73,"estimated_floors":6},"geometry":{"type":"Polygon","coordinates":[[[11.9800028,57.6874589],[11.980163,57.6875037],[11.9802473,57.6875719],[11.9802266,57.6875811],[11.9802321,57.6875847],[11.9802522,57.6875759],[11.9803112,57.6876236],[11.9804511,57.6876191],[11.9804541,57.6876337],[11.9804628,57.6876332],[11.9804598,57.6876188],[11.9805792,57.6876149],[11.9806418,57.6875477],[11.9806418,57.6875477],[11.9806634,57.6875528],[11.980667,57.6875536],[11.9806705,57.6875493],[11.9806457,57.6875435],[11.9806991,57.6874862],[11.9806274,57.6874282],[11.9806275,57.6874281],[11.9806427,57.6874227],[11.9806503,57.68742],[11.9806455,57.687416],[11.9806378,57.6874188],[11.9806226,57.6874242],[11.9806226,57.6874243],[11.9806226,57.6874243],[11.9805509,57.6873662],[11.980411,57.6873708],[11.9804547,57.6873689],[11.9804512,57.6873447],[11.980372,57.687348],[11.9803755,57.687372],[11.9802829,57.687375],[11.980235,57.6874264],[11.9802377,57.6874235],[11.9800803,57.6873791],[11.9800028,57.6874589]],[[11.9804515,57.6876212],[11.9804515,57.687621],[11.9804515,57.687621],[11.9804515,57.6876212]],[[11.9806564,57.6875511],[11.9806505,57.6875498],[11.9806505,57.6875498],[11.9806564,57.6875511]],[[11.9806336,57.687426],[11.9806333,57.6874261],[11.9806333,57.6874261],[11.9806336,57.687426]],[[11.9806226,57.6874243],[11.9806226,57.6874243],[11.9806226,57.6874243],[11.9806226,57.6874243]],[[11.9806546,57.6875507],[11.9806485,57.6875493],[11.9806546,57.6875507],[11.9806546,57.6875507]],[[11.9806454,57.6875486],[11.9806454,57.6875486],[11.9806419,57.6875477],[11.9806454,57.6875486]],[[11.9806436,57.6875482],[11.9806436,57.6875482],[11.9806419,57.6875477],[11.9806436,57.6875482]],[[11.9806224,57.68743],[11.9806224,57.68743],[11.9806458,57.6874471],[11.9806224,57.68743]],[[11.9806327,57.6874263],[11.9806327,57.6874263],[11.9806327,57.6874263],[11.9806327,57.6874263]],[[11.9805137,57.6875288],[11.9805287,57.6875212],[11.9805287,57.6875212],[11.9805137,57.6875288]],[[11.9805415,57.6874703],[11.9805362,57.6874609],[11.9805362,57.6874609],[11.9805415,57.6874703]],[[11.9804995,57.6875143],[11.9804995,57.6875143],[11.9804888,57.6875186],[11.9804995,57.6875143]],[[11.9805127,57.6874767],[11.9805063,57.6874716],[11.9805063,57.6874716],[11.9805127,57.6874767]],[[11.9804437,57.6875494],[11.9804437,57.6875494],[11.9804437,57.6875494],[11.9804437,57.6875494]],[[11.980496,57.6874697],[11.980496,57.6874697],[11.9804942,57.6874618],[11.980496,57.6874697]],[[11.980435,57.6875414],[11.9804197,57.6875419],[11.980435,57.6875414],[11.980435,57.6875414]],[[11.9804091,57.6875027],[11.9804075,57.6874886],[11.9804091,57.6875027],[11.9804091,57.6875027]],[[11.9803795,57.6875137],[11.9803795,57.6875137],[11.9803639,57.6875099],[11.9803795,57.6875137]],[[11.9804119,57.6874176],[11.9803943,57.6874181],[11.9804119,57.6874176],[11.9804119,57.6874176]],[[11.9804022,57.6873711],[11.9804023,57.6873711],[11.9803971,57.6873713],[11.9804022,57.6873711]]]}},{"type":"Feature","id":"karhus-entre","properties":{"id":"karhus-entre","rhino_layer":"Kårhus entre","kind":"building","footprint_m2":2541.7,"height_m":16.16,"estimated_floors":5},"geometry":{"type":"Polygon","coordinates":[[[11.9743202,57.6889023],[11.9740473,57.6888139],[11.9735307,57.689274],[11.9738055,57.689363],[11.9740289,57.6891644],[11.9742885,57.6892485],[11.9747922,57.6888038],[11.9742524,57.6886299],[11.9740993,57.6887655],[11.9743736,57.6888543],[11.9743202,57.6889023]]]}},{"type":"Feature","id":"karresturangen","properties":{"id":"karresturangen","rhino_layer":"Kårresturangen","kind":"building","footprint_m2":1172.6,"height_m":12.55,"estimated_floors":4},"geometry":{"type":"Polygon","coordinates":[[[11.9749269,57.6883016],[11.9749538,57.6882782],[11.9748201,57.6882341],[11.974811,57.6882421],[11.9747547,57.6882238],[11.9745481,57.6884055],[11.9746011,57.688423],[11.9745749,57.6884455],[11.9751919,57.6886453],[11.9754051,57.6884564],[11.9749269,57.6883016]],[[11.9747587,57.6882876],[11.9747438,57.6883004],[11.9748043,57.688248],[11.9747587,57.6882876]],[[11.9747041,57.6883352],[11.9746831,57.6883531],[11.9746831,57.6883531],[11.9747041,57.6883352]]]}},{"type":"Feature","id":"mc2","properties":{"id":"mc2","rhino_layer":"MC2","kind":"building","footprint_m2":5982.1,"height_m":42.63,"estimated_floors":12},"geometry":{"type":"Polygon","coordinates":[[[11.9742158,57.6911198],[11.9743856,57.6911727],[11.9742158,57.6911199],[11.9739902,57.6914406],[11.9744586,57.6915372],[11.9745097,57.6914669],[11.9749807,57.6915622],[11.9750276,57.6914952],[11.9754914,57.6915892],[11.9755288,57.6913861],[11.9756272,57.6912462],[11.9754202,57.6912043],[11.9753936,57.6912417],[11.9753528,57.6912335],[11.9753132,57.6912881],[11.9755836,57.6909059],[11.975163,57.6908191],[11.9751455,57.6908438],[11.9748783,57.6907896],[11.974811,57.6908847],[11.974854,57.6908232],[11.974648,57.6907815],[11.9745574,57.6909099],[11.9743881,57.6908756],[11.9742158,57.6911198]],[[11.9751455,57.6908438],[11.9748421,57.6910212],[11.9748421,57.6910212],[11.9751455,57.6908438]],[[11.9746449,57.6912537],[11.9746422,57.6912528],[11.9746422,57.6912528],[11.9746449,57.6912537]],[[11.9743922,57.69124],[11.9743922,57.69124],[11.9744072,57.6912169],[11.9743922,57.69124]]]}},{"type":"Feature","id":"maskinteknik","properties":{"id":"maskinteknik","rhino_layer":"Maskinteknik","kind":"building","footprint_m2":8325.6,"height_m":23.3,"estimated_floors":7},"geometry":{"type":"MultiPolygon","coordinates":[[[[11.97788,57.6895903],[11.9781076,57.6896488],[11.9781835,57.6896683],[11.9784746,57.6893435],[11.9784052,57.6893257],[11.9784688,57.6892554],[11.978258,57.6892009],[11.9785251,57.6892699],[11.9791197,57.6886105],[11.9788467,57.6885399],[11.9781892,57.6892701],[11.9781711,57.6892655],[11.97788,57.6895903]],[[11.9779179,57.6896],[11.9779179,57.6896],[11.9779179,57.6896],[11.9779179,57.6896]],[[11.9781076,57.6896488],[11.9781076,57.6896488],[11.9781076,57.6896488],[11.9781076,57.6896488]]],[[[11.9782496,57.6892022],[11.9784134,57.6890204],[11.9783034,57.688992],[11.9781399,57.6891732],[11.9782496,57.6892022]]],[[[11.9786377,57.6886207],[11.9785748,57.6886907],[11.9786856,57.6887185],[11.9787489,57.6886482],[11.9786377,57.6886207]]],[[[11.9775018,57.6885082],[11.9774181,57.6886019],[11.9778212,57.6887096],[11.9777012,57.6886788],[11.9773357,57.6890591],[11.977352,57.6890636],[11.9778086,57.6891891],[11.9779104,57.6890766],[11.9778053,57.6891936],[11.9780629,57.6892585],[11.9788156,57.688423],[11.9780979,57.6882381],[11.97773,57.6886338],[11.9779242,57.6886838],[11.9778863,57.688726],[11.9781616,57.6887969],[11.9778861,57.6887263],[11.9779235,57.6886846],[11.9777276,57.688634],[11.9777763,57.6885797],[11.9775018,57.6885082]],[[11.977352,57.6890636],[11.977352,57.6890636],[11.977352,57.6890636],[11.977352,57.6890636]],[[11.9781616,57.688797],[11.9781735,57.6887838],[11.9781616,57.688797],[11.9781616,57.688797]]],[[[11.9782837,57.6882378],[11.978262,57.6882386],[11.9782481,57.6882471],[11.9782495,57.6882587],[11.9782653,57.6882662],[11.978287,57.6882654],[11.9783009,57.6882569],[11.9782995,57.6882453],[11.9782837,57.6882378]]],[[[11.9782203,57.6882227],[11.9781985,57.6882246],[11.9781864,57.6882336],[11.9781899,57.6882453],[11.9782068,57.6882518],[11.9782286,57.6882499],[11.9782407,57.6882408],[11.9782372,57.6882292],[11.9782203,57.6882227]]],[[[11.9779253,57.6881853],[11.9778249,57.6881593],[11.9776304,57.6883724],[11.9779028,57.6884431],[11.9781382,57.688193],[11.9779616,57.6881454],[11.9779253,57.6881853]],[[11.9778769,57.6882386],[11.977852,57.6882322],[11.9778769,57.6882386],[11.9778769,57.6882386]]]]}},{"type":"Feature","id":"nya-matte","properties":{"id":"nya-matte","rhino_layer":"Nya Matte","kind":"building","footprint_m2":2540.6,"height_m":25.37,"estimated_floors":7},"geometry":{"type":"Polygon","coordinates":[[[11.9769497,57.6897067],[11.976606,57.6900848],[11.9772797,57.6902594],[11.9773547,57.6901762],[11.9767341,57.6900154],[11.9773554,57.690176],[11.9773929,57.6901337],[11.9774716,57.6901596],[11.9773187,57.690329],[11.9776155,57.6904059],[11.9778486,57.6901476],[11.9778486,57.6901476],[11.9778115,57.690138],[11.9777484,57.6901216],[11.9777373,57.6901188],[11.9775518,57.6900708],[11.9774947,57.690134],[11.9775518,57.6900708],[11.9774953,57.6901333],[11.9775385,57.6900855],[11.9774551,57.6900639],[11.9776186,57.6898799],[11.9769497,57.6897067]],[[11.9773187,57.690329],[11.9773728,57.6902691],[11.9773187,57.690329],[11.9773187,57.690329]],[[11.9778115,57.690138],[11.9778235,57.6901411],[11.9778235,57.6901411],[11.9778115,57.690138]],[[11.9775043,57.6903771],[11.9774672,57.6903675],[11.97743,57.6903579],[11.9774672,57.6903675],[11.9775043,57.6903771]],[[11.9772994,57.6898792],[11.9774085,57.6899073],[11.9772975,57.6900305],[11.9771884,57.6900023],[11.9772994,57.6898792]],[[11.9770456,57.6899654],[11.9769365,57.6899372],[11.9770475,57.6898141],[11.9771566,57.6898422],[11.9770456,57.6899654]]]}},{"type":"Feature","id":"p-hus","properties":{"id":"p-hus","rhino_layer":"P-hus","kind":"building","footprint_m2":2472.5,"height_m":13.0,"estimated_floors":4},"geometry":{"type":"Polygon","coordinates":[[[11.9789438,57.6858559],[11.9788503,57.6859712],[11.9784311,57.6864875],[11.9789698,57.68661],[11.9792499,57.6862649],[11.9793064,57.6859442],[11.9789438,57.6858559]],[[11.9788503,57.6859712],[11.9788503,57.6859712],[11.978862,57.6859568],[11.9788503,57.6859712]]]}},{"type":"Feature","id":"sb1","properties":{"id":"sb1","rhino_layer":"SB1","kind":"building","footprint_m2":3055.4,"height_m":32.34,"estimated_floors":9},"geometry":{"type":"Polygon","coordinates":[[[11.9762829,57.6875135],[11.9759124,57.6879692],[11.9767608,57.6881671],[11.9771314,57.6877113],[11.9762829,57.6875135]],[[11.9767264,57.687872],[11.9766952,57.6879104],[11.9767343,57.6878623],[11.9767264,57.687872]],[[11.9766306,57.6879899],[11.9762415,57.6878991],[11.9766306,57.6879898],[11.9766306,57.6879899]],[[11.9763386,57.6877797],[11.9763262,57.6877949],[11.9762843,57.6878464],[11.9763276,57.6877932],[11.9763386,57.6877797]]]}},{"type":"Feature","id":"sb2","properties":{"id":"sb2","rhino_layer":"SB2","kind":"building","footprint_m2":2642.1,"height_m":24.2,"estimated_floors":7},"geometry":{"type":"Polygon","coordinates":[[[11.9763441,57.6873179],[11.9762833,57.6873037],[11.9761978,57.6874079],[11.9764128,57.6874587],[11.9763677,57.687448],[11.9763076,57.6875194],[11.9771963,57.6877255],[11.9772533,57.687652],[11.9772636,57.6876544],[11.9774355,57.6874385],[11.9773725,57.6874241],[11.9774907,57.6872781],[11.9766205,57.6870761],[11.9765023,57.6872221],[11.9764327,57.6872062],[11.9763441,57.6873179]],[[11.9772922,57.6874058],[11.9772281,57.6873906],[11.9773701,57.6874236],[11.9772922,57.6874058]],[[11.9767432,57.687278],[11.9771274,57.6873672],[11.976958,57.6875748],[11.97658,57.6874867],[11.9767432,57.687278]]]}},{"type":"Feature","id":"sb3","properties":{"id":"sb3","rhino_layer":"SB3","kind":"building","footprint_m2":7388.4,"height_m":15.7,"estimated_floors":4},"geometry":{"type":"Polygon","coordinates":[[[11.9774077,57.6860476],[11.9772508,57.6862395],[11.9772946,57.6862496],[11.9771663,57.6864098],[11.9771253,57.6863955],[11.9771202,57.6863995],[11.9771267,57.6864015],[11.9769715,57.6865873],[11.9770346,57.6866027],[11.9769107,57.6867575],[11.9767822,57.6867277],[11.9765195,57.6870529],[11.9768278,57.6871243],[11.9770859,57.6868048],[11.9770681,57.6868007],[11.9771707,57.6868242],[11.9773078,57.6868572],[11.9778459,57.6869814],[11.9785422,57.6861183],[11.9775991,57.6859022],[11.9774702,57.6860629],[11.9774077,57.6860476]],[[11.9777193,57.6869519],[11.9780241,57.6865722],[11.9780242,57.6865723],[11.9777193,57.6869519]],[[11.9776971,57.6863738],[11.9780241,57.6865722],[11.9780241,57.6865722],[11.9776971,57.6863738]],[[11.9776127,57.6864775],[11.9776155,57.6864781],[11.9776127,57.6864775],[11.9776127,57.6864775]],[[11.9774501,57.686475],[11.9777312,57.6861269],[11.9771708,57.686824],[11.9774501,57.686475]],[[11.9774675,57.6860663],[11.9775608,57.6860877],[11.9775591,57.6860874],[11.9774675,57.6860663]],[[11.9772975,57.686246],[11.9774035,57.6862704],[11.9772975,57.686246],[11.9772975,57.686246]],[[11.9772768,57.6864372],[11.9770377,57.6865988],[11.9772768,57.6864372],[11.9772768,57.6864372]],[[11.9769088,57.6867599],[11.9769062,57.6867632],[11.9769062,57.6867632],[11.9769088,57.6867599]],[[11.9769062,57.6867632],[11.9769062,57.6867632],[11.9769062,57.6867632],[11.9769062,57.6867632]]]}},{"type":"Feature","id":"sspa","properties":{"id":"sspa","rhino_layer":"SSPA","kind":"building","footprint_m2":12360.8,"height_m":23.48,"estimated_floors":7},"geometry":{"type":"MultiPolygon","coordinates":[[[[11.9782906,57.6871143],[11.9784064,57.6871411],[11.9785728,57.6869352],[11.978457,57.6869084],[11.9782906,57.6871143]]],[[[11.9782627,57.6871488],[11.9780415,57.6874224],[11.9781573,57.6874493],[11.9783785,57.6871756],[11.9782627,57.6871488]]],[[[11.9776164,57.6879482],[11.9777322,57.687975],[11.9780904,57.6875319],[11.9779746,57.6875051],[11.9776164,57.6879482]]],[[[11.9768416,57.6885795],[11.9766939,57.6885461],[11.9765742,57.6886944],[11.9767234,57.6887289],[11.9765737,57.688695],[11.9762745,57.6890659],[11.976389,57.689093],[11.9763134,57.6891839],[11.9765498,57.6892387],[11.9766833,57.6892653],[11.9772375,57.6885744],[11.9771005,57.6885422],[11.9773138,57.6882727],[11.9774785,57.68831],[11.9777064,57.6880303],[11.977545,57.6879919],[11.9775849,57.6879425],[11.9775759,57.6879401],[11.97794,57.6874914],[11.9779482,57.687493],[11.9780078,57.6874193],[11.9779987,57.6874169],[11.9782287,57.6871351],[11.978236,57.6871369],[11.9782587,57.6871088],[11.9782495,57.6871059],[11.9786004,57.686686],[11.9783766,57.6866369],[11.9767235,57.6887289],[11.9768416,57.6885795]],[[11.9765498,57.6892387],[11.9769178,57.688773],[11.9769179,57.6887729],[11.9765498,57.6892387]]],[[[11.9768224,57.6882749],[11.9767563,57.6882596],[11.9765537,57.688512],[11.9767667,57.6882465],[11.9761103,57.6880917],[11.9755509,57.6887935],[11.9762075,57.6889435],[11.9765526,57.6885134],[11.9768416,57.6885795],[11.9771703,57.6881635],[11.9769523,57.688114],[11.9768224,57.6882749]]],[[[11.9772977,57.6885349],[11.9774431,57.6883561],[11.9772809,57.6883186],[11.9771362,57.6884977],[11.9772977,57.6885349]]],[[[11.976126,57.6891124],[11.9759743,57.6890774],[11.975812,57.6892788],[11.9760751,57.6893398],[11.9762488,57.6891256],[11.9761364,57.6890996],[11.976216,57.6890011],[11.9755177,57.6888352],[11.9754261,57.6889501],[11.976126,57.6891124]]]]}},{"type":"Feature","id":"teknikparken","properties":{"id":"teknikparken","rhino_layer":"Teknikparken","kind":"building","footprint_m2":4164.2,"height_m":18.6,"estimated_floors":5},"geometry":{"type":"Polygon","coordinates":[[[11.9788759,57.6835181],[11.9781228,57.6843403],[11.9779789,57.6843025],[11.9775108,57.6848204],[11.9778467,57.6849088],[11.9775107,57.6848205],[11.9770561,57.6853172],[11.9773947,57.6854061],[11.9780646,57.6846702],[11.9781023,57.6846557],[11.9781087,57.6846419],[11.9781026,57.6846287],[11.9784626,57.6842354],[11.9785013,57.6842208],[11.9785078,57.684207],[11.9785012,57.6841933],[11.9788624,57.6837986],[11.9788999,57.6837841],[11.9789064,57.6837704],[11.9789003,57.6837572],[11.9790721,57.6835696],[11.9788759,57.6835181]],[[11.9789891,57.683574],[11.9789891,57.683574],[11.9788454,57.683742],[11.9789891,57.683574]]]}},{"type":"Feature","id":"vasa-1","properties":{"id":"vasa-1","rhino_layer":"Vasa 1","kind":"building","footprint_m2":1828.9,"height_m":18.6,"estimated_floors":5},"geometry":{"type":"Polygon","coordinates":[[[11.974436,57.6926428],[11.973616,57.6935831],[11.9738244,57.6936365],[11.9738542,57.6936441],[11.9746773,57.6927031],[11.974436,57.6926428]],[[11.9737947,57.6936288],[11.9737861,57.6936266],[11.9737861,57.6936266],[11.9737947,57.6936288]]]}},{"type":"Feature","id":"vasa-10","properties":{"id":"vasa-10","rhino_layer":"Vasa 10","kind":"building","footprint_m2":706.0,"height_m":15.6,"estimated_floors":4},"geometry":{"type":"Polygon","coordinates":[[[11.9765225,57.6927311],[11.9763767,57.6928962],[11.9763468,57.6928885],[11.9763011,57.6929392],[11.9766636,57.6930331],[11.9767097,57.6929819],[11.9766791,57.6929742],[11.9768252,57.6928088],[11.9768539,57.6928161],[11.9768986,57.6927663],[11.9765368,57.6926733],[11.9764919,57.6927234],[11.9765225,57.6927311]]]}},{"type":"Feature","id":"vasa-11","properties":{"id":"vasa-11","rhino_layer":"Vasa 11","kind":"building","footprint_m2":3466.9,"height_m":38.76,"estimated_floors":11},"geometry":{"type":"MultiPolygon","coordinates":[[[[11.9768425,57.6921862],[11.9768022,57.6922321],[11.9768086,57.6922336],[11.9766707,57.6923905],[11.9766645,57.692389],[11.9765681,57.692507],[11.9767346,57.692549],[11.9767901,57.6925629],[11.9773094,57.6919718],[11.9771449,57.6919303],[11.9771174,57.6919234],[11.97709,57.6919165],[11.9770273,57.6919875],[11.9770194,57.6919855],[11.9768496,57.692188],[11.9768425,57.6921862]],[[11.9767346,57.692549],[11.9767288,57.6925475],[11.9767288,57.6925475],[11.9767346,57.692549]],[[11.9771174,57.6919234],[11.9771174,57.6919234],[11.9771174,57.6919234],[11.9771174,57.6919234]]],[[[11.9763633,57.6925607],[11.9764438,57.6924702],[11.9762739,57.6924267],[11.9761934,57.6925168],[11.9763633,57.6925607]]],[[[11.9802414,57.6868357],[11.9804057,57.6868673],[11.9806989,57.6864296],[11.9805346,57.6863981],[11.9802414,57.6868357]],[[11.980609,57.6864123],[11.980609,57.6864123],[11.9805803,57.6864068],[11.980609,57.6864123]]],[[[11.9806477,57.6862316],[11.980812,57.6862633],[11.981105,57.6858268],[11.9809407,57.6857952],[11.9806477,57.6862316]]],[[[11.9801385,57.6871123],[11.9799035,57.687051],[11.9798009,57.6871639],[11.9800359,57.6872251],[11.9801385,57.6871123]]],[[[11.9797295,57.6867021],[11.9797503,57.6867056],[11.979896,57.6867303],[11.9801322,57.6863293],[11.9799657,57.6863012],[11.9797295,57.6867021]],[[11.9797919,57.6867127],[11.979785,57.6867115],[11.979785,57.6867115],[11.9797919,57.6867127]],[[11.9801113,57.6863258],[11.9800731,57.6864296],[11.9800731,57.6864296],[11.9801113,57.6863258]]],[[[11.9803002,57.6857365],[11.980064,57.6861375],[11.9802305,57.6861656],[11.9804667,57.6857646],[11.9803002,57.6857365]]]]}},{"type":"Feature","id":"vasa-12","properties":{"id":"vasa-12","rhino_layer":"Vasa 12","kind":"building","footprint_m2":294.7,"height_m":7.0,"estimated_floors":2},"geometry":{"type":"Polygon","coordinates":[[[11.9760294,57.6930583],[11.9759303,57.6931727],[11.9762466,57.6932513],[11.9763512,57.6931382],[11.9760294,57.6930583]]]}},{"type":"Feature","id":"vasa-13","properties":{"id":"vasa-13","rhino_layer":"Vasa 13","kind":"building","footprint_m2":99.0,"height_m":10.69,"estimated_floors":3},"geometry":{"type":"Polygon","coordinates":[[[11.9740506,57.692343],[11.9739622,57.692443],[11.9740841,57.6924739],[11.9741725,57.6923739],[11.9740506,57.692343]],[[11.9740742,57.6923796],[11.9741115,57.6923585],[11.9741115,57.6923585],[11.9740742,57.6923796]],[[11.9740079,57.6924546],[11.9740379,57.6924418],[11.9740079,57.6924546],[11.9740079,57.6924546]]]}},{"type":"Feature","id":"vasa-15","properties":{"id":"vasa-15","rhino_layer":"Vasa 15","kind":"building","footprint_m2":1467.1,"height_m":23.2,"estimated_floors":7},"geometry":{"type":"Polygon","coordinates":[[[11.9776062,57.6920444],[11.9778146,57.6918002],[11.9770664,57.6916171],[11.976858,57.6918614],[11.9776062,57.6920444]]]}},{"type":"Feature","id":"vasa-2-3","properties":{"id":"vasa-2-3","rhino_layer":"Vasa 2-3","kind":"building","footprint_m2":3734.4,"height_m":18.6,"estimated_floors":5},"geometry":{"type":"Polygon","coordinates":[[[11.9746237,57.6932159],[11.9743077,57.6931324],[11.9742316,57.6932184],[11.9745494,57.6933011],[11.9741799,57.6937248],[11.9744167,57.6937874],[11.9745468,57.6936387],[11.9748708,57.6937225],[11.9754316,57.6930779],[11.975108,57.6929972],[11.9752382,57.6928483],[11.9749969,57.692788],[11.9746237,57.6932159]],[[11.9750585,57.6928034],[11.975056,57.6928028],[11.975056,57.6928028],[11.9750585,57.6928034]]]}},{"type":"Feature","id":"vasa-3","properties":{"id":"vasa-3","rhino_layer":"Vasa 3","kind":"building","footprint_m2":1825.7,"height_m":16.8,"estimated_floors":5},"geometry":{"type":"Polygon","coordinates":[[[11.975559,57.6929334],[11.9747412,57.6938712],[11.974978,57.6939338],[11.9758003,57.6929937],[11.97574,57.6929786],[11.975559,57.6929334]],[[11.97574,57.6929786],[11.9757405,57.6929787],[11.9757405,57.6929787],[11.97574,57.6929786]],[[11.97574,57.6929786],[11.9757395,57.6929785],[11.9757395,57.6929785],[11.97574,57.6929786]],[[11.9757701,57.6929861],[11.9757406,57.6929788],[11.9757406,57.6929788],[11.9757701,57.6929861]],[[11.9757394,57.6929785],[11.9757098,57.6929711],[11.9757394,57.6929785],[11.9757394,57.6929785]]]}},{"type":"Feature","id":"vasa-4","properties":{"id":"vasa-4","rhino_layer":"Vasa 4","kind":"building","footprint_m2":455.2,"height_m":19.6,"estimated_floors":6},"geometry":{"type":"Polygon","coordinates":[[[11.974521,57.6918252],[11.9743443,57.6920252],[11.9743793,57.6920341],[11.9746243,57.6920962],[11.974801,57.6918963],[11.9746146,57.691849],[11.974521,57.6918252]],[[11.9746146,57.691849],[11.9746136,57.6918487],[11.9746136,57.6918487],[11.9746146,57.691849]],[[11.9746993,57.6918705],[11.9746993,57.6918705],[11.974696,57.6918696],[11.9746993,57.6918705]],[[11.9744376,57.6920489],[11.9744376,57.6920489],[11.9744143,57.6920429],[11.9744376,57.6920489]]]}},{"type":"Feature","id":"vasa-5","properties":{"id":"vasa-5","rhino_layer":"Vasa 5","kind":"building","footprint_m2":485.5,"height_m":25.17,"estimated_floors":7},"geometry":{"type":"MultiPolygon","coordinates":[[[[11.975149,57.6919844],[11.9749723,57.6921844],[11.9750423,57.6922021],[11.9752523,57.6922554],[11.975429,57.6920555],[11.9753365,57.692032],[11.9754145,57.6920517],[11.9754224,57.6920447],[11.975353,57.6920041],[11.9752658,57.691982],[11.9752426,57.6920082],[11.975149,57.6919844]],[[11.9750423,57.6922021],[11.9750423,57.6922021],[11.9750423,57.6922021],[11.9750423,57.6922021]],[[11.9750423,57.6922021],[11.975065,57.6922079],[11.975065,57.6922079],[11.9750423,57.6922021]],[[11.9753224,57.6919964],[11.9753193,57.6919956],[11.9753193,57.6919956],[11.9753224,57.6919964]],[[11.975149,57.6919844],[11.9752426,57.6920082],[11.9752426,57.6920082],[11.975219,57.6920022],[11.975149,57.6919844]],[[11.975359,57.6920377],[11.9753301,57.6920304],[11.9753301,57.6920304],[11.975359,57.6920377]],[[11.975324,57.6920288],[11.9753228,57.6920285],[11.9753228,57.6920285],[11.975324,57.6920288]],[[11.9751473,57.6922288],[11.9751417,57.6921866],[11.9751473,57.6922288],[11.9751473,57.6922288]],[[11.975254,57.6920111],[11.975254,57.6920111],[11.9751748,57.6920522],[11.975254,57.6920111]]],[[[11.9745753,57.6923187],[11.9745899,57.6923023],[11.9745401,57.6923585],[11.9745753,57.6923187]]]]}},{"type":"Feature","id":"vasa-7","properties":{"id":"vasa-7","rhino_layer":"Vasa 7","kind":"building","footprint_m2":698.6,"height_m":33.18,"estimated_floors":9},"geometry":{"type":"Polygon","coordinates":[[[11.9739652,57.6922357],[11.9745235,57.6923773],[11.974561,57.6923349],[11.9746107,57.6923313],[11.974631,57.6923219],[11.9746436,57.6923068],[11.9746391,57.6922856],[11.9746175,57.6922711],[11.9746562,57.6922273],[11.9740978,57.6920857],[11.9739652,57.6922357]],[[11.9744337,57.6922856],[11.9745113,57.6922939],[11.9745113,57.6922939],[11.9744337,57.6922856]]]}},{"type":"Feature","id":"vasa-8","properties":{"id":"vasa-8","rhino_layer":"Vasa 8","kind":"building","footprint_m2":1703.1,"height_m":16.8,"estimated_floors":5},"geometry":{"type":"MultiPolygon","coordinates":[[[[11.9748497,57.692322],[11.974735,57.6924459],[11.9758919,57.6927452],[11.9760041,57.6926194],[11.9748497,57.692322]]],[[[11.9749981,57.6922677],[11.9749928,57.6922736],[11.9749746,57.692269],[11.9749488,57.6922979],[11.974975,57.6923046],[11.9749388,57.6923449],[11.9755122,57.6924921],[11.9755825,57.6924133],[11.9753429,57.692352],[11.975356,57.6923372],[11.9750588,57.6922611],[11.9750427,57.6922791],[11.9749981,57.6922677]]],[[[11.9755122,57.6924921],[11.9756882,57.6925344],[11.9757565,57.6924579],[11.9755825,57.6924133],[11.9755122,57.6924921]]]]}},{"type":"Feature","id":"vasa-9","properties":{"id":"vasa-9","rhino_layer":"Vasa 9","kind":"building","footprint_m2":599.4,"height_m":16.05,"estimated_floors":5},"geometry":{"type":"MultiPolygon","coordinates":[[[[11.9758,57.6923484],[11.9757486,57.6924068],[11.9761054,57.6925022],[11.9762746,57.6923096],[11.9759398,57.6922252],[11.9759094,57.6922175],[11.9758,57.6923484]],[[11.9759398,57.6922252],[11.9759398,57.6922252],[11.9759398,57.6922252],[11.9759398,57.6922252]],[[11.9759916,57.6922927],[11.9759916,57.6922927],[11.9759936,57.6922904],[11.9759916,57.6922927]],[[11.9759033,57.6923932],[11.9758901,57.6924081],[11.9759033,57.6923932],[11.9759033,57.6923932]],[[11.9759433,57.692237],[11.9759398,57.6922252],[11.9759398,57.6922252],[11.9759433,57.692237]]],[[[11.9757696,57.6923824],[11.9755673,57.6923315],[11.9755462,57.6923563],[11.9757486,57.6924069],[11.9757696,57.6923824]]]]}},{"type":"Feature","id":"karhus","properties":{"id":"karhus","rhino_layer":"kÅrhus","kind":"building","footprint_m2":3016.5,"height_m":25.58,"estimated_floors":7},"geometry":{"type":"MultiPolygon","coordinates":[[[[11.9781563,57.6913789],[11.9784506,57.6910601],[11.9781363,57.6909769],[11.9779058,57.6912268],[11.9781722,57.690938],[11.978016,57.6909019],[11.9777039,57.6912592],[11.9781563,57.6913789]]],[[[11.9748023,57.6888865],[11.9746841,57.6889888],[11.9749099,57.6890626],[11.9750266,57.6889599],[11.9750428,57.6889651],[11.9752426,57.6887886],[11.9750214,57.6887152],[11.9748184,57.6888908],[11.9748023,57.6888865]]],[[[11.9751919,57.6886453],[11.9752375,57.68866],[11.9752598,57.688627],[11.9752252,57.6886158],[11.9751919,57.6886453]]],[[[11.9750175,57.6887054],[11.9751088,57.6887357],[11.9752045,57.6886494],[11.9751139,57.68862],[11.9750175,57.6887054]]],[[[11.9742524,57.6886299],[11.974876,57.6888317],[11.9751102,57.688622],[11.9750372,57.6885986],[11.9748323,57.6887839],[11.9744427,57.6886566],[11.9745582,57.6886931],[11.974628,57.6886317],[11.9745138,57.6885944],[11.9746281,57.6886316],[11.9746966,57.6885699],[11.9745837,57.6885331],[11.9746525,57.6884728],[11.9745674,57.6884428],[11.9745749,57.6884455],[11.9746022,57.6884233],[11.9745224,57.6883995],[11.9742524,57.6886299]]],[[[11.9740724,57.6894184],[11.9742619,57.6894801],[11.974346,57.6894059],[11.9741557,57.6893445],[11.9740724,57.6894184]]],[[[11.9739541,57.689263],[11.9739406,57.6892748],[11.9739247,57.6892697],[11.9738714,57.689317],[11.9738703,57.6893531],[11.9740718,57.6894182],[11.9741551,57.6893443],[11.9742571,57.6892598],[11.9740642,57.6891981],[11.9740252,57.6892312],[11.9739541,57.689263]],[[11.9740405,57.6893072],[11.9740405,57.6893072],[11.9740167,57.6892707],[11.9740405,57.6893072]]],[[[11.9738053,57.689363],[11.9738141,57.6893552],[11.9738019,57.6893512],[11.9737931,57.689359],[11.9738053,57.689363]]],[[[11.9735423,57.6892778],[11.9735511,57.68927],[11.9735389,57.6892661],[11.9735301,57.6892738],[11.9735423,57.6892778]]]]}},{"type":"Feature","id":"lokal-kontor","properties":{"id":"lokal-kontor","rhino_layer":"lokal kontor","kind":"building","footprint_m2":2457.1,"height_m":23.23,"estimated_floors":7},"geometry":{"type":"MultiPolygon","coordinates":[[[[11.9774181,57.6886019],[11.9770604,57.6890001],[11.9772834,57.6890566],[11.9771677,57.6890273],[11.9771082,57.6890949],[11.9771833,57.6891145],[11.9770699,57.6890859],[11.9770444,57.6891137],[11.9770604,57.6890954],[11.9770465,57.6890919],[11.9769741,57.6891702],[11.9769892,57.6891742],[11.9768622,57.6893132],[11.9770584,57.6893641],[11.9772662,57.6891362],[11.9770584,57.6893641],[11.9775443,57.6894899],[11.9777498,57.6892622],[11.9774864,57.6891935],[11.9775569,57.6891199],[11.9773357,57.6890591],[11.9777007,57.6886787],[11.9774181,57.6886019]],[[11.9772834,57.6890566],[11.9773599,57.6889769],[11.9772924,57.6890472],[11.9772834,57.6890566]],[[11.9769758,57.689342],[11.9771833,57.6891145],[11.9771833,57.6891145],[11.9769758,57.689342]],[[11.977647,57.689376],[11.9776363,57.6893776],[11.9776363,57.6893776],[11.977647,57.689376]]],[[[11.9768976,57.6891563],[11.9769694,57.6891753],[11.9770538,57.6890841],[11.9769798,57.6890653],[11.9768976,57.6891563]]]]}},{"type":"Feature","id":"context","properties":{"id":"context","kind":"context"},"geometry":{"type":"MultiPolygon","coordinates":[[[[11.9833273,57.6811233],[11.9844544,57.6814574],[11.9847518,57.6811695],[11.9836247,57.6808355],[11.9833273,57.6811233]],[[11.983983,57.6813176],[11.9840258,57.6812762],[11.9838415,57.6812216],[11.9839431,57.6811233],[11.9841273,57.6811779],[11.9842662,57.6810435],[11.983983,57.6813176]],[[11.9842243,57.6812644],[11.9843313,57.6811608],[11.9845045,57.6812122],[11.9843976,57.6813157],[11.9842243,57.6812644]],[[11.9838489,57.6810178],[11.9837419,57.6811214],[11.9835687,57.68107],[11.9836756,57.6809665],[11.9838489,57.6810178]]],[[[11.9819565,57.6815387],[11.9820929,57.6815971],[11.9826332,57.6812346],[11.9824968,57.6811763],[11.9819565,57.6815387]]],[[[11.9796969,57.6825107],[11.980229,57.6827942],[11.9806083,57.6825899],[11.9807312,57.6826589],[11.9807698,57.6827381],[11.9807447,57.6827432],[11.9807478,57.6827476],[11.9807721,57.6827427],[11.9807991,57.6827981],[11.9809342,57.6828179],[11.9809283,57.6828323],[11.9809368,57.6828333],[11.9809427,57.6828192],[11.981058,57.6828361],[11.9811577,57.6827834],[11.981178,57.6827933],[11.981184,57.6827899],[11.981164,57.68278],[11.981249,57.682735],[11.9812162,57.6826677],[11.9812428,57.6826639],[11.9812405,57.6826594],[11.9812139,57.6826632],[11.9811811,57.6825959],[11.981046,57.682576],[11.9810885,57.6825817],[11.9810997,57.6825582],[11.9810228,57.6825477],[11.9810116,57.682571],[11.9809222,57.6825578],[11.9808225,57.6826106],[11.9808502,57.6825959],[11.980728,57.6825267],[11.9806816,57.6825504],[11.9807309,57.6825239],[11.9801988,57.6822404],[11.9796969,57.6825107]],[[11.9810375,57.6825748],[11.9810325,57.6825741],[11.9810375,57.6825747],[11.9810375,57.6825748]],[[11.9808162,57.6826139],[11.9808059,57.6826194],[11.9808162,57.6826139],[11.9808162,57.6826139]]],[[[11.9812079,57.6820402],[11.9813444,57.6820986],[11.9818856,57.681735],[11.9817491,57.6816767],[11.9812079,57.6820402]]],[[[11.9814608,57.6813487],[11.9816014,57.6814042],[11.9820666,57.6810655],[11.981926,57.6810101],[11.9814608,57.6813487]]],[[[11.9798958,57.6831769],[11.9799304,57.6831952],[11.9798331,57.683248],[11.9798006,57.6832308],[11.9796356,57.6833203],[11.9797856,57.6833997],[11.9797969,57.6833936],[11.9798433,57.6834181],[11.9799859,57.6833407],[11.9800085,57.6833526],[11.9801305,57.6832864],[11.9801082,57.6832747],[11.9802457,57.6832001],[11.9802698,57.6832129],[11.9803904,57.6831474],[11.980367,57.683135],[11.9805309,57.6830461],[11.9804859,57.6830223],[11.9804961,57.6830168],[11.9803266,57.6829271],[11.9801402,57.6830283],[11.98019,57.6830547],[11.9800932,57.6831072],[11.9800583,57.6830888],[11.9798958,57.6831769]]],[[[11.9809438,57.6822842],[11.9807584,57.6821856],[11.9805933,57.6822747],[11.9807787,57.6823733],[11.9809438,57.6822842]]],[[[11.980804,57.6818253],[11.9809446,57.6818807],[11.9814097,57.6815421],[11.9812691,57.6814867],[11.980804,57.6818253]]],[[[11.9783203,57.6827531],[11.978388,57.6827892],[11.978378,57.6827946],[11.9788304,57.6830365],[11.9788414,57.6830529],[11.9788709,57.6830581],[11.9793887,57.6833349],[11.9795047,57.6832727],[11.9795391,57.6832911],[11.9801927,57.6829403],[11.980163,57.6829245],[11.9802475,57.6828791],[11.979142,57.6822856],[11.979053,57.6823334],[11.9790777,57.6823466],[11.9783203,57.6827531]],[[11.9791783,57.6829589],[11.9794006,57.6828406],[11.9795013,57.682775],[11.9795799,57.6827139],[11.9798679,57.6828679],[11.9799368,57.6828309],[11.9796292,57.682662],[11.9799992,57.6828598],[11.9794123,57.6831748],[11.9790846,57.6829996],[11.9791783,57.6829589]],[[11.9795372,57.6826172],[11.9792641,57.6824669],[11.9795429,57.6826159],[11.9795372,57.6826172]],[[11.9792948,57.6827072],[11.9790724,57.6828255],[11.9789338,57.682919],[11.9786773,57.6827818],[11.9791911,57.6825061],[11.9794486,57.6826438],[11.9792948,57.6827072]]],[[[11.9788002,57.6839172],[11.9786841,57.6838558],[11.9785193,57.6839452],[11.9787405,57.6840626],[11.9788967,57.6839778],[11.9789209,57.6839906],[11.9790517,57.6839196],[11.9790269,57.6839065],[11.979175,57.6838261],[11.9791997,57.6838391],[11.9793307,57.683768],[11.9793075,57.6837557],[11.9794544,57.683676],[11.979479,57.683689],[11.9796096,57.683618],[11.9795871,57.6836061],[11.9797501,57.6835176],[11.9795864,57.6834324],[11.9796121,57.6834185],[11.9795535,57.6833875],[11.9795279,57.6834014],[11.979517,57.6833956],[11.9793472,57.6834877],[11.9794721,57.6835538],[11.9793567,57.6836164],[11.9792407,57.6835551],[11.9790768,57.683644],[11.9790982,57.6836553],[11.9789852,57.6837165],[11.9789637,57.6837052],[11.9787997,57.6837941],[11.9789148,57.683855],[11.9788002,57.6839172]]],[[[11.9775445,57.685223],[11.9777777,57.6853465],[11.9780197,57.6852153],[11.9777866,57.6850918],[11.9775445,57.685223]]],[[[11.9779276,57.6845502],[11.978111,57.6844507],[11.9781328,57.6844622],[11.9782575,57.6843946],[11.9782357,57.684383],[11.9783702,57.68431],[11.9783923,57.6843217],[11.9785176,57.6842537],[11.9784956,57.684242],[11.9786568,57.6841545],[11.9786084,57.6841289],[11.978617,57.6841243],[11.9784453,57.6840335],[11.9782589,57.6841346],[11.9782938,57.6841531],[11.9781986,57.6842047],[11.9781853,57.6841977],[11.9781474,57.6842182],[11.9781247,57.6842062],[11.9780524,57.6842441],[11.9780573,57.6842466],[11.9780402,57.684256],[11.9780593,57.6842661],[11.9780207,57.684287],[11.9780348,57.6842945],[11.9779391,57.6843465],[11.9778804,57.6843154],[11.9776741,57.6844274],[11.9778686,57.6845302],[11.977879,57.6845245],[11.9779276,57.6845502]]],[[[11.9779008,57.6839334],[11.9781167,57.6840474],[11.9790768,57.6835261],[11.978861,57.683412],[11.9779008,57.6839334]]],[[[11.9779008,57.6839334],[11.9781613,57.683792],[11.9780743,57.6837461],[11.9778105,57.6838893],[11.9778967,57.6839357],[11.9779008,57.6839334]]],[[[11.9797046,57.6813977],[11.9801406,57.6816067],[11.9806136,57.6813286],[11.9808603,57.6810348],[11.9805705,57.6808885],[11.9797046,57.6813977]],[[11.9804124,57.6809815],[11.9804298,57.6809899],[11.9804472,57.6809984],[11.9804124,57.6809815]]],[[[11.9770007,57.6850327],[11.9771461,57.6851091],[11.977031,57.6851715],[11.9771189,57.685218],[11.9770509,57.685255],[11.9770877,57.6852744],[11.9768135,57.6854205],[11.9770537,57.6855498],[11.9773418,57.6853961],[11.9773127,57.6853805],[11.9775629,57.6852444],[11.9775333,57.6852288],[11.9777675,57.6851022],[11.9775729,57.6849999],[11.9773396,57.6851267],[11.9778861,57.6848295],[11.9777155,57.6847394],[11.9771522,57.6850457],[11.9770627,57.6849987],[11.9770007,57.6850327]],[[11.9772059,57.6850766],[11.977206,57.6850766],[11.97716,57.6851016],[11.9772059,57.6850766]]],[[[11.9797999,57.6801773],[11.9800346,57.680304],[11.9801007,57.6803325],[11.9801381,57.6803311],[11.9802278,57.6803063],[11.9803878,57.6803636],[11.9803274,57.6804126],[11.9803338,57.680432],[11.9807872,57.6805832],[11.9808257,57.6805751],[11.9811161,57.6804132],[11.981118,57.6803958],[11.9811095,57.6803884],[11.9806758,57.6801713],[11.9806351,57.6801749],[11.9806205,57.6801836],[11.9804489,57.6803163],[11.9803945,57.6802602],[11.9804676,57.6802372],[11.9804728,57.680216],[11.9802189,57.6799528],[11.9802045,57.6799457],[11.9801714,57.6799443],[11.9801511,57.6799512],[11.9797998,57.6801438],[11.9797859,57.6801605],[11.9797999,57.6801773]],[[11.9803222,57.6802802],[11.9803322,57.6802906],[11.9803113,57.6802832],[11.9803222,57.6802802]]],[[[11.9768933,57.6835388],[11.9770702,57.6836308],[11.9769784,57.6835831],[11.9768813,57.6836368],[11.9769406,57.6836683],[11.9768505,57.6836216],[11.9768096,57.6836436],[11.9768358,57.683629],[11.9768247,57.6836233],[11.9768363,57.6836171],[11.9767776,57.6835866],[11.976645,57.6836585],[11.9767015,57.6836889],[11.9767091,57.6836849],[11.9767209,57.6836913],[11.976517,57.6838009],[11.9770559,57.684086],[11.9773877,57.683906],[11.9771797,57.6837955],[11.9772909,57.6837381],[11.9774873,57.6838471],[11.9776515,57.6837582],[11.9774815,57.6838507],[11.9776862,57.6839567],[11.978902,57.6832961],[11.9783343,57.682997],[11.9777477,57.6833079],[11.9779013,57.6833888],[11.97784,57.6834222],[11.9780578,57.6835369],[11.9778396,57.6834224],[11.9779001,57.6833894],[11.9777453,57.6833077],[11.9778241,57.6832647],[11.9776074,57.6831496],[11.9768933,57.6835388]],[[11.9774718,57.6832237],[11.9777882,57.6833954],[11.9776933,57.6833455],[11.9771182,57.6836423],[11.9776929,57.6833453],[11.9776591,57.6833265],[11.9773035,57.6835103],[11.977659,57.6833265],[11.9774718,57.6832237]],[[11.9781191,57.6835035],[11.978262,57.6834257],[11.978062,57.6835346],[11.9781191,57.6835035]],[[11.9781279,57.6832887],[11.9785016,57.6830852],[11.9781279,57.6832887],[11.9781279,57.6832887]]],[[[11.9785128,57.6835078],[11.9786008,57.6835533],[11.9787032,57.6834977],[11.9786146,57.6834524],[11.9785128,57.6835078]]],[[[11.9745211,57.6855289],[11.9746636,57.6856089],[11.9747014,57.6855885],[11.9747579,57.6856219],[11.9751415,57.6854175],[11.9752003,57.6854491],[11.9751362,57.6854832],[11.9753504,57.6855985],[11.9754146,57.6855643],[11.9754463,57.6855814],[11.9753802,57.6856166],[11.9755256,57.6856948],[11.9755917,57.6856596],[11.975985,57.6858711],[11.9759957,57.6858654],[11.9760306,57.6858838],[11.9760768,57.6858836],[11.9761299,57.6858569],[11.976132,57.6858285],[11.9760981,57.6858108],[11.9761405,57.6857882],[11.9764964,57.6859797],[11.9769671,57.6857288],[11.9767199,57.6855958],[11.9763511,57.6857924],[11.9767772,57.6855652],[11.9766513,57.685504],[11.9764782,57.6856013],[11.9766187,57.6855214],[11.975768,57.6850616],[11.9756174,57.685143],[11.9755743,57.6851201],[11.9755084,57.6851552],[11.9756097,57.685101],[11.9754671,57.6850239],[11.9753618,57.6850802],[11.9752469,57.6850187],[11.9744831,57.6854323],[11.9745931,57.6854905],[11.9745211,57.6855289]],[[11.9761405,57.6857882],[11.9757102,57.6855568],[11.9756868,57.6855435],[11.9757192,57.6855609],[11.9761405,57.6857882]],[[11.9761405,57.6857882],[11.9764431,57.685621],[11.9764619,57.6856104],[11.9762423,57.6857339],[11.9761405,57.6857882]],[[11.9756329,57.6851904],[11.976332,57.6855718],[11.9764611,57.6855037],[11.9763326,57.6855722],[11.9756329,57.6851904]],[[11.9756329,57.6851904],[11.9756378,57.6851877],[11.9757564,57.6851245],[11.9756329,57.6851904]],[[11.9755563,57.6856406],[11.9755545,57.6856396],[11.9755545,57.6856396],[11.9755563,57.6856406]],[[11.9752982,57.6853339],[11.9756392,57.6855186],[11.975297,57.6853346],[11.9752982,57.6853339]],[[11.9748252,57.6855047],[11.9754178,57.6851887],[11.9754317,57.6851962],[11.9748389,57.6855123],[11.9748252,57.6855047]],[[11.9752897,57.6851193],[11.9752949,57.6851221],[11.9752896,57.6851193],[11.9752897,57.6851193]]],[[[11.9793755,57.680195],[11.980105,57.6798035],[11.9804528,57.6796143],[11.9804973,57.6796071],[11.9805117,57.6795952],[11.9805138,57.6795816],[11.9810916,57.6792716],[11.981137,57.6792644],[11.9811514,57.6792526],[11.9811534,57.6792384],[11.9817331,57.6789273],[11.9817773,57.67892],[11.9817917,57.6789082],[11.9817939,57.6788947],[11.9820695,57.6787468],[11.9819156,57.6786645],[11.9807067,57.6793122],[11.9805933,57.6792515],[11.9798741,57.679637],[11.9798382,57.6796607],[11.9801039,57.679803],[11.9798381,57.6796608],[11.9791086,57.6800523],[11.9793755,57.680195]]],[[[11.9801056,57.6810216],[11.9804506,57.6808181],[11.9796485,57.6804278],[11.9793034,57.6806314],[11.9801056,57.6810216]]],[[[11.9777844,57.683982],[11.9773131,57.6842391],[11.9775533,57.6843654],[11.9780245,57.6841083],[11.9779696,57.6840794],[11.9780721,57.6840239],[11.9779014,57.6839337],[11.9777987,57.6839895],[11.9777844,57.683982]]],[[[11.976706,57.6829904],[11.9769396,57.6831029],[11.97682,57.6830457],[11.9766173,57.6831654],[11.9768952,57.6832992],[11.9766165,57.6831659],[11.9761098,57.6834652],[11.9762019,57.6835107],[11.9760755,57.6835836],[11.9763765,57.6837247],[11.9773174,57.6831666],[11.9772071,57.6831123],[11.9775714,57.6828941],[11.9777048,57.682958],[11.978089,57.6827326],[11.9779594,57.6826684],[11.978027,57.6826285],[11.9780199,57.6826247],[11.9786349,57.682263],[11.9786416,57.6822659],[11.9787425,57.6822064],[11.9787353,57.6822026],[11.9791228,57.6819756],[11.9791286,57.6819786],[11.979167,57.681956],[11.9791601,57.6819516],[11.9797451,57.6816149],[11.979563,57.6815297],[11.9775015,57.682766],[11.9773249,57.6826815],[11.9771051,57.6828113],[11.9770517,57.6827854],[11.9767065,57.6829901],[11.9770695,57.6827748],[11.9765416,57.6825148],[11.9755893,57.6830823],[11.9761202,57.6833377],[11.976706,57.6829904]]],[[[11.9792873,57.6820121],[11.9795689,57.681846],[11.9794755,57.6818005],[11.9791939,57.6819666],[11.9792873,57.6820121]]],[[[11.9770534,57.6819974],[11.9764281,57.6823647],[11.9771117,57.6826986],[11.9777371,57.6823313],[11.9771733,57.6820559],[11.97779,57.6823559],[11.9778882,57.6822963],[11.9778966,57.6823003],[11.9781893,57.6821257],[11.9781384,57.6821011],[11.9783382,57.6819834],[11.9778037,57.6817232],[11.9782404,57.6814654],[11.9782262,57.6814585],[11.9783089,57.6814985],[11.9784188,57.6815534],[11.9788532,57.681764],[11.9800323,57.6810674],[11.9792699,57.6806999],[11.9790512,57.6808297],[11.9790012,57.6808044],[11.978996,57.6808068],[11.9787371,57.6809589],[11.9787725,57.680976],[11.9785545,57.6811055],[11.9785243,57.6810849],[11.978517,57.6810878],[11.9785221,57.6810908],[11.9782632,57.6812398],[11.9783137,57.6812653],[11.9781031,57.6813904],[11.9779994,57.68134],[11.9775549,57.6816023],[11.9776362,57.6816419],[11.9774367,57.6817595],[11.9773803,57.6817324],[11.9772291,57.6818229],[11.9771803,57.6817988],[11.9770365,57.6818827],[11.9771731,57.6819501],[11.9770734,57.6820071],[11.9770534,57.6819974]],[[11.9787511,57.6817142],[11.9792684,57.6814075],[11.9792685,57.6814076],[11.9787511,57.6817142]],[[11.9785328,57.6813654],[11.9792596,57.6809354],[11.9783092,57.6814983],[11.9785328,57.6813654]],[[11.9780735,57.6820699],[11.978022,57.6820445],[11.9781364,57.6821002],[11.9780735,57.6820699]],[[11.9788698,57.6810178],[11.9787774,57.6809732],[11.9787774,57.6809732],[11.9788698,57.6810178]],[[11.9776553,57.6821721],[11.9773507,57.6820234],[11.9776309,57.6818541],[11.9779407,57.6820049],[11.9776553,57.6821721]],[[11.9780999,57.6813923],[11.9780954,57.681395],[11.9780954,57.681395],[11.9780999,57.6813923]]],[[[11.9784764,57.6830286],[11.9784655,57.683038],[11.9784705,57.6830495],[11.9784881,57.6830554],[11.9785096,57.6830527],[11.9785206,57.6830433],[11.9785156,57.6830318],[11.9784979,57.6830259],[11.9784764,57.6830286]]],[[[11.9791467,57.6819944],[11.9787725,57.6822152],[11.9788659,57.6822606],[11.9792401,57.6820399],[11.9791467,57.6819944]]],[[[11.9784336,57.6830023],[11.9784182,57.6830106],[11.9784184,57.6830218],[11.978434,57.6830301],[11.9784549,57.68303],[11.9784703,57.6830217],[11.9784702,57.6830104],[11.9784546,57.6830022],[11.9784336,57.6830023]]],[[[11.977811,57.6830432],[11.9780261,57.6831573],[11.9783996,57.6829613],[11.9782612,57.6828857],[11.9782028,57.6829172],[11.9781234,57.6828752],[11.977811,57.6830432]]],[[[11.9786594,57.6822819],[11.9780534,57.6826393],[11.9781468,57.6826848],[11.9787528,57.6823273],[11.9786594,57.6822819]]],[[[11.9758094,57.6844869],[11.9763417,57.6847686],[11.9764629,57.6847028],[11.9759729,57.6844435],[11.9764636,57.6847027],[11.9765246,57.6846692],[11.9765835,57.6847073],[11.9763366,57.6848413],[11.9765713,57.6849653],[11.9769475,57.6847611],[11.9767129,57.6846371],[11.976622,57.6846864],[11.9766914,57.6846488],[11.9766255,57.6846139],[11.9768912,57.6844681],[11.9763626,57.6841885],[11.9758094,57.6844869]],[[11.9766758,57.6844577],[11.9764965,57.684555],[11.9764103,57.6845095],[11.9765896,57.6844121],[11.9766758,57.6844577]],[[11.9763904,57.684307],[11.9764767,57.6843525],[11.9762974,57.6844499],[11.9762112,57.6844044],[11.9763904,57.684307]]],[[[11.9749019,57.6864128],[11.9749071,57.6864156],[11.9746906,57.6865355],[11.9746849,57.6865326],[11.9746212,57.6865679],[11.9746263,57.6865705],[11.9744086,57.6866911],[11.9744036,57.6866886],[11.9742467,57.6867807],[11.974423,57.686872],[11.9752434,57.6864174],[11.9750692,57.6863272],[11.9749019,57.6864128]]],[[[11.9775126,57.6829319],[11.9772677,57.6830764],[11.9773981,57.6831396],[11.9776435,57.6829955],[11.9775126,57.6829319]]],[[[11.9741613,57.6872468],[11.974137,57.6872342],[11.9741222,57.6872424],[11.974375,57.6871029],[11.9743976,57.6871148],[11.97447,57.6870753],[11.9741837,57.6869248],[11.974111,57.6869645],[11.9741353,57.6869771],[11.9741503,57.6869687],[11.9738978,57.6871081],[11.9738741,57.6870957],[11.9738004,57.6871357],[11.9740868,57.6872872],[11.9741613,57.6872468]]],[[[11.9737334,57.686053],[11.9743903,57.6863959],[11.9752933,57.6858996],[11.9748562,57.6856714],[11.9746583,57.6857802],[11.9748924,57.6859024],[11.9743852,57.6861812],[11.9739313,57.6859443],[11.9737334,57.686053]]],[[[11.9740873,57.6867883],[11.9742181,57.6867165],[11.9740836,57.686646],[11.9739531,57.6867173],[11.9740873,57.6867883]]],[[[11.9733086,57.6872926],[11.9735606,57.6874216],[11.9737278,57.6873327],[11.9734714,57.6872014],[11.9733086,57.6872926]]],[[[11.9735985,57.6865363],[11.9738786,57.6866882],[11.9741548,57.6865353],[11.9738647,57.686385],[11.973766,57.6864436],[11.9735985,57.6865363]]],[[[11.972799,57.6863006],[11.9726157,57.6863981],[11.97353,57.6868814],[11.9737121,57.6867816],[11.972799,57.6863006]]],[[[11.9759413,57.6834836],[11.9758189,57.6834242],[11.9755438,57.6835868],[11.9757561,57.68369],[11.9760496,57.6835173],[11.9759589,57.6834732],[11.9760935,57.6833938],[11.9755328,57.683116],[11.9753767,57.683209],[11.9759413,57.6834836]]],[[[11.97106,57.6873798],[11.9717972,57.6869742],[11.9716737,57.6870422],[11.9719246,57.6871754],[11.9713195,57.6875125],[11.9715059,57.6876127],[11.9717186,57.6874945],[11.9719746,57.6876298],[11.9728939,57.6871167],[11.9726363,57.6869844],[11.9728493,57.6868659],[11.9726573,57.6867671],[11.9720462,57.6871076],[11.9717975,57.686974],[11.9718386,57.6869514],[11.9718336,57.6869488],[11.972406,57.6866316],[11.9722141,57.6865327],[11.9708713,57.6872809],[11.97106,57.6873798]]],[[[11.9731016,57.6870019],[11.9717624,57.6877481],[11.9719487,57.6878483],[11.9732936,57.6871007],[11.9731016,57.6870019]]],[[[11.9734723,57.6864337],[11.9734374,57.6864535],[11.9735984,57.6865364],[11.973633,57.6865169],[11.9734723,57.6864337]]],[[[11.972928,57.6863058],[11.9728694,57.6863377],[11.9733233,57.6865762],[11.9734374,57.6865138],[11.9732476,57.6864143],[11.9732689,57.6864026],[11.9730335,57.6862792],[11.9730074,57.6862934],[11.9729722,57.6862749],[11.9729635,57.6862796],[11.9729491,57.6862721],[11.9729073,57.6862949],[11.972928,57.6863058]]],[[[11.9733233,57.6865762],[11.9734644,57.6866466],[11.9735752,57.686586],[11.9734374,57.6865138],[11.9733233,57.6865762]]],[[[11.9729238,57.6850533],[11.9729281,57.685056],[11.9729237,57.6850533],[11.9725169,57.6853179],[11.9729019,57.6854902],[11.9729927,57.6854325],[11.9733809,57.6856042],[11.9734656,57.6855489],[11.9738479,57.685718],[11.9740057,57.6855323],[11.9741831,57.6854169],[11.9740125,57.6853415],[11.9739648,57.6853722],[11.9739311,57.6853574],[11.9738607,57.6854023],[11.974347,57.6850872],[11.9740013,57.6849323],[11.9739699,57.6849527],[11.9737497,57.6848553],[11.9737065,57.6848828],[11.9735367,57.6848078],[11.9733736,57.6849136],[11.973234,57.6848519],[11.9729238,57.6850533]]],[[[11.9732857,57.6860329],[11.9729979,57.6861916],[11.97322,57.6863072],[11.9735078,57.6861485],[11.9734339,57.6861101],[11.9734963,57.6861425],[11.9735081,57.6861372],[11.9734668,57.6860868],[11.9733976,57.6860508],[11.9733599,57.6860716],[11.9732857,57.6860329]]],[[[11.9741541,57.6828417],[11.9733875,57.6831875],[11.9735943,57.6833196],[11.9739254,57.6831702],[11.9741204,57.6832946],[11.9748642,57.6829613],[11.9749276,57.6830018],[11.9752756,57.6828438],[11.9752206,57.682809],[11.974915,57.682949],[11.9746231,57.6827611],[11.9747104,57.6828156],[11.9748134,57.6827696],[11.9747279,57.6827145],[11.9748136,57.6827695],[11.9749156,57.682723],[11.974831,57.6826686],[11.9749324,57.6826235],[11.9748754,57.6825842],[11.9748184,57.6825448],[11.9744591,57.682703],[11.9742324,57.6828049],[11.9744386,57.6829363],[11.9743591,57.6829725],[11.9741541,57.6828417]],[[11.9744591,57.682703],[11.9745805,57.6827801],[11.9746033,57.6827947],[11.9744591,57.682703]]],[[[11.9748195,57.6825456],[11.9752803,57.6828425],[11.9751376,57.6829067],[11.9752058,57.6829512],[11.9753483,57.6828861],[11.9752803,57.6828425],[11.9753389,57.6828799],[11.9756545,57.6827381],[11.9752953,57.6825088],[11.9753348,57.6824913],[11.9752348,57.6824266],[11.9752215,57.6824325],[11.9751792,57.6824054],[11.9748741,57.6825417],[11.9749137,57.6825674],[11.9748535,57.6825316],[11.9748195,57.6825456]],[[11.9752115,57.6824369],[11.9751445,57.6824665],[11.9751227,57.6824761],[11.9752115,57.6824369]]],[[[11.9753389,57.6828799],[11.9753732,57.6829018],[11.9754141,57.6828744],[11.9753881,57.6828578],[11.9753389,57.6828799]]],[[[11.9748261,57.6830404],[11.9746513,57.6831173],[11.9748205,57.6832262],[11.9749917,57.6831484],[11.975005,57.6831569],[11.9753005,57.6830243],[11.9751354,57.6829167],[11.9748374,57.6830478],[11.9748261,57.6830404]]],[[[11.9736831,57.6837102],[11.9735935,57.6836533],[11.9735406,57.683677],[11.9736297,57.6837343],[11.9734081,57.6838338],[11.9734334,57.6838504],[11.9734071,57.6838571],[11.9733939,57.6838698],[11.9733969,57.6838845],[11.9734148,57.6838954],[11.9732479,57.6839707],[11.9733605,57.6840419],[11.9733007,57.6840041],[11.9732504,57.684027],[11.9733105,57.684065],[11.9738288,57.6838351],[11.9737577,57.68379],[11.9737893,57.6837824],[11.9738018,57.6837643],[11.9737861,57.6837472],[11.9737533,57.6837413],[11.9741951,57.6835429],[11.9741459,57.68351],[11.9741627,57.6835029],[11.9739369,57.6833626],[11.9738135,57.6834182],[11.9739568,57.6835087],[11.9736103,57.6836639],[11.9736831,57.6837102]],[[11.9736537,57.6837235],[11.9737122,57.6837598],[11.9737118,57.6837607],[11.9736537,57.6837235]],[[11.9736537,57.6837235],[11.973631,57.6837337],[11.9736831,57.6837102],[11.9736537,57.6837235]]],[[[11.9736844,57.6832874],[11.9736616,57.6833214],[11.9738131,57.6834179],[11.9739365,57.6833623],[11.9740839,57.6833],[11.9739385,57.6832082],[11.9738816,57.6832328],[11.9737952,57.6832506],[11.9737753,57.6832595],[11.9737634,57.6832519],[11.9736844,57.6832874]]]]}}]}